{"version": 0.6, "generator": "Overpass API 0.7.62.8 e802775f", "osm3s": {"timestamp_osm_base": "2025-09-23T18:42:35Z", "copyright": "The data included in this document is from www.openstreetmap.org. The data is made available under ODbL."}, "elements": [{"type": "node", "id": 268917040, "lat": 52.4956842, "lon": 13.4052329, "tags": {"addr:city": "Berlin", "addr:housenumber": "69", "addr:postcode": "10961", "addr:street": "Baerwaldstra\u00dfe", "amenity": "veterinary", "name": "Tierarztpraxis am Urban", "note": "St\u00e4dt. Kita Baerwaldstr. 69", "opening_hours": "Mo-Sa 10:00-12:00, Mo 17:00-19:00, Tu,We,Fr 16:00-18:00, Th 17:00-19:00", "wheelchair": "no"}}, {"type": "node", "id": 270793304, "lat": 52.5639424, "lon": 13.3260656}, {"type": "node", "id": 270793305, "lat": 52.563985, "lon": 13.3259096}, {"type": "node", "id": 270793306, "lat": 52.5637309, "lon": 13.3257304}, {"type": "node", "id": 270793307, "lat": 52.5636873, "lon": 13.3258889}, {"type": "node", "id": 299795048, "lat": 52.6062863, "lon": 13.4795548, "tags": {"addr:city": "Berlin", "addr:country": "DE", "addr:housenumber": "67", "addr:postcode": "13125", "addr:street": "Stra\u00dfe 48", "addr:suburb": "Karow", "amenity": "veterinary", "name": "Dr. med. vet. Elke Hartwig", "opening_hours": "Mo,Tu,Th,Fr 10:00-12:00, Mo-Fr 15:00-18:00", "phone": "+49 30 9437820", "website": "http://www.tierarztpraxis-hartwig.de/", "wheelchair": "limited"}}, {"type": "node", "id": 314406052, "lat": 52.5748459, "lon": 13.3514724}, {"type": "node", "id": 314406053, "lat": 52.5747638, "lon": 13.3514133}, {"type": "node", "id": 314406056, "lat": 52.574933, "lon": 13.3511883}, {"type": "node", "id": 347294456, "lat": 52.4297216, "lon": 13.3201326, "tags": {"addr:city": "Berlin", "addr:country": "DE", "addr:housenumber": "36", "addr:postcode": "12207", "addr:street": "K\u00f6nigsberger Stra\u00dfe", "addr:suburb": "Lichterfelde", "amenity": "veterinary", "name": "Tierarztpraxis Dr. Bernhard S\u00f6rensen", "opening_hours": "Mo-Fr 09:00-20:00; Sa, Su 10:00-18:00", "phone": "+49 30 7738321", "toilets:wheelchair": "no", "website": "https://www.tierarztpraxis-soerensen.de/", "wheelchair": "yes"}}, {"type": "node", "id": 394867279, "lat": 52.5351995, "lon": 13.2705734, "tags": {"amenity": "veterinary", "name": "Tierarztpraxis Jeanette Koepsel"}}, {"type": "node", "id": 411550894, "lat": 52.5095114, "lon": 13.5896353, "tags": {"addr:city": "Berlin", "addr:country": "DE", "addr:housenumber": "19", "addr:postcode": "12621", "addr:street": "Planitzstra\u00dfe", "addr:suburb": "Kaulsdorf", "amenity": "veterinary", "email": "info@tierarzt-kaulsdorf.de", "facebook": "https://www.facebook.com/Dr.M.Kochert.und.Dr.B.Miels/", "fax": "+49 30 5637506", "instagram": "https://www.instagram.com/tierarztpraxiskaulsdorf/", "name": "Kleintierarztpraxis Berlin Kaulsdorf", "opening_hours": "Mo-Fr 09:00-19:00 open \"tel. Terminvereinbarung erforderlich\", week 01-53/2 Sa 09:00-12:00 open \"tel. Terminvereinbarung erforderlich\"; Dec 23-26 off; Dec 31-Jan 02 off; PH off", "operator": "Dr. Berit Miels;Dr. Mathias Kochert", "phone": "+49 30 53018585", "website": "https://www.tierarzt-kaulsdorf.de/"}}, {"type": "node", "id": 427578316, "lat": 52.3840268, "lon": 13.3478685, "tags": {"amenity": "veterinary", "name": "Hundezentrum"}}, {"type": "node", "id": 581887970, "lat": 52.4288173, "lon": 13.1935291, "tags": {"amenity": "veterinary", "name": "Eva Klein"}}, {"type": "node", "id": 603392630, "lat": 52.4302981, "lon": 13.2373596, "tags": {"addr:city": "Berlin", "addr:country": "DE", "addr:housenumber": "19b", "addr:postcode": "14163", "addr:street": "Oertzenweg", "addr:suburb": "Zehlendorf", "amenity": "veterinary", "emergency": "yes", "name": "Klein- und Heimtierklinik", "operator": "Freie Universit\u00e4t Berlin", "source": "Geoportal Berlin / k5_2012_sw_sued.zip", "website": "https://www.vetmed.fu-berlin.de/einrichtungen/kliniken/we20/index.html", "wheelchair": "yes"}}, {"type": "node", "id": 702363921, "lat": 52.4042597, "lon": 13.5071658, "tags": {"amenity": "veterinary", "name": "Tierarztpraxis im Frauenviertel - Firchow", "opening_hours": "Mo-Fr 10:00-12:00, Mo,Tu,Th 17:00-19:00, Fr 16:00-18:00", "wheelchair": "limited"}}, {"type": "node", "id": 703135335, "lat": 52.4608878, "lon": 13.121554, "tags": {"addr:city": "Berlin", "addr:country": "DE", "addr:housenumber": "29", "addr:postcode": "14089", "addr:street": "Zingerleweg", "amenity": "veterinary", "contact:email": "info@kleintierpraxis-kladow.de", "contact:fax": "+49 30 36991083", "contact:mobile": "+49 163 2386867", "contact:phone": "+49 30 3653374", "contact:website": "http://www.kleintierpraxis-kladow.de", "name": "Kleintierpraxis Kladow"}}, {"type": "node", "id": 785633064, "lat": 52.3921777, "lon": 13.2236317, "tags": {"amenity": "veterinary"}}, {"type": "node", "id": 847300428, "lat": 52.5554358, "lon": 13.5534205}, {"type": "node", "id": 847300433, "lat": 52.555675, "lon": 13.5530747}, {"type": "node", "id": 847300438, "lat": 52.5555368, "lon": 13.5535077}, {"type": "node", "id": 847300441, "lat": 52.555574, "lon": 13.5529875}, {"type": "node", "id": 925747311, "lat": 52.3875669, "lon": 13.5067595, "tags": {"amenity": "veterinary", "name": "Tierarztpraxis Sch\u00f6nefeld", "opening_hours": "Mo-Tu 15:00-19:00; Th-Fr 15:00-19:00", "wheelchair": "no"}}, {"type": "node", "id": 978560965, "lat": 52.4531078, "lon": 13.5245669, "tags": {"addr:city": "Berlin", "addr:country": "DE", "addr:housenumber": "97", "addr:postcode": "12439", "addr:street": "Schnellerstra\u00dfe", "addr:suburb": "Niedersch\u00f6neweide", "amenity": "veterinary", "name": "Carsten Schiller", "opening_hours": "Mo,Tu 10:00-12:00,15:00-18:00; We 15:00-18:00; Th;Fr 10:00-12:00,15:00-18:00", "wheelchair": "no", "wheelchair:description": "Eine Stufe, schmale T\u00fcr zum Behandlungsraum"}}, {"type": "node", "id": 1003123264, "lat": 52.4232758, "lon": 13.4367554, "tags": {"amenity": "veterinary", "name": "Tierarztpraxis Dr. C. Lewandowski und Dr. S. Klug", "website": "https://www.lewandowski-klug.de/", "wheelchair": "no"}}, {"type": "node", "id": 1069431810, "lat": 52.5870846, "lon": 13.2811455, "tags": {"addr:city": "Berlin", "addr:country": "DE", "addr:housenumber": "39", "addr:postcode": "13507", "addr:street": "Brunowstra\u00dfe", "addr:suburb": "Tegel", "amenity": "veterinary", "name": "Gabriele C. M\u00fcller", "opening_hours": "Mo,Tu,Th,Fr 10:00-12:00,17:00-19:00, We 17:00-18:00, Sa 12:00-13:00", "phone": "+49304343116", "website": "https://www.tieraerztin-berlin.com/", "wheelchair": "limited"}}, {"type": "node", "id": 1126213250, "lat": 52.5095979, "lon": 13.121719}, {"type": "node", "id": 1126213577, "lat": 52.509681, "lon": 13.1216593}, {"type": "node", "id": 1126214294, "lat": 52.5096164, "lon": 13.1214032}, {"type": "node", "id": 1126214927, "lat": 52.5095329, "lon": 13.1214581}, {"type": "node", "id": 1139485719, "lat": 52.464411, "lon": 13.3395319, "tags": {"addr:city": "Berlin", "addr:country": "DE", "addr:housenumber": "68", "addr:postcode": "12163", "addr:street": "Feuerbachstra\u00dfe", "addr:suburb": "Steglitz", "amenity": "veterinary", "name": "Tierarztpraxis Feuerbachstra\u00dfe", "opening_hours": "Mo-Su 09:00-12:00; Mo-Fr 16:00-20:00", "operator": "Dr. med. vet. A. Sillinger;Dr. med. vet. A. Bahr", "phone": "+49 30 855 40 50", "wheelchair": "no"}}, {"type": "node", "id": 1158920335, "lat": 52.6074605, "lon": 13.41982, "tags": {"addr:city": "Berlin", "addr:country": "DE", "addr:housenumber": "55", "addr:postcode": "13127", "addr:street": "Schweizer Tal", "addr:suburb": "Franz\u00f6sisch Buchholz", "amenity": "veterinary", "name": "Tierarztpraxis Kammbach", "phone": "+4930 47 48 12 20", "toilets:wheelchair": "no", "website": "https://www.tierarztpraxis-kammbach.de/", "wheelchair": "yes"}}, {"type": "node", "id": 1169112227, "lat": 52.5281462, "lon": 13.4501959, "tags": {"addr:city": "Berlin", "addr:country": "DE", "addr:housenumber": "4", "addr:postcode": "10407", "addr:street": "Conrad-Blenkle-Stra\u00dfe", "addr:suburb": "Prenzlauer Berg", "amenity": "veterinary", "check_date": "2025-05-11", "contact:phone": "+493042085005", "contact:website": "http://www.tierarztpraxis-am-velodrom.de/", "name": "Tierarztpraxis am Velodrom", "opening_hours": "Mo,Th 12:00-19:00; Tu,Fr 09:00-15:00; We,Sa 09:00-12:00", "wheelchair": "limited"}}, {"type": "node", "id": 1244610778, "lat": 52.5121271, "lon": 13.4195273, "tags": {"amenity": "veterinary", "name": "Dipl.-vet.-med. J\u00f6rg Porada"}}, {"type": "node", "id": 1247761224, "lat": 52.5290099, "lon": 13.4684992, "tags": {"amenity": "veterinary", "check_date:opening_hours": "2025-06-09", "name": "Tierarztpraxis", "opening_hours": "Mo,Tu,Th,Fr 09:30-11:00,16:30-19:00; We 17:00-20:00; Sa 10:00-12:00", "wheelchair": "yes"}}, {"type": "node", "id": 1309566310, "lat": 52.5958722, "lon": 13.3349653, "tags": {"amenity": "veterinary", "name": "Bella brazil waxing studio"}}, {"type": "node", "id": 1352697273, "lat": 52.5525185, "lon": 13.4154857, "tags": {"amenity": "veterinary", "name": "DVM J. Rafael", "opening_hours": "Mo,We 09:00-12:00,15:00-19:00, Tu,Th 09:00-11:00,14:00-18:00, Fr 09:00-12:00, Sa 09:00-11:00", "wheelchair": "limited"}}, {"type": "node", "id": 1387989062, "lat": 52.4789793, "lon": 13.2848224, "tags": {"amenity": "veterinary", "name": "Dr. K\u00f6nig", "opening_hours": "Mo-Sa 10:00-12:00; Mo,Tu,Th,Fr 16:00-18:00"}}, {"type": "node", "id": 1431365727, "lat": 52.478761, "lon": 13.2825498, "tags": {"amenity": "veterinary"}}, {"type": "node", "id": 1444862410, "lat": 52.4463278, "lon": 13.4543051, "tags": {"addr:city": "Berlin", "addr:housenumber": "206", "addr:postcode": "12359", "addr:street": "Buschkrugallee", "amenity": "veterinary", "name": "Flidais", "website": "https://www.flidais-vet.de"}}, {"type": "node", "id": 1464419364, "lat": 52.5536467, "lon": 13.4483752, "tags": {"addr:city": "Berlin", "addr:country": "DE", "addr:housenumber": "5", "addr:postcode": "13086", "addr:street": "G\u00e4blerstra\u00dfe", "addr:suburb": "Wei\u00dfensee", "amenity": "veterinary", "check_date": "2025-08-30", "name": "Ullrich Mattke", "opening_hours": "Mo-Th 09:00-12:00,15:00-19:00; Sa 10:00-12:00; Fr 09:00-12:00,15:00-17:00", "source": "Geoportal Berlin / Hauskoordinaten"}}, {"type": "node", "id": 1492682203, "lat": 52.5355029, "lon": 13.5426037, "tags": {"addr:city": "Berlin", "addr:country": "DE", "addr:housenumber": "75", "addr:postcode": "12685", "addr:street": "Bruno-Baum-Stra\u00dfe", "addr:suburb": "Marzahn", "amenity": "veterinary", "url": "http://www.tierarztpraxis-torres.de"}}, {"type": "node", "id": 1504191018, "lat": 52.4617945, "lon": 13.4350014, "tags": {"addr:city": "Berlin", "addr:country": "DE", "addr:housenumber": "13", "addr:postcode": "12347", "addr:street": "Britzer Damm", "addr:suburb": "Britz", "amenity": "veterinary", "check_date": "2023-04-12", "name": "Tierarztpraxis O.C. Lombardi", "opening_hours": "Mo-Sa 10:00-12:00; Mo,Th 16:00-19:00; Tu,Fr 16:00-18:00", "phone": "+49 30 6251547", "toilets:wheelchair": "no", "website": "https://www.lombardi-berlin.de/", "wheelchair": "limited"}}, {"type": "node", "id": 1557276256, "lat": 52.4553737, "lon": 13.7043146, "tags": {"amenity": "veterinary", "name": "Tierarztpraxis Dr. Alfred Jerichow", "phone": "+49-30-6495021"}}, {"type": "node", "id": 1560697067, "lat": 52.4141728, "lon": 13.2236715, "tags": {"addr:city": "Kleinmachnow", "addr:housenumber": "54", "addr:postcode": "14532", "addr:street": "Karl-Marx-Stra\u00dfe", "amenity": "veterinary", "name": "Vollmer", "wheelchair": "no"}}, {"type": "node", "id": 1574567075, "lat": 52.416316, "lon": 13.2269654}, {"type": "node", "id": 1574567078, "lat": 52.4163049, "lon": 13.2267923}, {"type": "node", "id": 1574567082, "lat": 52.4164366, "lon": 13.2267679}, {"type": "node", "id": 1574567083, "lat": 52.416451, "lon": 13.226934}, {"type": "node", "id": 1574567348, "lat": 52.4164122, "lon": 13.226458}, {"type": "node", "id": 1574567349, "lat": 52.4163641, "lon": 13.2266714}, {"type": "node", "id": 1574567350, "lat": 52.416428, "lon": 13.2266578}, {"type": "node", "id": 1574567351, "lat": 52.4162714, "lon": 13.226488}, {"type": "node", "id": 1574567352, "lat": 52.4162888, "lon": 13.2267078}, {"type": "node", "id": 1574567967, "lat": 52.4163629, "lon": 13.2266959}, {"type": "node", "id": 1574568646, "lat": 52.4162991, "lon": 13.2267078}, {"type": "node", "id": 1574568647, "lat": 52.4163688, "lon": 13.2267804}, {"type": "node", "id": 1607627062, "lat": 52.5303117, "lon": 13.1363236, "tags": {"amenity": "veterinary", "emergency": "no", "name": "Naturheilpraxis Dr. Hanik"}}, {"type": "node", "id": 1674821715, "lat": 52.3637226, "lon": 13.5939991, "tags": {"addr:city": "Schulzendorf", "addr:country": "DE", "addr:housenumber": "109", "addr:postcode": "15732", "addr:street": "Ernst-Th\u00e4lmann-Stra\u00dfe", "amenity": "veterinary", "name": "Tierarztpraxis Dr. Buchmeister", "wheelchair": "no"}}, {"type": "node", "id": 1755090982, "lat": 52.5086637, "lon": 13.5558519}, {"type": "node", "id": 1755090985, "lat": 52.5087054, "lon": 13.5555957}, {"type": "node", "id": 1755090996, "lat": 52.5087739, "lon": 13.555874}, {"type": "node", "id": 1755090997, "lat": 52.508795, "lon": 13.5556119}, {"type": "node", "id": 1766858344, "lat": 52.5838893, "lon": 13.3006927, "tags": {"addr:city": "Berlin", "addr:country": "DE", "addr:housenumber": "59", "addr:postcode": "13509", "addr:street": "Ernststra\u00dfe", "addr:suburb": "Borsigwalde", "amenity": "veterinary", "name": "Tierarztpraxis Tanja L\u00fcck", "opening_hours": "Mo-We 09:00-13:00,16:00-19:00; Th 15:00-20:00; Fr 09:00-13:00,16:00-19:00; PH off", "phone": "+493043726783", "website": "https://www.tanja-lueck.de/"}}, {"type": "node", "id": 1781199398, "lat": 52.6576503, "lon": 13.3390279}, {"type": "node", "id": 1781199401, "lat": 52.6577228, "lon": 13.3394004}, {"type": "node", "id": 1781199403, "lat": 52.6577907, "lon": 13.339055}, {"type": "node", "id": 1781199404, "lat": 52.6578212, "lon": 13.3392115}, {"type": "node", "id": 1781199406, "lat": 52.6578453, "lon": 13.3393355}, {"type": "node", "id": 1781199407, "lat": 52.657921, "lon": 13.3389861}, {"type": "node", "id": 1781199408, "lat": 52.6579514, "lon": 13.3391425}, {"type": "node", "id": 1791397445, "lat": 52.4544641, "lon": 13.5780156, "tags": {"amenity": "veterinary", "name": "Tierarzt-Praxis Ralf Boxhammer", "opening_hours": "Mo,We 09:00-12:00; Tu,Th,Fr 14:00-17:00; Sa,Su 11:00-13:00", "wheelchair": "no"}}, {"type": "node", "id": 1832317052, "lat": 52.465439, "lon": 13.4889671, "tags": {"addr:city": "Berlin", "addr:country": "DE", "addr:housenumber": "9", "addr:postcode": "12437", "addr:street": "Ernststra\u00dfe", "addr:suburb": "Baumschulenweg", "amenity": "veterinary", "name": "Tierarztpraxis Michael Voigt", "opening_hours": "Mo 09:00-12:00,15:00-18:00; Tu 13:00-18:00; We 09:00-12:00; Th 09:00-12:00,15:00-18:00; Fr 13:00-18:00", "phone": "+49 30 532 9481", "website": "https://tierarzt-voigt.de/"}}, {"type": "node", "id": 1905963733, "lat": 52.497396, "lon": 13.3245464, "tags": {"addr:city": "Berlin", "addr:country": "DE", "addr:housenumber": "151", "addr:postcode": "10719", "addr:street": "Uhlandstra\u00dfe", "addr:suburb": "Wilmersdorf", "amenity": "veterinary", "check_date": "2024-07-26", "contact:phone": "+49 30 23362627", "contact:website": "https://www.tierarzt-baerenwiese.de/", "description": "Notrufnummer +49 174 160 160 6", "name": "Tierarztpraxis B\u00e4renwiese/ Tiernotarzt Berlin", "opening_hours": "Mo 08:00-20:00; Tu-Fr 10:00-20:00; Sa,Su 10:00-13:00", "wheelchair": "limited"}}, {"type": "node", "id": 1914085674, "lat": 52.4788705, "lon": 13.3269233, "tags": {"addr:city": "Berlin", "addr:country": "DE", "addr:housenumber": "3", "addr:postcode": "10715", "addr:street": "Detmolder Stra\u00dfe", "addr:suburb": "Wilmersdorf", "amenity": "veterinary", "name": "Tierarztpraxis am Bundesplatz", "opening_hours": "Mo,Tu,Th,Fr 09:00-12:00,16:00-18:00; We 09:00-11:00; Sa 10:00-12:00"}}, {"type": "node", "id": 1965863459, "lat": 52.4969564, "lon": 13.4325994, "tags": {"addr:city": "Berlin", "addr:country": "DE", "addr:housenumber": "25", "addr:postcode": "10999", "addr:street": "Wiener Stra\u00dfe", "addr:suburb": "Kreuzberg", "amenity": "veterinary", "name": "Dr. Demmler, Dr. Wehming", "opening_hours": "Mo-Fr 10:00-12:00,16:00-19:00; Sa 10:00-12:00; Su 10:00-11:00", "source": "Yahoo imagery"}}, {"type": "node", "id": 1978736705, "lat": 52.4380728, "lon": 13.5481783, "tags": {"addr:city": "Berlin", "addr:country": "DE", "addr:floor": "1", "addr:housenumber": "46", "addr:postcode": "12489", "addr:street": "D\u00f6rpfeldstra\u00dfe", "addr:suburb": "Adlershof", "amenity": "veterinary", "check_date": "2024-02-07", "level": "1", "name": "Tierarzt Scheibner", "opening_hours": "Mo-Sa 09:00-11:00; Mo,We 16:00-18:30; Tu 18:30-20:30; Fr 16:00-18:00; PH off  || \"Nach Vereinbarung\"", "phone": "+49 30 677 54 03", "website": "https://www.tierarzt-adlershof.de/", "wheelchair": "yes"}}, {"type": "node", "id": 2000251280, "lat": 52.509309, "lon": 13.2859209, "tags": {"addr:city": "Berlin", "addr:housenumber": "3", "addr:postcode": "14057", "addr:street": "Riehlstra\u00dfe", "amenity": "veterinary", "check_date:opening_hours": "2024-10-07", "email": "mail@tierarztpraxis-am-lietzenseepark.de", "fax": "+49 30 3216568", "name": "Tierarztpraxis am Lietzenseepark", "opening_hours": "Mo-Fr 09:00-12:00 16:00-19:00, Sa 11:00-13:00, Mo-Fr 12:00-16:00 \"nur mit Voranmeldung\"", "opening_hours:url": "https://tierarztpraxis-am-lietzenseepark.de/sprechzeiten/", "operator": "Tierarztpraxis am Lietzenseepark GmbH", "phone": "+49 30 3215058", "website": "https://tierarztpraxis-am-lietzenseepark.de/"}}, {"type": "node", "id": 2018939619, "lat": 52.431227, "lon": 13.2561565, "tags": {"amenity": "veterinary", "contact:website": "https://www.dr-brieger.de", "name": "Tierarztpraxis Dr. H. Brieger"}}, {"type": "node", "id": 2021286582, "lat": 52.503473, "lon": 13.3067983, "tags": {"amenity": "veterinary", "name": "Esther Bartels", "wheelchair": "yes"}}, {"type": "node", "id": 2099577566, "lat": 52.4127843, "lon": 13.541714, "tags": {"addr:city": "Berlin", "addr:country": "DE", "addr:housenumber": "43-45", "addr:postcode": "12524", "addr:street": "Bernulfstra\u00dfe", "addr:suburb": "Altglienicke", "amenity": "veterinary", "name": "Tierarztpraxis Dr. Veit-Uwe Stuhrberg", "opening_hours": "Mo,Tu,Th,Fr 09:00-11:00,16:00-19:00; We 09:00-11:00; Sa 09:00-11:00", "phone": "+49 30 6723384", "website": "https://www.tierarztpraxis-altglienicke.de/", "wheelchair": "no", "wheelchair:description": "Gr\u00f6ssere Treppe (abw\u00e4rts) zum Eingang"}}, {"type": "node", "id": 2132599964, "lat": 52.541678, "lon": 13.5721215, "tags": {"addr:city": "Berlin", "addr:country": "DE", "addr:housenumber": "10", "addr:postcode": "12685", "addr:street": "Krummenseer Stra\u00dfe", "addr:suburb": "Marzahn", "amenity": "veterinary", "name": "Dr. Ulrich Bemm", "opening_hours": "Mo 13:00-18:00, Tu 10:00-15:00; We 10:00-15:00; Th 13:00-18:00; Fr 10:00-15:00", "phone": "+49-30-54378250", "wheelchair": "yes"}}, {"type": "node", "id": 2136188609, "lat": 52.54542, "lon": 13.5719026, "tags": {"addr:city": "Berlin", "addr:country": "DE", "addr:housenumber": "158", "addr:postcode": "12685", "addr:street": "Blumberger Damm", "addr:suburb": "Marzahn", "amenity": "veterinary", "email": "info@tierarztpraxis-vesmes.de", "level": "0", "name": "Tierarztpraxis Vesmes", "opening_hours": "Mo 09:00-12:00, 16:00-20:00; Tu 09:00-12:00, 16:00-20:00; We 16:00-20:00; Th 09:00-12:00, 16:00-20:00; Fr 09:00-12:00, 16:00-20:00", "operator": "Joel Vesmes", "phone": "+49309340440", "website": "https://www.tierarztpraxis-vesmes.de", "wheelchair": "yes"}}, {"type": "node", "id": 2303053618, "lat": 52.5477287, "lon": 13.2022574, "tags": {"amenity": "veterinary", "wheelchair": "no"}}, {"type": "node", "id": 2316165006, "lat": 52.6142716, "lon": 13.201935, "tags": {"addr:city": "Hennigsdorf", "addr:country": "DE", "addr:housenumber": "10A", "addr:postcode": "16761", "addr:street": "Am Yachthafen", "amenity": "veterinary", "contact:phone": "+49 3302-209121", "contact:website": "http://www.tierarzt-hennigsdorf.de/", "name": "Tierarztpraxis M. Tudies", "wheelchair": "yes"}}, {"type": "node", "id": 2332698000, "lat": 52.4178034, "lon": 13.3061609, "tags": {"amenity": "veterinary", "name": "Flick", "opening_hours": "Mo-Sa 17:00-19:00"}}, {"type": "node", "id": 2337286936, "lat": 52.6339794, "lon": 13.3131336, "tags": {"addr:city": "Glienicke/Nordbahn", "addr:housenumber": "83", "addr:postcode": "16548", "addr:street": "Hattwichstra\u00dfe", "amenity": "veterinary", "level": "0", "name": "Ihr Tier\u00e4rzteteam Glienicke", "opening_hours": "Mo-Fr 09:00-12:00,16:00-20:00; Sa 10:00-14:00", "operator": "Ines Hoffmann;Dr. Ellen von Czapiewski", "phone": "+49 33056 27557", "website": "https://www.tieraerzteteam-glienicke.de/", "wheelchair": "yes"}}, {"type": "node", "id": 2396407720, "lat": 52.4066834, "lon": 13.4404885}, {"type": "node", "id": 2396407722, "lat": 52.406626, "lon": 13.4401887}, {"type": "node", "id": 2396407724, "lat": 52.4065668, "lon": 13.4405487}, {"type": "node", "id": 2396407726, "lat": 52.4065099, "lon": 13.4402484}, {"type": "node", "id": 2420872095, "lat": 52.5286363, "lon": 13.3412782, "tags": {"amenity": "veterinary", "check_date:opening_hours": "2025-03-13", "name": "Dr. Wolfgang Hoffmann", "opening_hours": "Mo-Fr 10:00-12:00,15:00-18:00", "wheelchair": "no"}}, {"type": "node", "id": 2444304869, "lat": 52.5490713, "lon": 13.4937991, "tags": {"addr:city": "Berlin", "addr:country": "DE", "addr:housenumber": "15", "addr:postcode": "13053", "addr:street": "Sabinensteig", "addr:suburb": "Alt-Hohensch\u00f6nhausen", "amenity": "veterinary", "name": "Kleintierpraxis Dr. Jana Pohlenz", "website": "http://www.kleintierpraxis-pohlenz.de"}}, {"type": "node", "id": 2444308316, "lat": 52.5535045, "lon": 13.49705, "tags": {"addr:city": "Berlin", "addr:country": "DE", "addr:housenumber": "54", "addr:postcode": "13053", "addr:street": "Am Faulen See", "amenity": "veterinary", "name": "Tierarzt Dr. Niels L\u00f6sch"}}, {"type": "node", "id": 2509134926, "lat": 52.4617784, "lon": 13.5859364, "tags": {"amenity": "veterinary", "email": "tierarzt@tierpraxis-rudelt.de", "name": "Praxis im M\u00e4rchenviertel", "opening_hours": "Mo 14:00-18:00, Tu,Th 09:00-12:00, We 15:00-19:00; PH off", "operator": "Anette Rudelt", "phone": "+49 30 6574725", "website": "http://www.tierpraxis-rudelt.de/", "wheelchair": "no"}}, {"type": "node", "id": 2525117416, "lat": 52.5883891, "lon": 13.429743, "tags": {"addr:city": "Berlin", "addr:country": "DE", "addr:housenumber": "25", "addr:postcode": "13127", "addr:street": "Pasewalker Stra\u00dfe", "addr:suburb": "Franz\u00f6sisch Buchholz", "amenity": "veterinary", "check_date:opening_hours": "2023-09-14", "name": "SmartVet Tierarztpraxis", "opening_hours": "Mo-Fr 09:00-18:00; Sa 09:00-16:00; Su 11:00-13:00", "phone": "+49 30 47469232", "website": "https://www.smartvet.de/tierarztpraxis_berlin_pankow,3027959488.html", "wheelchair": "yes"}}, {"type": "node", "id": 2674384521, "lat": 52.4478307, "lon": 13.3865847, "tags": {"addr:country": "DE", "addr:suburb": "Mariendorf", "amenity": "veterinary", "name": "Tierarztpraxis Tempelhof"}}, {"type": "node", "id": 2675751604, "lat": 52.40391, "lon": 13.1859648, "tags": {"amenity": "veterinary", "name": "Kleintier Chirurgie Dreilinden", "opening_hours": "Mo-Fr 08:00-18:00"}}, {"type": "node", "id": 2689935502, "lat": 52.4782933, "lon": 13.7004063, "tags": {"addr:city": "Sch\u00f6neiche bei Berlin", "addr:country": "DE", "addr:housenumber": "78", "addr:postcode": "15566", "addr:street": "Heuweg", "amenity": "veterinary", "level": "0", "name": "Tierarztpraxis Susanne Glodde", "opening_hours": "Mo,We,Fr 10:00-18:00; Tu 14:00-19:00; Th 09:00-14:00", "operator": "Vet. med. Susanne Glodde", "phone": "+49 30 65013304", "website": "https://www.tierarztpraxis-berlin-schoeneiche.de/", "wheelchair": "yes"}}, {"type": "node", "id": 2699695542, "lat": 52.3878406, "lon": 13.2656372, "tags": {"addr:city": "Teltow", "addr:country": "DE", "addr:housenumber": "2", "addr:postcode": "14513", "addr:street": "Asternstra\u00dfe", "amenity": "veterinary", "name": "SmartVet Tierarztpraxis", "phone": "+493328 334020", "website": "https://www.smartvet.de/", "wheelchair": "yes"}}, {"type": "node", "id": 2746780787, "lat": 52.4505337, "lon": 13.3410324, "tags": {"addr:city": "Berlin", "addr:country": "DE", "addr:housenumber": "30", "addr:postcode": "12169", "addr:street": "Steglitzer Damm", "addr:suburb": "Steglitz", "amenity": "veterinary", "check_date:opening_hours": "2021-07-22", "email": "info@tieraerzte-steglitz.de", "name": "Dr. med. vet. Jeanette Sagawe", "opening_hours": "Mo-Fr 09:00-13:00,16:00-20:00; Sa 10:00-16:00", "phone": "+49 30 7951435", "website": "https://www.tieraerzte-steglitz.de"}}, {"type": "node", "id": 2872429538, "lat": 52.5311649, "lon": 13.1486345, "tags": {"entrance": "yes"}}, {"type": "node", "id": 2896439553, "lat": 52.5311923, "lon": 13.1484939}, {"type": "node", "id": 2896440080, "lat": 52.5311953, "lon": 13.1486327}, {"type": "node", "id": 2896440137, "lat": 52.5311213, "lon": 13.1485812}, {"type": "node", "id": 2896440140, "lat": 52.531123, "lon": 13.1486377}, {"type": "node", "id": 2896440155, "lat": 52.5311554, "lon": 13.1484568}, {"type": "node", "id": 2896440156, "lat": 52.5311566, "lon": 13.1484961}, {"type": "node", "id": 2896440311, "lat": 52.5311036, "lon": 13.1484612}, {"type": "node", "id": 2896440314, "lat": 52.5311077, "lon": 13.1485823}, {"type": "node", "id": 2952593533, "lat": 52.396095, "lon": 13.161149, "tags": {"addr:housenumber": "2", "addr:street": "Kremnitzufer", "amenity": "veterinary", "name": "Bania", "phone": "+49308051172", "source": "Dakota 20"}}, {"type": "node", "id": 3045653553, "lat": 52.6415515, "lon": 13.3740006}, {"type": "node", "id": 3045653557, "lat": 52.6415283, "lon": 13.3740316}, {"type": "node", "id": 3045653558, "lat": 52.6415817, "lon": 13.3741186}, {"type": "node", "id": 3045653564, "lat": 52.6415185, "lon": 13.3740929}, {"type": "node", "id": 3045653578, "lat": 52.6415945, "lon": 13.3741687}, {"type": "node", "id": 3045653580, "lat": 52.6416471, "lon": 13.3741322}, {"type": "node", "id": 3045653583, "lat": 52.6416042, "lon": 13.3739641}, {"type": "node", "id": 3045653584, "lat": 52.6415625, "lon": 13.3740433}, {"type": "node", "id": 3065368552, "lat": 52.4107877, "lon": 13.403669, "tags": {"addr:city": "Berlin", "addr:country": "DE", "addr:housenumber": "39", "addr:postcode": "12305", "addr:street": "Lichtenrader Damm", "addr:suburb": "Lichtenrade", "amenity": "veterinary", "check_date:opening_hours": "2024-12-03", "email": "koch@tierarztpraxis-koch.de", "fax": "+49 30 67 03 76 58", "name": "Tierarztpraxis Dr. Koch", "opening_hours": "Mo,We,Fr 09:00-14:00; Tu,Th 15:00-20:00", "operator": "Dr. Christian Koch", "phone": "+49 30 67 03 76 57", "website": "http://www.tierarztpraxis-koch.de/", "wheelchair": "no"}}, {"type": "node", "id": 3080776284, "lat": 52.5061832, "lon": 13.3494203, "tags": {"addr:city": "Berlin", "addr:country": "DE", "addr:housenumber": "26", "addr:postcode": "10787", "addr:street": "L\u00fctzowufer", "addr:suburb": "Tiergarten", "amenity": "veterinary", "name": "Tier\u00e4rzliche Praxis am L\u00fctzowufer"}}, {"type": "node", "id": 3133634694, "lat": 52.4614933, "lon": 13.5131144, "tags": {"addr:city": "Berlin", "addr:country": "DE", "addr:housenumber": "63", "addr:postcode": "12459", "addr:street": "Edisonstra\u00dfe", "amenity": "veterinary", "name": "Praxis Tierzuliebe", "opening_hours": "Mo,Tu,Th,Fr 10:00-18:00; Sa 10:00-14:00; Su 11:00-13:00", "operator": "Miriam Bertram", "phone": "+49 30 535 38 00", "website": "https://tierarztinberlin.de/", "wheelchair": "yes"}}, {"type": "node", "id": 3134931058, "lat": 52.5663604, "lon": 13.5907735, "tags": {"addr:city": "Ahrensfelde", "addr:housenumber": "1", "addr:postcode": "16356", "addr:street": "Kirchweg", "addr:suburb": "Eiche", "amenity": "veterinary", "name": "Tierarztpraxis Amina Schubert", "opening_hours": "Mo-Fr 08:00-12:00,15:00-19:00; Sa 09:00-12:00", "phone": "+49 30 9309777", "wheelchair": "yes"}}, {"type": "node", "id": 3178164316, "lat": 52.4699319, "lon": 13.3395083, "tags": {"addr:city": "Berlin", "addr:country": "DE", "addr:housenumber": "3", "addr:postcode": "12159", "addr:street": "Bahnhofstra\u00dfe", "addr:suburb": "Sch\u00f6neberg", "amenity": "veterinary", "level": "0", "name": "Dirk Trimpe", "opening_hours": "Mo-Sa 10:00-12:30, Mo,Tu,Th,Fr 17:00-19:00", "phone": "+49 30 8521920", "website": "http://www.tierarztpraxis-trimpe.de/", "wheelchair": "no"}}, {"type": "node", "id": 3218895055, "lat": 52.487534, "lon": 13.2665513}, {"type": "node", "id": 3218957836, "lat": 52.4875173, "lon": 13.2665936}, {"type": "node", "id": 3218957838, "lat": 52.4875403, "lon": 13.266565}, {"type": "node", "id": 3218957839, "lat": 52.4875455, "lon": 13.2666546}, {"type": "node", "id": 3218957857, "lat": 52.4876235, "lon": 13.2664403}, {"type": "node", "id": 3218958030, "lat": 52.4875695, "lon": 13.2667065}, {"type": "node", "id": 3218958032, "lat": 52.4876594, "lon": 13.2667403}, {"type": "node", "id": 3218958034, "lat": 52.4876885, "lon": 13.2665678}, {"type": "node", "id": 3218958592, "lat": 52.4875614, "lon": 13.2667165}, {"type": "node", "id": 3218958598, "lat": 52.4876393, "lon": 13.2665343}, {"type": "node", "id": 3218958600, "lat": 52.4876466, "lon": 13.2667126}, {"type": "node", "id": 3218958602, "lat": 52.4876536, "lon": 13.2665047}, {"type": "node", "id": 3218958605, "lat": 52.4876811, "lon": 13.2667133}, {"type": "node", "id": 3218958610, "lat": 52.4877265, "lon": 13.2666505}, {"type": "node", "id": 3218958684, "lat": 52.4875374, "lon": 13.2666647}, {"type": "node", "id": 3218958799, "lat": 52.4876205, "lon": 13.2664435}, {"type": "node", "id": 3218958808, "lat": 52.4876669, "lon": 13.2665945}, {"type": "node", "id": 3218958893, "lat": 52.4875994, "lon": 13.2667711}, {"type": "node", "id": 3218958895, "lat": 52.4876793, "lon": 13.2667087}, {"type": "node", "id": 3218960064, "lat": 52.4876569, "lon": 13.2665126}, {"type": "node", "id": 3284006061, "lat": 52.561957, "lon": 13.353401, "tags": {"addr:city": "Berlin", "addr:housenumber": "95", "addr:postcode": "13407", "addr:street": "Holl\u00e4nderstra\u00dfe", "amenity": "veterinary", "fax": "+49304557053", "level": "0", "name": "Tierarztpraxis Andrea Reich", "opening_hours": "Mo 10:00-18:00; Th,Fr 10:00-16:00; Tu 10:00-14:00; We 14:00-18:00", "operator": "Andrea Reich", "phone": "+49304557051", "website": "https://www.tierarztpraxis-reinickendorf.de/", "wheelchair": "no"}}, {"type": "node", "id": 3393786475, "lat": 52.5769899, "lon": 13.2792318, "tags": {"amenity": "veterinary", "name": "Tierarztpraxis", "opening_hours": "Mo,We,Th 09:30-13:00; Tu,Fr 15:00-19:00; Sa 09:00-11:00", "phone": "+49 30 40534618"}}, {"type": "node", "id": 3431640297, "lat": 52.6577728, "lon": 13.3389631}, {"type": "node", "id": 3444597275, "lat": 52.4807694, "lon": 13.3623013, "tags": {"addr:city": "Berlin", "addr:country": "DE", "addr:housenumber": "19", "addr:postcode": "10829", "addr:street": "Gustav-M\u00fcller-Stra\u00dfe", "addr:suburb": "Sch\u00f6neberg", "amenity": "veterinary", "check_date:opening_hours": "2024-11-08", "name": "Tierarztpraxis am S\u00fcdkreuz", "opening_hours": "Mo-Fr 10:00-12:00, Mo,We 16:00-19:00, Tu,Th,Fr 16:00-18:00", "website": "https://www.tierarztpraxis-am-suedkreuz.de/", "wheelchair": "no"}}, {"type": "node", "id": 3649210316, "lat": 52.5496022, "lon": 13.4168501, "tags": {"addr:city": "Berlin", "addr:country": "DE", "addr:housenumber": "45", "addr:postcode": "10437", "addr:street": "Greifenhagener Stra\u00dfe", "addr:suburb": "Prenzlauer Berg", "amenity": "veterinary", "check_date": "2024-11-03", "check_date:opening_hours": "2024-11-03", "contact:phone": "+49 30 30361381", "level": "0", "name": "Tierarztpraxis an den Allee-Arcaden", "opening_hours": "Mo,Tu,Th 09:00-12:00,16:00-18:00; Fr 09:00-12:00", "operator": "Anne Gamalski", "toilets:wheelchair": "no", "website": "https://www.tierarztpraxis-allee-arcaden.de/", "wheelchair": "limited", "wheelchair:description": "Mobile Rampe vorhanden; bei Bedarf klingeln"}}, {"type": "node", "id": 3694035418, "lat": 52.4897742, "lon": 13.3488645, "tags": {"addr:city": "Berlin", "addr:country": "DE", "addr:housenumber": "40", "addr:postcode": "10781", "addr:street": "Eisenacher Stra\u00dfe", "addr:suburb": "Sch\u00f6neberg", "amenity": "veterinary", "name": "Tierarztpraxis Dr. med. vet. Gerald Schmid", "opening_hours": "Mo-We,Fr 10:00-14:00; Th 15:00-18:00", "operator": "Dr. med. vet. Gerald Schmid", "phone": "+49 30 211 17 79", "website": "http://doctor-dolittle.de", "wheelchair": "yes"}}, {"type": "node", "id": 3754655246, "lat": 52.5241824, "lon": 13.3359576, "tags": {"addr:city": "Berlin", "addr:country": "DE", "addr:housenumber": "3", "addr:postcode": "10555", "addr:street": "Elberfelder Stra\u00dfe", "addr:suburb": "Moabit", "amenity": "veterinary", "check_date": "2024-10-08", "check_date:opening_hours": "2024-10-08", "name": "Tierarzt Dr. Ferencz", "opening_hours": "\"'Weiter Terminsprechstunde. Bitte rufen Sie an 030-3988 9278'\"", "website": "http://www.tierarztpraxis-moabit.de", "wheelchair": "no"}}, {"type": "node", "id": 3786067403, "lat": 52.5154998, "lon": 13.2608183, "tags": {"addr:city": "Berlin", "addr:country": "DE", "addr:housenumber": "40", "addr:postcode": "14052", "addr:street": "Preu\u00dfenallee", "addr:suburb": "Westend", "amenity": "veterinary", "name": "Tierarztpraxis Tierlieb", "opening_hours": "Mo-Fr 09:00-13:00, Mo,Tu,Th 14:00-18:00; Sa 09:30-11:00", "operator": "Frau Annette Oehler"}}, {"type": "node", "id": 3826013974, "lat": 52.4976524, "lon": 13.3504475, "tags": {"addr:city": "Berlin", "addr:country": "DE", "addr:housenumber": "20", "addr:postcode": "10777", "addr:street": "Nollendorfstra\u00dfe", "addr:suburb": "Sch\u00f6neberg", "amenity": "veterinary", "check_date": "2023-07-09", "contact:phone": "+49 30 2167711", "contact:website": "http://hund-katze-vogel.de/", "name": "Tierarztpraxis am Nollendorfplatz", "opening_hours": "Mo-Tu 10:00-12:00,17:00-19:00; We 17:00-19:00; Th 10:00-12:00,16:00-18:00; Fr 10:00-14:00; Sa \"by appointment\"", "operator": "Dr. Petra Birkefeld & Dr. Elisabeth Nolte", "toilets:wheelchair": "no", "wheelchair": "no"}}, {"type": "node", "id": 3905732054, "lat": 52.4459974, "lon": 13.3307775, "tags": {"amenity": "veterinary", "contact:email": "tierarzt@ta-krause.de", "contact:email_1": "info@ta-krause.de", "contact:phone": "+49 30 91443116", "contact:website": "http://www.ta-krause.de", "name": "Tierarztpraxis Tobias Krause", "opening_hours": "Mo-Fr 09:30-12:00,16:30-19:00; Sa 10:00-12:00"}}, {"type": "node", "id": 3906998156, "lat": 52.5097882, "lon": 13.4509749, "tags": {"addr:city": "Berlin", "addr:country": "DE", "addr:housenumber": "29", "addr:postcode": "10243", "addr:street": "Warschauer Stra\u00dfe", "addr:suburb": "Friedrichshain", "amenity": "veterinary", "check_date:opening_hours": "2025-09-02", "name": "Tierheilpraxis Kreuzberg", "opening_hours": "Mo,We,Fr 11:00-17:00; Tu,Th 14:00-20:00", "wheelchair": "no"}}, {"type": "node", "id": 3911381119, "lat": 52.433136, "lon": 13.2749799, "tags": {"addr:city": "Berlin", "addr:country": "DE", "addr:housenumber": "7", "addr:postcode": "14167", "addr:street": "Hampsteadstra\u00dfe", "addr:suburb": "Zehlendorf", "amenity": "veterinary", "name": "Katharina Andreas"}}, {"type": "node", "id": 4010750484, "lat": 52.3750539, "lon": 13.6172835, "tags": {"amenity": "veterinary", "name": "Dr. med. vet. Thomas Kollowa", "opening_hours": "Mo,We,Fr 09:00-11:00, Mo-Fr 16:00-19:00; Sa 09:00-12:00", "phone": "+49 30 6758657", "website": "https://www.thomas-kollowa.de/"}}, {"type": "node", "id": 4014948628, "lat": 52.5278578, "lon": 13.6243765, "tags": {"addr:city": "Berlin", "addr:housenumber": "263", "addr:street": "H\u00f6nower Stra\u00dfe", "amenity": "veterinary", "email": "info@tierarztpraxis-mahlsdorf.de", "name": "Tierarztpraxis am Wildrosengeh\u00f6lz", "opening_hours": "Mo-Sa 08-20, So (Notfall) 10-16", "phone": "030 99285501", "website": "https://www.tierarztpraxis-mahlsdorf.de/", "wheelchair": "yes"}}, {"type": "node", "id": 4080579671, "lat": 52.4346817, "lon": 13.544154, "tags": {"addr:city": "Berlin", "addr:country": "DE", "addr:housenumber": "10", "addr:postcode": "12489", "addr:street": "Weerthstra\u00dfe", "addr:suburb": "Adlershof", "amenity": "veterinary", "name": "Dr. med. vet. Susann Zimmer", "opening_hours": "Mo 10:00-12:00,16:00-18:00, Tu 10:00-12:00,16:00-19:00, We 10:00-12:00, Th 16:00-19:00, Fr 10:00-12:00,16:00-18:00; PH off", "phone": "+49 30 67 132 67"}}, {"type": "node", "id": 4137973040, "lat": 52.4259329, "lon": 13.3186185, "tags": {"addr:city": "Berlin", "addr:country": "DE", "addr:housenumber": "16", "addr:postcode": "12207", "addr:street": "Morgensternstra\u00dfe", "addr:suburb": "Lichterfelde", "amenity": "veterinary", "description": "Tierarzt mit Tierpension", "name": "Tierpraxis Dr. Gerriets", "opening_hours": "Mo 10:00-13:00,17:00-19:00; Tu 10:00-12:00; We 17:00-19:00; Th 10:00-12:00; Fr 10:00-12:00", "phone": "+49-30-772 40 27", "website": "https://www.tierpraxis-drgerriets.de/"}}, {"type": "node", "id": 4174131466, "lat": 52.5661672, "lon": 13.4090789, "tags": {"addr:city": "Berlin", "addr:country": "DE", "addr:housenumber": "43", "addr:postcode": "13187", "addr:street": "Florastra\u00dfe", "addr:suburb": "Pankow", "amenity": "veterinary", "email": "info@tierarzt-in-pankow.de", "name": "Tierarztpraxis Dr. med. vet. Joachim Kirchner", "opening_hours": "Mo-Fr 14:00-18:00; Tu,Th 09:00-12:00,14:00-18:00", "operator": "Dr. med. vet. Joachim Kirchner", "phone": "+49 30 49 50 09 49", "website": "http://www.tierarzt-in-pankow.de/", "wheelchair": "no"}}, {"type": "node", "id": 4366353588, "lat": 52.5179456, "lon": 13.2866144, "tags": {"amenity": "veterinary", "check_date:opening_hours": "2024-03-21", "email": "info@tierarztamwestend.de", "fax": "+4930 3228 324", "name": "Tierarztpraxis Am Westend", "opening_hours": "Mo,Tu,Th,Fr 10:00-13:00,17:00-19:00; We,Sa 10:00-13:00", "phone": "+4930 3228 247", "website": "https://www.tierarztamwestend.de/"}}, {"type": "node", "id": 4412304406, "lat": 52.5105206, "lon": 13.3075345, "tags": {"addr:city": "Berlin", "addr:country": "DE", "addr:housenumber": "15", "addr:postcode": "10627", "addr:street": "Sesenheimer Stra\u00dfe", "amenity": "veterinary", "check_date": "2023-04-10", "level": "0", "name": "Tierarztpraxis Alexandra Sypitzki", "opening_hours": "Mo-Fr 08:30+", "phone": "+49 30 78957110", "website": "https://www.tierarztpraxis-sypitzki.de/", "wheelchair": "no"}}, {"type": "node", "id": 4463259018, "lat": 52.5081203, "lon": 13.145954, "tags": {"addr:city": "Dallgow-D\u00f6beritz", "addr:country": "DE", "addr:housenumber": "1a", "addr:postcode": "14624", "addr:street": "Engelsfelde", "addr:suburb": "Seeburg", "amenity": "veterinary", "name": "Tier\u00e4rztliche Klinik f\u00fcr Pferde", "opening_hours": "09:00-20:00", "phone": "+49 33201 21589", "website": "https://www.pferdeklinik-seeburg.eu/"}}, {"type": "node", "id": 4686885506, "lat": 52.4358777, "lon": 13.2310121, "tags": {"addr:city": "Berlin", "addr:country": "DE", "addr:housenumber": "6", "addr:postcode": "14163", "addr:street": "Lindenthaler Allee", "amenity": "veterinary", "name": "Tierarztpraxis Dr. Dorothea Werning", "opening_hours": "Mo, Tu, Th 10:00-13:00, 17:00-19:00; We 10:00-13:00, 17:00-20:00; Fr 10:00-17:00", "operator": "Dr. Dorothea Werning", "phone": "+49 30 8025009", "website": "https://www.tierarztpraxis-mexikoplatz.de/de/index.html"}}, {"type": "node", "id": 4709401189, "lat": 52.4981659, "lon": 13.5208894, "tags": {"amenity": "veterinary", "check_date:opening_hours": "2024-07-22", "name": "Tiergesundheitszentrum", "name:de": "Tiergesundheitszentrum", "opening_hours": "Mo-Sa 10:00-12:00, Mo-Fr 15:00-19:00, Sa 10:00-12:00; PH off", "wheelchair": "yes"}}, {"type": "node", "id": 4715820728, "lat": 52.428896, "lon": 13.3758384, "tags": {"addr:city": "Berlin", "addr:country": "DE", "addr:housenumber": "169-171", "addr:postcode": "12277", "addr:street": "Gro\u00dfbeerenstra\u00dfe", "amenity": "veterinary", "check_date:opening_hours": "2024-08-13", "fax": "+49 30 29032093", "name": "Kleintierpraxis Jan Schneider", "opening_hours": "Mo,We,Fr 10:00-13:00,15:00-19:00; Tu,Th 17:00-21:00; Sa-Su 11:00-14:00", "phone": "+49 30 29032092", "website": "https://www.kleintierpraxis-schneider.com/", "wheelchair": "no"}}, {"type": "node", "id": 4736960417, "lat": 52.4927377, "lon": 13.5369248}, {"type": "node", "id": 4736960418, "lat": 52.4927337, "lon": 13.5370181}, {"type": "node", "id": 4736960419, "lat": 52.4925636, "lon": 13.5369959}, {"type": "node", "id": 4736960420, "lat": 52.4925717, "lon": 13.5368158}, {"type": "node", "id": 4736960521, "lat": 52.4927304, "lon": 13.5368366}, {"type": "node", "id": 4736960522, "lat": 52.4927268, "lon": 13.5369233}, {"type": "node", "id": 4789962778, "lat": 52.5289464, "lon": 13.3357023, "tags": {"addr:city": "Berlin", "addr:housenumber": "44", "addr:postcode": "10551", "addr:street": "Oldenburger Stra\u00dfe", "amenity": "veterinary", "check_date:opening_hours": "2025-07-03", "name": "Tierarztpraxis Oldenburger Stra\u00dfe", "opening_hours": "Mo 10:00-12:00,15:00-18:00; Tu 10:00-14:00,18:00-20:00; We 10:00-12:00,15:00-18:00; Th 10:00-14:00,18:00-20:00; Fr 10:00-12:00,15:00-18:00; Sa 09:00-11:00", "phone": "+49303951555", "website": "https://www.tierarztpraxis-oldenburger-strasse.de", "wheelchair": "no"}}, {"type": "node", "id": 4809992565, "lat": 52.5694182, "lon": 13.4001258, "tags": {"addr:city": "Berlin", "addr:housenumber": "1", "addr:postcode": "13187", "addr:street": "Wilhelm-Kuhr-Stra\u00dfe", "addr:suburb": "Pankow", "amenity": "veterinary", "name": "Tierarztpraxis am Burgerpark", "opening_hours": "Mo,We 14:00-19:00; Tu,Th 09:00-14:00; Fr 10:00-15:00", "phone": "+49 (0)30 48479400", "website": "https://www.tierarzt-pankow.de/", "wheelchair": "no"}}, {"type": "node", "id": 5003622494, "lat": 52.5086883, "lon": 13.5558145}, {"type": "node", "id": 5003622495, "lat": 52.5086899, "lon": 13.5557873}, {"type": "node", "id": 5003622496, "lat": 52.5086664, "lon": 13.5558131}, {"type": "node", "id": 5003622497, "lat": 52.508678, "lon": 13.5557473}, {"type": "node", "id": 5003622498, "lat": 52.5086437, "lon": 13.55574}, {"type": "node", "id": 5003622499, "lat": 52.5086478, "lon": 13.5556866}, {"type": "node", "id": 5003622500, "lat": 52.5086832, "lon": 13.5556929}, {"type": "node", "id": 5003622501, "lat": 52.5086992, "lon": 13.5556605}, {"type": "node", "id": 5029362624, "lat": 52.5373732, "lon": 13.2664047, "tags": {"addr:housenumber": "10", "addr:postcode": "13629", "addr:street": "Wattstra\u00dfe", "amenity": "veterinary"}}, {"type": "node", "id": 5090019016, "lat": 52.5488636, "lon": 13.4513273, "tags": {"addr:city": "Berlin", "addr:housenumber": "2", "addr:postcode": "13086", "addr:street": "Max-Steinke-Stra\u00dfe", "amenity": "veterinary", "check_date:opening_hours": "2024-08-24", "name": "Tierarztpraxis", "opening_hours": "Mo-Fr 09:00-11:00, Mo,Tu,Th,Fr 16:00-18:00, Sa 10:00-12:00", "operator": "Dr.med.vet. Cordula Nitschke", "phone": "+49 30 9252160", "wheelchair": "yes"}}, {"type": "node", "id": 5143734722, "lat": 52.3930564, "lon": 13.7034331, "tags": {"addr:city": "Gosen-Neu Zittau", "addr:housenumber": "5", "addr:postcode": "15537", "addr:street": "Uferplatz", "addr:suburb": "Gosen", "amenity": "veterinary", "emergency:phone": "+49 178 5755078", "name": "Tierarztpraxis Gosen, Korfmann", "opening_hours": "Mo-Tu,Th-Fr 08:00-09:00,16:00-19:00; We 08:00-10:00,16:00-19:00", "payment:cash": "yes", "payment:others": "no", "phone": "+49 3362 8059", "wheelchair": "no"}}, {"type": "node", "id": 5166206721, "lat": 52.5640461, "lon": 13.5033148, "tags": {"addr:housenumber": "5", "addr:postcode": "13051", "addr:street": "Zingster Stra\u00dfe", "amenity": "veterinary", "name": "Kleintierpraxis Ralf Boxhammer", "phone": "+49 30 9206644", "toilets:wheelchair": "no", "website": "http://www.ta-boxhammer.de", "wheelchair": "no"}}, {"type": "node", "id": 5190500390, "lat": 52.5140108, "lon": 13.408851, "tags": {"addr:city": "Berlin", "addr:country": "DE", "addr:housenumber": "2", "addr:postcode": "10179", "addr:street": "Fischerinsel", "addr:suburb": "Mitte", "amenity": "veterinary", "name": "Tierarztpraxis Ralf Neuer"}}, {"type": "node", "id": 5211241116, "lat": 52.5747875, "lon": 13.351156}, {"type": "node", "id": 5211241117, "lat": 52.5748108, "lon": 13.3511745}, {"type": "node", "id": 5211241118, "lat": 52.5748093, "lon": 13.3510852}, {"type": "node", "id": 5297162644, "lat": 52.4897098, "lon": 13.3392413, "tags": {"addr:city": "Berlin", "addr:country": "DE", "addr:housenumber": "2", "addr:postcode": "10779", "addr:street": "Bayerischer Platz", "addr:suburb": "Sch\u00f6neberg", "amenity": "veterinary", "check_date": "2024-07-24", "contact:email": "info@vetsforcats.de", "contact:fax": "+49 30 34398878", "contact:phone": "+49 30 34398877", "contact:website": "https://www.vetsforcats.de/", "description": "Die Tierarztpraxis f\u00fcr Katzen", "indoor:level": "0", "name": "Vets for cats", "opening_hours": "Mo-Fr 09:00-20:00; We 09:00-14:00; Sa,Su 10:00-12:00; PH off", "veterinary:treats:cat": "only", "wheelchair": "limited"}}, {"type": "node", "id": 5326151790, "lat": 52.5502349, "lon": 13.408248, "tags": {"addr:housenumber": "1", "addr:street": "Sch\u00f6nflie\u00dfer Stra\u00dfe", "amenity": "veterinary", "check_date": "2025-04-21", "email": "info@tierarztpraxis-lenk.de", "fax": "+493041722600", "name": "Tierarztpraxis Lenk", "note:de": "Sprechstunde Mo-Fr 8-19, Sa 9-13;Notdienst Sa 13-18, Su/Feiertag 10-18", "opening_hours": "Mo-Fr 08:00-19:00, Sa 09:00-18:00, Su 10:00-18:00", "phone": "+49304469769", "website": "https://tierarztpraxis-lenk.de/", "wheelchair": "no"}}, {"type": "node", "id": 5357470034, "lat": 52.5470756, "lon": 13.4082736, "tags": {"amenity": "veterinary", "check_date": "2025-03-22", "name": "Tierarztpraxis am Mauerpark", "opening_hours": "Mo-Fr 09:00-19:00", "wheelchair": "limited"}}, {"type": "node", "id": 5424941690, "lat": 52.4751968, "lon": 13.3401022, "tags": {"addr:city": "Berlin", "addr:country": "DE", "addr:housenumber": "89", "addr:postcode": "12159", "addr:street": "Hauptstra\u00dfe", "addr:suburb": "Sch\u00f6neberg", "amenity": "veterinary", "check_date:opening_hours": "2024-10-14", "contact:facebook": "https://www.facebook.com/TierarztpraxisChungundWahle", "email": "info@tierarztpraxis-chung-wahle.com", "level": "0", "name": "Chung & Wahle", "opening_hours": "Mo,Fr 09:00-18:00; Tu,Th 09:00-20:00; We,Sa 09:00-14:00", "operator": "Tierarztpraxis Chung und Wahle GbR", "phone": "+49 30 8593215", "website": "https://tierarztpraxis-chung-wahle.com/", "wheelchair": "limited"}}, {"type": "node", "id": 5432917041, "lat": 52.5747939, "lon": 13.3513069}, {"type": "node", "id": 5432917042, "lat": 52.5747753, "lon": 13.3512935}, {"type": "node", "id": 5514404517, "lat": 52.4990938, "lon": 13.344571, "tags": {"amenity": "veterinary", "name": "Tierarztpraxis Dr. Klaus Lendner", "opening_hours": "Mo,Tu,Th,Fr 09:00-12:00,16:00-19:00; We,Sa 09:00-12:00", "wheelchair": "yes"}}, {"type": "node", "id": 5554342322, "lat": 52.4212925, "lon": 13.3101216, "tags": {"addr:floor": "EG", "addr:housenumber": "65", "addr:street": "Ostpreu\u00dfendamm", "amenity": "veterinary", "check_date": "2024-08-17", "level": "0", "name": "Martyna Pohnke Tierarzt", "opening_hours": "Mo-Fr 09:00-12:00, Mo 16:00-19:00, Th 16:00-20:00", "phone": "+49 30 75765970"}}, {"type": "node", "id": 5589815718, "lat": 52.5787269, "lon": 13.5708177, "tags": {"amenity": "veterinary", "name": "Kleintierpraxis Dr. med. vet. T. Burghardt"}}, {"type": "node", "id": 5733901242, "lat": 52.5247542, "lon": 13.3008749, "tags": {"addr:city": "Berlin", "addr:country": "DE", "addr:housenumber": "22", "addr:postcode": "10589", "addr:street": "Mindener Stra\u00dfe", "amenity": "veterinary", "name": "Dr. Miriam Oczipka", "opening_hours": "Mo-Fr 09:00-12:00,16:00-19:00; Sa 11:00-13:00", "phone": "+49303441864", "wheelchair": "no"}}, {"type": "node", "id": 5762374254, "lat": 52.4637752, "lon": 13.4852571, "tags": {"addr:city": "Berlin", "addr:housenumber": "34", "addr:postcode": "12437", "addr:street": "Baumschulenstra\u00dfe", "amenity": "veterinary", "check_date": "2025-07-06", "check_date:opening_hours": "2025-07-06", "name": "Dr. med. vet. Sven Albrecht", "opening_hours": "Mo,We,Fr 09:00-12:00,15:00-19:00; Tu,Th 09:00-12:00,13:00-15:00", "wheelchair": "no"}}, {"type": "node", "id": 6270311794, "lat": 52.3889212, "lon": 13.3905608, "tags": {"amenity": "veterinary", "name": "Dr. Wegeler", "opening_hours": "\"nach Vereinbarung\"", "phone": "+49 307956044"}}, {"type": "node", "id": 6344954141, "lat": 52.4954404, "lon": 13.3293192, "tags": {"addr:city": "Berlin", "addr:country": "DE", "addr:housenumber": "3", "addr:postcode": "10717", "addr:street": "Hohenzollerndamm", "addr:suburb": "Wilmersdorf", "amenity": "veterinary", "check_date:opening_hours": "2024-01-15", "contact:email": "tierarztpraxis@hohenzollerndamm-3.de", "contact:phone": "+49 30 88679111", "contact:website": "https://tierarztpraxis-hohenzollerndamm-3.de/", "level": "0", "name": "Tierarztpraxis Hohenzollerndamm 3", "opening_hours": "Mo-Tu,Th-Fr 10:00-12:30,17:00-19:00; We 18:00-20:00; Sa 11:00-13:00", "operator": "Dr. A. Randelhoff", "wheelchair": "no"}}, {"type": "node", "id": 6449519970, "lat": 52.4800707, "lon": 13.5205309, "tags": {"amenity": "veterinary", "check_date:opening_hours": "2021-01-23", "email": "praxis@tierarzt-karlshorst.info", "name": "Tierarztpraxis Anke Meeuw", "opening_hours": "Mo,We 09:00-19:00; Tu 07:30-14:00; Th 10:00-21:00; Fr 09:00-12:00; Sa 10:00-15:00", "phone": "+49 30 96 59 96 52", "website": "http://www.tierarzt-karlshorst.info/willkommen.html", "wheelchair": "yes"}}, {"type": "node", "id": 6470421529, "lat": 52.4748376, "lon": 13.4534973, "tags": {"addr:city": "Berlin", "addr:country": "DE", "addr:housenumber": "204", "addr:postcode": "12059", "addr:street": "Sonnenallee", "addr:suburb": "Neuk\u00f6lln", "amenity": "veterinary", "check_date": "2025-06-09", "contact:email": "post@tierarztpraxis-sonnenallee.de", "contact:phone": "+49 30 6814455", "contact:website": "https://tierarztpraxis-sonnenallee.de/", "name": "Tierarztpraxis Sonnenallee", "opening_hours": "Mo-Fr 09:00-12:00,16:00-20:00; Sa 11:00-13:00 || \"und nach Vereinbarung\"", "operator": "Dr. Jana Kudritzki & Daniel Kitzing", "veterinary": "practice", "veterinary:treats:bird": "yes", "veterinary:treats:cat": "yes", "veterinary:treats:dog": "yes", "veterinary:treats:reptile": "yes", "wheelchair": "no"}}, {"type": "node", "id": 6509362833, "lat": 52.5177488, "lon": 13.4661107, "tags": {"addr:city": "Berlin", "addr:housenumber": "58", "addr:street": "B\u00e4nschstra\u00dfe", "amenity": "veterinary", "check_date:opening_hours": "2025-05-08", "name": "Tierarztpraxis Laskawy", "opening_hours": "Mo,We 14:00-19:00; Tu,Th 08:00-13:00; Fr 08:00-13:00,14:00-19:00", "phone": "+49 30 4267684", "website": "http://www.laskawy-berlin.de", "wheelchair": "yes"}}, {"type": "node", "id": 6603772445, "lat": 52.5687932, "lon": 13.3794234, "tags": {"addr:housenumber": "47", "addr:street": "Provinzstra\u00dfe", "amenity": "veterinary", "name": "neko Tiergesundheit", "opening_hours": "Mo 15:00-18:00, Tu 10:00-13:00, We 10:00-15:00, Fr 10:00-15:00, Tu 15:00-19:00, Th 15:00-19:00", "operator": "Jennifer Geiseler", "phone": "+49 30 54814390", "website": "https://www.neko-tiergesundheit.de", "wheelchair": "no"}}, {"type": "node", "id": 6705031970, "lat": 52.5094514, "lon": 13.4645357, "tags": {"addr:city": "Berlin", "addr:country": "DE", "addr:housenumber": "35A", "addr:postcode": "10245", "addr:street": "Krossener Stra\u00dfe", "addr:suburb": "Friedrichshain", "amenity": "veterinary", "check_date:opening_hours": "2024-04-29", "contact:phone": "+49 30 2946333", "contact:website": "http://www.doschika.de/", "description": "Praxis verf\u00fcgt \u00fcber zwei Behandlungsr\u00e4ume, einen OP, ein Praxislabor, einen R\u00f6ntgenraum und M\u00f6glichkeiten zur station\u00e4ren Unterbringung der Patienten.", "name": "Kleintierpraxis Dirk Oschika", "opening_hours": "Mo,Tu,Th 09:00-11:00,15:00-19:00", "wheelchair": "no"}}, {"type": "node", "id": 6982811309, "lat": 52.5241017, "lon": 13.3024823, "tags": {"addr:city": "Berlin", "addr:country": "DE", "addr:housenumber": "23", "addr:postcode": "10589", "addr:street": "Mierendorffstra\u00dfe", "addr:suburb": "Charlottenburg", "amenity": "veterinary", "check_date": "2022-11-12", "contact:email": "info@vogelpraxis.de", "contact:fax": "+49 30 34902844", "contact:phone": "+49 30 34902843", "contact:website": "https://vogelpraxis.de/", "name": "Vogelpraxis", "veterinary:treats:bird": "yes", "veterinary:treats:reptile": "yes", "veterinary:treats:small_mammals": "yes", "wheelchair": "limited"}}, {"type": "node", "id": 7211094992, "lat": 52.5333026, "lon": 13.4292251, "tags": {"addr:city": "Berlin", "addr:country": "DE", "addr:housenumber": "204", "addr:postcode": "10405", "addr:street": "Greifswalder Stra\u00dfe", "addr:suburb": "Prenzlauer Berg", "amenity": "veterinary", "name": "Rex Tierarztpraxis", "opening_hours": "Mo-Fr 08:00-20:00; Sa 09:00-16:00", "wheelchair": "no"}}, {"type": "node", "id": 7227468226, "lat": 52.6047279, "lon": 13.298452, "tags": {"addr:city": "Berlin", "addr:country": "DE", "addr:housenumber": "116", "addr:postcode": "13509", "addr:street": "Allmendeweg", "addr:suburb": "Tegel", "amenity": "veterinary", "contact:mobile": "+49 174 1950147", "contact:phone": "+49 30 40571512", "contact:website": "https://www.tierarzt-feske.de/", "description": "mobile Tierarztpraxis", "name": "Fahrpraxis Feske", "opening_hours": "Mo-Fr 08:00-20:00 open \"telefonisch erreichbar\"", "operator": "Dr. med. vet. Dana Feske"}}, {"type": "node", "id": 7310483025, "lat": 52.5407903, "lon": 13.4154364, "tags": {"addr:city": "Berlin", "addr:country": "DE", "addr:housenumber": "15", "addr:postcode": "10435", "addr:street": "Danziger Stra\u00dfe", "addr:suburb": "Prenzlauer Berg", "amenity": "veterinary", "check_date": "2023-01-30", "check_date:opening_hours": "2022-01-13", "email": "post@tierarztpraxis-prenzlauerberg.de", "level": "0", "name": "Tierarztpraxis Claudia Handke", "opening_hours": "Mo,Th,Fr 10:00-12:00, Tu,We 10:00-15:00, Mo 16:00-20:00, Th 16:00-19:00, Fr 16:00-18:00, Sa 11:00-13:00", "phone": "+49 30 4421760", "website": "https://www.tierarztpraxis-prenzlauerberg.de", "wheelchair": "no"}}, {"type": "node", "id": 7326193661, "lat": 52.4955514, "lon": 13.2968989, "tags": {"amenity": "veterinary", "check_date:opening_hours": "2024-07-29", "name": "Dr. Angelika Block", "opening_hours": "Mo-Tu 10:00-12:00,16:00-18:30; We 16:00-18:30; Th-Fr 10:00-12:00,16:00-18:30; Sa 10:00-12:00", "website": "http://ta-block.weebly.com", "wheelchair": "limited"}}, {"type": "node", "id": 7376832510, "lat": 52.4894813, "lon": 13.4029606, "tags": {"amenity": "veterinary", "name": "Katharina Keil", "opening_hours": "Mo-Sa 10:00-12:00; Mo, Tu, Th, Fr 17:00-19:00", "phone": "+49306916165"}}, {"type": "node", "id": 7478178484, "lat": 52.4183404, "lon": 13.3320075, "tags": {"amenity": "veterinary", "name": "Lorenz", "website": "https://www.tierarzt-lichterfelde.de/"}}, {"type": "node", "id": 7546074503, "lat": 52.4726236, "lon": 13.33503, "tags": {"addr:city": "Berlin", "addr:country": "DE", "addr:housenumber": "12", "addr:postcode": "12159", "addr:street": "Lauterstra\u00dfe", "addr:suburb": "Friedenau", "amenity": "veterinary", "contact:instagram": "https://www.instagram.com/wolfandtiger_de/", "name": "Wolf & Tiger", "operator": "MyVet GmbH", "phone": "+49 175 7366718", "website": "https://www.wolfandtiger.de/"}}, {"type": "node", "id": 7609585407, "lat": 52.4774124, "lon": 13.439113, "tags": {"addr:city": "Berlin", "addr:country": "DE", "addr:housenumber": "133", "addr:postcode": "12043", "addr:street": "Karl-Marx-Stra\u00dfe", "addr:suburb": "Neuk\u00f6lln", "amenity": "veterinary", "check_date": "2025-01-26", "contact:phone": "+49 30 6812161", "name": "Tierarztpraxis Denisse Barrera", "opening_hours": "Mo-Sa 16:00-20:00", "wheelchair": "no"}}, {"type": "node", "id": 7617449010, "lat": 52.4741292, "lon": 13.3293259, "tags": {"addr:city": "Berlin", "addr:country": "DE", "addr:housenumber": "2", "addr:postcode": "12159", "addr:street": "Kundrystra\u00dfe", "addr:suburb": "Friedenau", "amenity": "veterinary", "name": "Angelika Weber", "opening_hours": "Mo-Sa 10:00-12:00, Tu 16:00-19:00, Su 13:00-14:00", "source": "Geoportal Berlin / Hauskoordinaten"}}, {"type": "node", "id": 7623775572, "lat": 52.5519001, "lon": 13.3411969, "tags": {"addr:city": "Berlin", "addr:country": "DE", "addr:housenumber": "14", "addr:postcode": "13351", "addr:street": "Transvaalstra\u00dfe", "addr:suburb": "Wedding", "amenity": "veterinary", "check_date": "2024-11-30", "check_date:opening_hours": "2021-11-07", "contact:phone": "+49 30 45290790", "contact:website": "http://www.tierarzt-wedding.de/", "name": "Tierarztpraxis S. Lattermann", "opening_hours": "Mo,We 08:00-14:00,13:30-18:30; Tu,Th-Fr 14:00-20:00; PH closed", "wheelchair": "yes"}}, {"type": "node", "id": 7643245687, "lat": 52.5150531, "lon": 13.3130502, "tags": {"amenity": "veterinary", "check_date:opening_hours": "2024-03-14", "name": "Tierarztpraxis Otto Suhr", "opening_hours": "Mo-Fr 09:00-19:00", "wheelchair": "no"}}, {"type": "node", "id": 7746191786, "lat": 52.5877876, "lon": 13.3651552, "tags": {"amenity": "veterinary"}}, {"type": "node", "id": 7747019462, "lat": 52.4667894, "lon": 13.3465937, "tags": {"addr:city": "Berlin", "addr:country": "DE", "addr:housenumber": "12", "addr:postcode": "12157", "addr:street": "Grazer Platz", "addr:suburb": "Sch\u00f6neberg", "amenity": "veterinary", "check_date:opening_hours": "2024-06-30", "name": "Tierarztpraxis B. Migdal", "opening_hours": "Mo,We 10:00-16:00; Tu,Th 16:00-20:00; Fr 12:00-18:00"}}, {"type": "node", "id": 7776123991, "lat": 52.4613066, "lon": 13.3269746, "tags": {"addr:city": "Berlin", "addr:country": "DE", "addr:housenumber": "6", "addr:postcode": "12163", "addr:street": "Florastra\u00dfe", "addr:suburb": "Steglitz", "amenity": "veterinary", "name": "Silke Sanft", "opening_hours": "Mo,Tu,Th,Fr 09:00-19:00; We,Sa 09:00-12:00", "website": "http://www.tierarztpraxis-sanft.de"}}, {"type": "node", "id": 7777530635, "lat": 52.474559, "lon": 13.3227841, "tags": {"addr:city": "Berlin", "addr:country": "DE", "addr:housenumber": "11a", "addr:postcode": "12161", "addr:street": "S\u00fcdwestkorso", "addr:suburb": "Friedenau", "amenity": "veterinary", "contact:website": "https://www.tierarztpraxis-schluesing.de/", "name": "Tierarztpraxis Rex", "opening_hours": "\"Sprechzeiten nach Vereinbarung\"", "website": "https://www.rex.app/", "wheelchair": "no"}}, {"type": "node", "id": 7813575354, "lat": 52.4391475, "lon": 13.215708, "tags": {"addr:city": "Berlin", "addr:country": "DE", "addr:housenumber": "3", "addr:postcode": "14129", "addr:street": "Breisgauer Stra\u00dfe", "addr:suburb": "Schlachtensee", "amenity": "veterinary", "contact:phone": "+49 30 80905830", "contact:website": "https://www.tierarztpraxis-am-schlachtensee.de", "email": "info@tierarztpraxis-am-schlachtensee.de", "name": "Tierarztpraxis am Schlachtensee", "opening_hours": "Mo-Th 09:00-13:00; We,Fr 14:00-18:00; Sa 10:00-14:00", "operator": "Dr. Katharina Gr\u00f6ndahl", "start_date": "2021-09-01"}}, {"type": "node", "id": 7916594785, "lat": 52.4182508, "lon": 13.2254904, "tags": {"amenity": "veterinary", "name": "Tierheilpraktiker Abeillon"}}, {"type": "node", "id": 7937984201, "lat": 52.4863263, "lon": 13.4233555, "tags": {"addr:city": "Berlin", "addr:housenumber": "1", "addr:postcode": "12049", "addr:street": "Lucy-Lameck-Stra\u00dfe", "amenity": "veterinary", "check_date": "2024-08-18", "contact:website": "https://www.tierarztpraxis-am-hermannplatz.de", "name": "Tierarztpraxis am Hermannplatz"}}, {"type": "node", "id": 7978440760, "lat": 52.5691003, "lon": 13.3612016, "tags": {"amenity": "veterinary", "name": "Dr. L. Chelminski", "opening_hours": "Mo-Tu,Th-Fr,Su 08:30-11:00,15:30-17:30", "phone": "+49 30 4954038", "wheelchair": "no"}}, {"type": "node", "id": 8000786185, "lat": 52.4789701, "lon": 13.3200646, "tags": {"addr:city": "Berlin", "addr:country": "DE", "addr:housenumber": "68", "addr:postcode": "10713", "addr:street": "Blissestra\u00dfe", "addr:suburb": "Wilmersdorf", "amenity": "veterinary", "name": "Tierarztpraxis PD Dr. med. vet. Thomas G\u00f6bel", "website": "https://www.tierarzt-goebel.de/"}}, {"type": "node", "id": 8068408243, "lat": 52.4888413, "lon": 13.3110131, "tags": {"addr:city": "Berlin", "addr:country": "DE", "addr:housenumber": "19", "addr:postcode": "10713", "addr:street": "Mansfelder Stra\u00dfe", "addr:suburb": "Wilmersdorf", "amenity": "veterinary", "name": "Berliner Tierarztpraxis", "operator": "Dr. med. vet. S. Heinemann;Beatrix Strathmann", "website": "https://www.berliner-tierarztpraxis.de/"}}, {"type": "node", "id": 8068513185, "lat": 52.4961991, "lon": 13.2853794, "tags": {"addr:city": "Berlin", "addr:country": "DE", "addr:housenumber": "6", "addr:postcode": "10711", "addr:street": "Bornimer Stra\u00dfe", "addr:suburb": "Halensee", "amenity": "veterinary", "check_date": "2024-08-23", "name": "Naturheilkunde f\u00fcr Tiere", "operator": "Petra Clausius"}}, {"type": "node", "id": 8330198884, "lat": 52.6045044, "lon": 13.3664162, "tags": {"addr:city": "Berlin", "addr:country": "DE", "addr:housenumber": "76", "addr:postcode": "13439", "addr:street": "Quickborner Stra\u00dfe", "addr:suburb": "M\u00e4rkisches Viertel", "amenity": "veterinary", "contact:email": "info@ta-blessing-richter.de", "contact:fax": "+49 30 40710152", "contact:phone": "+49 30 40710151", "contact:website": "https://ta-blessing-richter.de/", "name": "Tier\u00e4rztliche Gemeinschaftspraxis Blessing & Richter", "opening_hours": "Mo-Fr 09:00-19:00; Sa 09:00-11:00; Su off", "reservation": "required"}}, {"type": "node", "id": 8330236501, "lat": 52.4709098, "lon": 13.3254977, "tags": {"addr:city": "Berlin", "addr:country": "DE", "addr:housenumber": "7", "addr:postcode": "12161", "addr:street": "Rotdornstra\u00dfe", "addr:suburb": "Friedenau", "amenity": "veterinary", "contact:phone": "+49 30 8527705", "contact:website": "https://www.dr-dralle-berlin.de/", "name": "Katharina Dralle"}}, {"type": "node", "id": 8357625079, "lat": 52.6139984, "lon": 13.316783, "tags": {"addr:city": "Berlin", "addr:housenumber": "11", "addr:postcode": "13467", "addr:street": "Berliner Stra\u00dfe", "amenity": "veterinary", "name": "Tierarztpraxis Matthias M\u00fcller", "opening_hours": "Mo-Fr 11:00-13:00, 18:00-20:00; Sa-Su11:00-13:00; PH 11:00-13:00", "phone": "+49 30 4034440", "website": "https://tierarzt-matthiasmueller.de/", "wheelchair": "yes"}}, {"type": "node", "id": 8498361467, "lat": 52.4273259, "lon": 13.748874, "tags": {"amenity": "veterinary", "name": "Dr. med. vet. J\u00f6rg Bonin"}}, {"type": "node", "id": 8525085602, "lat": 52.4615146, "lon": 13.7250731, "tags": {"addr:city": "Sch\u00f6neiche bei Berlin", "addr:country": "DE", "addr:housenumber": "48", "addr:postcode": "15566", "addr:street": "Am Rosengarten", "amenity": "veterinary", "name": "Tierarztpraxis Fritz", "phone": "+49 30 63220474", "website": "https://tierarztpraxis-fritz.de"}}, {"type": "node", "id": 8554762088, "lat": 52.6299924, "lon": 13.5285496, "tags": {"amenity": "veterinary", "contact:email": "tierarztpraxis.panketal@gmail.com", "contact:fax": "+49 30 80961760", "contact:phone": "+49 30 9415638", "name": "Tierarztpraxis im Panketal", "opening_hours": "Mo-Fr 08:00-20:00; Sa,Su 10:00-14:00; PH 10:00-14:00", "operator": "Lisanne Altmann und Bianca Lange GbR"}}, {"type": "node", "id": 8579480418, "lat": 52.5189471, "lon": 13.3427257, "tags": {"addr:city": "Berlin", "addr:housenumber": "5", "addr:postcode": "10557", "addr:street": "Bartningallee", "amenity": "veterinary", "check_date": "2024-05-14", "fax": "+493039746074", "internet_access": "no", "level": "0", "name": "Tierarztpraxis Galina Schirow GmbH", "opening_hours": "Mo-Fr 10:00-13:00,16:00-19:00", "payment:cash": "yes", "payment:credit_cards": "yes", "payment:debit_cards": "yes", "phone": "+49 30 39886966", "source": "survey", "website": "https://www.vetpraxis-schirow.de/", "wheelchair": "limited"}}, {"type": "node", "id": 8691573555, "lat": 52.4854474, "lon": 13.3367552, "tags": {"addr:city": "Berlin", "addr:country": "DE", "addr:housenumber": "22", "addr:postcode": "10825", "addr:street": "Kufsteiner Stra\u00dfe", "addr:suburb": "Wilmersdorf", "amenity": "veterinary", "check_date": "2024-07-29", "name": "Dr. Kurt Helmich;Dr. Dieter Oelke", "website": "https://tiermedizinzentrum.de/"}}, {"type": "node", "id": 8844721918, "lat": 52.5826045, "lon": 13.40387, "tags": {"amenity": "veterinary", "contact:phone": "+49 30 475 316 93", "contact:website": "https://tierarzt-schlosspark.de/", "name": "Am Schlosspark", "opening_hours": "Mo-Fr 10:00-12:00,16:00-19:00; Sa 10:00-12:00"}}, {"type": "node", "id": 8850856432, "lat": 52.4240806, "lon": 13.3948851, "tags": {"addr:city": "Berlin", "addr:country": "DE", "addr:housenumber": "3", "addr:postcode": "12107", "addr:street": "Birnhornweg", "addr:suburb": "Mariendorf", "amenity": "veterinary", "name": "Tier\u00e4rztliche Gemeinschaftspraxis f\u00fcr Kleintiere", "operator": "Thomas H\u00fcbner;Birte Nannen"}}, {"type": "node", "id": 9032001297, "lat": 52.6315088, "lon": 13.3227991, "tags": {"amenity": "veterinary", "email": "info@die-tierarztpraxis-glienicke.de", "fax": "+49 33056 24889 3", "level": "1", "name": "Die Tierarztpraxis", "opening_hours": "Mo,Tu,Th 09:00-19:00; We,Sa 09:00-13:00; Fr 09:00-17:00", "phone": "+49 33056 24889 2", "website": "https://www.die-tierarztpraxis-glienicke.de"}}, {"type": "node", "id": 9038458603, "lat": 52.4929733, "lon": 13.4338357, "tags": {"addr:city": "Berlin", "addr:housenumber": "19", "addr:postcode": "10999", "addr:street": "Liegnitzer Stra\u00dfe", "amenity": "veterinary", "contact:email": "tierarztpraxis.liegnitzerstr@t-online.de", "contact:phone": "+49 30 6126474", "contact:website": "http://www.tieraerzte-kreuzberg.de", "name": "Tier\u00e4rzte-Kreuzberg", "opening_hours": "Mo-Fr 10:00-24:00,16:00-20:00; PH,Sa,Su 10:00-24:00"}}, {"type": "node", "id": 9166121510, "lat": 52.5600099, "lon": 13.4154386, "tags": {"addr:city": "Berlin", "addr:housenumber": "13", "addr:postcode": "13189", "addr:street": "Elsa-Br\u00e4ndstr\u00f6m-Stra\u00dfe", "amenity": "veterinary", "name": "Tierarztpraxis Dr. Dirk Mauch", "operator": "Dr. Dirk Mauch", "phone": "+49 30 4710133", "website": "http://www.elsavet.de/", "wheelchair": "yes"}}, {"type": "node", "id": 9221860122, "lat": 52.5721186, "lon": 13.4135786, "tags": {"amenity": "veterinary", "check_date": "2024-06-15", "name": "Tierarztpraxis am Amalienpark", "opening_hours": "Mo,Tu,Th 09:00-12:00,15:00-18:00; We 09:00-12:00; Fr 09:00-15:00", "website": "https://www.tierarztpraxis-amalienpark.de/", "wheelchair": "no"}}, {"type": "node", "id": 9238314072, "lat": 52.468653, "lon": 13.4330363, "tags": {"addr:city": "Berlin", "addr:country": "DE", "addr:housenumber": "29", "addr:postcode": "12051", "addr:street": "Altenbraker Stra\u00dfe", "addr:suburb": "Neuk\u00f6lln", "amenity": "veterinary", "check_date": "2025-03-29", "check_date:opening_hours": "2025-03-29", "contact:email": "info@tierarzt-watson.de", "contact:phone": "+49 30 6257209", "contact:website": "https://www.tierarzt-watson.de/", "language:en": "yes", "language:ru": "yes", "language:tr": "yes", "name": "Tierarztpraxis Sarah Watson", "opening_hours": "We,Fr 09:00-15:00; Sa 10:00-12:00; Mo 09:00-17:00; Tu,Th 11:00-19:00", "wheelchair": "no"}}, {"type": "node", "id": 9396508717, "lat": 52.5143907, "lon": 13.4951561, "tags": {"addr:city": "Berlin", "addr:housenumber": "27", "addr:postcode": "10365", "addr:street": "Fanningerstra\u00dfe", "amenity": "veterinary", "name": "4 Pfoten", "opening_hours": "Mo 09:00-12:00,16:00-19:00; Tu 17:00-20:00; We 09:00-12:00; Th 09:00-12:00,16:00-19:00; Fr 09:00-12:00,14:00-16:00; Sa 10:00-12:00", "phone": "+49 30 553 15 72", "website": "https://www.praxis4pfoten.de/"}}, {"type": "node", "id": 9400600599, "lat": 52.5208823, "lon": 13.4462478, "tags": {"addr:city": "Berlin", "addr:housenumber": "44", "addr:postcode": "10249", "addr:street": "Auerstra\u00dfe", "amenity": "veterinary", "name": "Tierarztpraxis Friedrichshain", "opening_hours": "Mo 09:00-15:00; Tu-We 12:00-15:00; Th 10:30-15:00; Fr 09:00-15:00", "phone": "+49 30 78 08 34 85", "website": "https://www.tierarztpraxis-friedrichshain.de"}}, {"type": "node", "id": 9432134789, "lat": 52.556357, "lon": 13.4245524, "tags": {"addr:city": "Berlin", "addr:country": "DE", "addr:housenumber": "47", "addr:postcode": "13189", "addr:street": "Eschengraben", "addr:suburb": "Pankow", "amenity": "veterinary", "contact:phone": "+49 30 91203200", "contact:website": "https://www.kleintiermedizin-lenk.de", "name": "Praxis f\u00fcr Kleintiermedizin Janine Lenk", "opening_hours": "Mo,Tu,Th 13:00-19:00; We 17:00-21:00; Fr 10:00-14:00", "veterinary": "practice"}}, {"type": "node", "id": 9456247850, "lat": 52.5111185, "lon": 13.4668484, "tags": {"addr:housenumber": "14", "addr:street": "Finowstra\u00dfe", "amenity": "veterinary", "check_date": "2024-09-08", "dog": "leashed", "name": "Peter Vogel", "opening_hours": "Tu, We 10:00-15:00; Th 10:00-12:00; Mo, Fr 10:00-12:00, 16:00-19:00", "phone": "+49 30 29776835", "website": "https://www.drpetervogel.de/"}}, {"type": "node", "id": 9461140241, "lat": 52.4607219, "lon": 13.3195225, "tags": {"addr:city": "Berlin", "addr:country": "DE", "addr:housenumber": "16", "addr:postcode": "12163", "addr:street": "Zimmermannstra\u00dfe", "addr:suburb": "Steglitz", "amenity": "veterinary", "name": "Dr. Karin Block"}}, {"type": "node", "id": 9516282788, "lat": 52.5476848, "lon": 13.4541052, "tags": {"addr:city": "Berlin", "addr:housenumber": "48", "addr:postcode": "13088", "addr:street": "Bizetstra\u00dfe", "amenity": "veterinary", "name": "Tierarztpraxis im Komponistenviertel", "opening_hours": "Mo-Sa 10:00-12:00; Mo-Tu 16:00-19:00; Th-Fr 16:00-19:00", "operator": "Dr. med. vet Anja Peters", "phone": "+49309273441", "website": "https://www.tierarztpraxis-peters-weissensee.de/"}}, {"type": "node", "id": 9653871480, "lat": 52.4370703, "lon": 13.349587, "tags": {"addr:city": "Berlin", "addr:country": "DE", "addr:housenumber": "30", "addr:postcode": "12247", "addr:street": "Bruchwitzstra\u00dfe", "amenity": "veterinary", "email": "info@tierarztpraxis-lankwitz.de", "fax": "+49 30 77208261", "level": "0", "name": "Tierarztpraxis Lankwitz", "opening_hours": "Mo-Tu,Th-Fr 10:00-13:00,15:00-18:00; We,Sa 09:00-12:00", "phone": "+49 30 77208260", "website": "https://www.tierarztpraxis-lankwitz.de/", "wheelchair": "limited"}}, {"type": "node", "id": 9786575482, "lat": 52.4870325, "lon": 13.4368022, "tags": {"addr:city": "Berlin", "addr:country": "DE", "addr:housenumber": "25", "addr:postcode": "12045", "addr:street": "Weichselstra\u00dfe", "addr:suburb": "Neuk\u00f6lln", "amenity": "veterinary", "check_date": "2025-08-05", "check_date:opening_hours": "2025-08-05", "contact:phone": "+49 30 6239664", "name": "Tier\u00e4rztliche Praxis Beck", "opening_hours": "Mo-Fr 09:00-11:00,15:00-19:00", "wheelchair": "no"}}, {"type": "node", "id": 9880855648, "lat": 52.4227865, "lon": 13.3566908, "tags": {"addr:city": "Berlin", "addr:country": "DE", "addr:housenumber": "38", "addr:postcode": "12249", "addr:street": "Marchandstra\u00dfe", "addr:suburb": "Lankwitz", "amenity": "veterinary", "contact:email": "office@tierarztpraxis-bickert.de", "contact:phone": "+49 30 7755462", "contact:website": "https://www.tierarztpraxis-bickert.de", "name": "Tierarztpraxis Marion Bickert", "opening_hours": "Mo-Fr 09:00-11:00,16:00-18:00; Sa 09:30-10:30"}}, {"type": "node", "id": 10003860025, "lat": 52.5133005, "lon": 13.2937818, "tags": {"amenity": "veterinary", "check_date": "2022-09-06", "name": "Teresa Lankes", "opening_hours": "Mo,We,Fr 09:00-11:00, Mo-Fr 16:00-18:00"}}, {"type": "node", "id": 10169596123, "lat": 52.4564344, "lon": 13.4367908, "tags": {"amenity": "veterinary", "check_date": "2025-07-26", "check_date:opening_hours": "2024-02-18", "name": "Patrick O. Bolz", "name:de": "Patrick O. Bolz", "opening_hours": "Mo-Fr 10:00-12:00,16:00-19:00; PH,Sa,Su 10:00-12:00"}}, {"type": "node", "id": 10169838053, "lat": 52.486422, "lon": 13.5746936, "tags": {"amenity": "veterinary", "email": "juraske@tierarztpraxis-kaulsdorf-sued.de", "fax": "+49 30 5666508", "name": "Tierarztpraxis Kaulsdorf-S\u00fcd", "opening_hours": "Tu,Th,Sa 10:00-12:00, Mo,Tu,Th 15:00-20:00, We,Fr 15:00-19:00; PH off", "operator": "Friederike Juraske", "payment:cash": "yes", "payment:debit_cards": "yes", "phone": "+49 30 5666176", "start_date": "1995", "website": "https://tierarztpraxis-kaulsdorf-sued.de/"}}, {"type": "node", "id": 10180980038, "lat": 52.4872926, "lon": 13.3259046, "tags": {"addr:city": "Berlin", "addr:country": "DE", "addr:housenumber": "33", "addr:postcode": "10717", "addr:street": "Gasteiner Stra\u00dfe", "addr:suburb": "Wilmersdorf", "amenity": "veterinary", "check_date": "2025-09-21", "name": "Tierarztpraxis Gasteiner Stra\u00dfe", "operator": "Dr. Heike H\u00fcbner;Dr. Carolin Hallmann", "website": "https://tierarztpraxis-gasteiner-strasse.de/"}}, {"type": "node", "id": 10235703301, "lat": 52.5095963, "lon": 13.1217124}, {"type": "node", "id": 10235703302, "lat": 52.50968, "lon": 13.1216554}, {"type": "node", "id": 10235703303, "lat": 52.5095968, "lon": 13.1217146}, {"type": "node", "id": 10289622491, "lat": 52.5555721, "lon": 13.5529933}, {"type": "node", "id": 10781978832, "lat": 52.4873166, "lon": 13.6046801, "tags": {"amenity": "veterinary"}}, {"type": "node", "id": 10816474165, "lat": 52.4338095, "lon": 13.2466898, "tags": {"amenity": "veterinary", "description": "Tierklinik/ Tier\u00e4rzte", "name": "Valera", "opening_hours": "24/7", "website": "https://valera.vet/"}}, {"type": "node", "id": 10944187119, "lat": 52.5743133, "lon": 13.5465736, "tags": {"addr:housenumber": "39", "addr:street": "Hausvaterweg", "amenity": "veterinary", "description": "Wir bieten die haustier\u00e4rztliche Versorgung und sind Ihr Ansprechpartner in speziellen Fragestellungen. 5 Tier\u00e4rzte mit verschiedenen Fachrichtungen unter einem Dach. 365 Tage im Jahr f\u00fcr Sie da.", "name": "Tieraztpraxis am Tierheim Berlin", "opening_hours": "Mo-Fr 10:00-20:00; Sa,Su 10:00-17:00; PH 11:00-14:00", "phone": "+493093662200", "website": "https://tierarztpraxis-am-tierheim.de/"}}, {"type": "node", "id": 10946259246, "lat": 52.5134999, "lon": 13.2774866, "tags": {"addr:city": "Berlin", "addr:housenumber": "76", "addr:postcode": "14050", "addr:street": "Soorstra\u00dfe", "amenity": "veterinary", "name": "Praxis f\u00fcr Tierzahnheilkunde", "opening_hours": "\"nach Vereinbarung\"", "operator": "Dr. med. vet. Helmut Rux", "website": "https://rux.vet/"}}, {"type": "node", "id": 10956712577, "lat": 52.5211838, "lon": 13.6465809, "tags": {"amenity": "veterinary", "name": "Tierarztpraxis Birkenstein  Dr. med. vet H. Fuhrmann und Team", "opening_hours": "Mo-Fr 09:30-11:00, Mo,Tu,Th,Fr 16:30-19:00, Sa 14:00-16:00"}}, {"type": "node", "id": 11008683231, "lat": 52.636563, "lon": 13.5022262, "tags": {"addr:city": "Berlin", "addr:housenumber": "57", "addr:postcode": "13125", "addr:street": "Alt-Buch", "amenity": "veterinary", "name": "Tierarztpraxis Alt-Buch", "opening_hours": "Mo,Fr 09:00-16:00; Tu-Th 09:00-12:00, Tu,Th 16:00-19:00; Sa[1] 10:00-12:00; PH off", "operator": "Tier\u00e4rztin Lydia Klemer", "phone": "+4930 911 42 778", "website": "https://www.tierarztpraxis-alt-buch.de/"}}, {"type": "node", "id": 11052551506, "lat": 52.5507862, "lon": 13.1685048, "tags": {"amenity": "veterinary", "name": "Ute Teutenberg", "opening_hours": "Mo-Fr 08:00-12:00,15:00-18:00; We 08:00-12:00,17:00-20:00", "phone": "+49 30 37588910", "survey:date": "2023-07-18", "wheelchair": "no"}}, {"type": "node", "id": 11101616402, "lat": 52.425741, "lon": 13.4838753, "tags": {"amenity": "veterinary", "name": "Tierarzt Bello & Co.", "website": "https://belloundco.de/"}}, {"type": "node", "id": 11201794003, "lat": 52.4361962, "lon": 13.2660844, "tags": {"addr:housenumber": "17", "addr:street": "Berliner Stra\u00dfe", "amenity": "veterinary", "name": "Tierarztpraxis Dr. Pollmann", "opening_hours": "Tu, Th 09:00-15:00; We, Fr 13:00-19:00; Sa 11:00-16:00", "phone": "+493081099440", "website": "https://tierarztpraxis-pollmann.de"}}, {"type": "node", "id": 11313866984, "lat": 52.4678078, "lon": 13.3783605, "tags": {"addr:housenumber": "74", "addr:postcode": "12103", "addr:street": "Manteuffelstra\u00dfe", "amenity": "veterinary", "name": "Dr. Fenina + Burwieck", "phone": "+493063314227", "website": "https://meintierarzt.berlin"}}, {"type": "node", "id": 11345799891, "lat": 52.5073508, "lon": 13.4569833, "tags": {"amenity": "veterinary", "check_date:opening_hours": "2023-11-29", "name": "Rex", "opening_hours": "Mo-Fr 08:00-20:00", "opening_hours:signed": "no", "website": "https://www.rex.app/", "wheelchair": "yes"}}, {"type": "node", "id": 11556295677, "lat": 52.491509, "lon": 13.3183436, "tags": {"addr:city": "Berlin", "addr:country": "DE", "addr:housenumber": "185", "addr:postcode": "10713", "addr:street": "Hohenzollerndamm", "addr:suburb": "Wilmersdorf", "amenity": "veterinary", "name": "Tier\u00e4rztliche Gemeinschaftspraxis", "operator": "Antje Stolle-Malorny;Jens V\u00f6ster;Dr. med. vet. Iris V\u00f6ster", "website": "https://www.tierarztpraxis-berlin.net/"}}, {"type": "node", "id": 11717159971, "lat": 52.4807206, "lon": 13.425592, "tags": {"addr:city": "Berlin", "addr:housenumber": "227", "addr:postcode": "12049", "addr:street": "Hermannstra\u00dfe", "amenity": "veterinary", "name": "Rex Tierarztpraxis", "opening_hours": "Mo-Sa 08:00-20:00"}}, {"type": "node", "id": 11847097396, "lat": 52.4583689, "lon": 13.3734169, "tags": {"addr:city": "Berlin", "addr:country": "DE", "addr:housenumber": "34", "addr:postcode": "12103", "addr:street": "Burgemeisterstra\u00dfe", "addr:suburb": "Tempelhof", "amenity": "veterinary", "name": "Kleintierkardiologie Tempelhof", "opening_hours": "Mo-Th 08:00-18:00; PH off", "operator": "Sinah Dohlen", "payment:credit_cards": "yes", "payment:debit_cards": "yes", "phone": "+49 30 47006869", "website": "https://www.kardiobewegt.berlin/", "wheelchair": "yes"}}, {"type": "node", "id": 11928299022, "lat": 52.5016211, "lon": 13.6642333, "tags": {"addr:city": "Hoppegarten", "addr:housenumber": "2-4", "addr:postcode": "15366", "addr:street": "Bollensdorfer Weg", "addr:suburb": "Dahlwitz-Hoppegarten", "amenity": "veterinary", "name": "SmartVet Tierarztpraxis", "opening_hours": "Mo-Fr 09:00-19:00; Sa 09:00-16:00; Su 11:00-13:00", "operator": "SMARTVET Tierarztpraxen GmbH & Co. KG", "phone": "+49 3342 3089311", "website": "https://www.medivetgroup.com/de-de/tierarzt/hoppegarten/"}}, {"type": "node", "id": 11985547873, "lat": 52.6164598, "lon": 13.4890268, "tags": {"addr:city": "Berlin", "addr:housenumber": "13", "addr:postcode": "13125", "addr:street": "Zum Kappgraben", "amenity": "veterinary", "name": "Tierarztpraxis Kutzner", "opening_hours": "Mo-We,Fr 09:00-12:00,16:30-19:30; Th,Sa 09:00-12:00", "phone": "+49 30 94382030", "website": "https://tierarzt-kutzner.de/"}}, {"type": "node", "id": 12108668170, "lat": 52.5251722, "lon": 13.408013, "tags": {"addr:housenumber": "7", "addr:street": "Max-Beer-Stra\u00dfe", "amenity": "veterinary", "name": "Tierarztpraxis - Dr. med. vet. Dirk Emmelmann, Dr. med. vet. Albrecht Fengler", "opening_hours": "Mo, Tu, Th, Fr 09:00-12:00, 15:00-19:00; We 15:00-19:00", "phone": "0302426512", "veterinary": "Augenheilkunde", "wheelchair": "no"}}, {"type": "node", "id": 12219145454, "lat": 52.4456015, "lon": 13.3020665, "tags": {"addr:housenumber": "23", "addr:street": "Tietzenweg", "amenity": "veterinary", "check_date": "2024-09-12", "name": "Tierarztpraxis & Katzenbetreuung am Botanischen Garten", "opening_hours": "Mo, We 10:00-19:00; Tu, Th 08:30-14:00; Sa 10:00-12:00; Fr 10:00-14:00", "operator": "Daniela Friedrich", "phone": "+49 30 32294480", "website": "https://www.tierarztpraxis-botanischergarten.de"}}, {"type": "node", "id": 12238881093, "lat": 52.4922101, "lon": 13.447823, "tags": {"addr:city": "Berlin", "addr:housenumber": "5", "addr:postcode": "12435", "addr:street": "Kr\u00fcllsstra\u00dfe", "amenity": "veterinary", "description": "Praktische Tier\u00e4rztin", "name": "Janine Br\u00e4uer", "opening_hours": "Mo 10:00-12:00,13:00-16:00; Tu 16:00-19:00; We 12:00-17:00; Fr,Sa 10:00-12:00; Th,Su off", "operator": "Janine Br\u00e4uer"}}, {"type": "node", "id": 12526640981, "lat": 52.5639442, "lon": 13.326059, "tags": {"entrance": "main"}}, {"type": "node", "id": 12793397931, "lat": 52.4160917, "lon": 13.4047411, "tags": {"addr:city": "Berlin", "addr:housenumber": "5", "addr:postcode": "12349", "addr:street": "Schlierbacher Weg", "amenity": "veterinary", "name": "Tier\u00e4rztezentrum Birte Nannen", "phone": "+49 30 25 92 17 88", "website": "https://www.tieraerztezentrum-nannen.de"}}, {"type": "node", "id": 12849196704, "lat": 52.5399544, "lon": 13.4849492, "tags": {"amenity": "veterinary", "contact:email": "info@tierarzt-drloesch.de", "contact:fax": "+493098637517", "name": "Praxis f\u00fcr Kleine Haustiere Dr. Niels L\u00f6sch", "opening_hours": "Mo-We, Fr 10:00-12:00; Mo, Tu, Th 16:00-19:00; Fr 16:00-18:00; Sa 11:00-12:30", "phone": "+49309866411"}}, {"type": "node", "id": 12851066023, "lat": 52.5486928, "lon": 13.3531883, "tags": {"addr:city": "Berlin", "addr:housenumber": "52a", "addr:postcode": "13353", "addr:street": "Br\u00fcsseler Stra\u00dfe", "amenity": "veterinary", "name": "Dr. Pastor", "opening_hours": "Mo-Fr 09:00-11:00,16:00-19:00; Sa,Su 14:00-16:00", "website": "https://www.tierarztpraxis-pastor.de/"}}, {"type": "node", "id": 12877756489, "lat": 52.4406394, "lon": 13.6866147, "tags": {"amenity": "veterinary", "name": "Sonnenberg"}}, {"type": "node", "id": 12989186501, "lat": 52.5350637, "lon": 13.419688, "tags": {"addr:housenumber": "4", "addr:postcode": "10405", "addr:street": "Rykestra\u00dfe", "amenity": "veterinary", "name": "Tierarztpraxis am Wasserturm", "website": "https://www.tierarztpraxis-wasserturm.de/"}}, {"type": "way", "id": 24921047, "nodes": [270793304, 12526640981, 270793305, 270793306, 270793307, 270793304], "tags": {"addr:city": "Berlin", "addr:country": "DE", "addr:housenumber": "136", "addr:postcode": "13405", "addr:street": "Scharnweberstra\u00dfe", "amenity": "veterinary", "building": "yes", "building:levels": "1", "check_date": "2025-01-23", "email": "info@vetzentrum-berlin.de", "fee": "yes", "name": "Das Veterin\u00e4rmedizinische Zentrum Berlin", "opening_hours": "24/7", "operator": "Kai S. R\u00f6diger", "phone": "0049304127357", "roof:shape": "flat", "website": "https://www.vetzentrum-berlin.de/"}}, {"type": "way", "id": 28608972, "nodes": [314406052, 314406053, 5432917041, 5432917042, 5211241117, 5211241116, 5211241118, 314406056, 314406052], "tags": {"addr:city": "Berlin", "addr:country": "DE", "addr:housenumber": "37", "addr:postcode": "13407", "addr:street": "Alt-Reinickendorf", "addr:suburb": "Reinickendorf", "amenity": "veterinary", "architect": "W. Helmsdorff", "architect:wikidata": "Q110768840", "building": "yes", "heritage": "4", "heritage:operator": "lda", "lda:criteria": "Baudenkmal", "name": "Zete Marton", "old_name": "Bauernhof Gro\u00dfkopf", "opening_hours": "Mo-Fr 09:00-12:00, Mo,Th 16:00-19:00, Tu,We,Fr 15:00-18:00", "ref:lda": "09011742", "start_date": "1874", "wheelchair": "no", "wikidata": "Q15107420", "wikimedia_commons": "Category:Bauernhof Gro\u00dfkopf"}}, {"type": "way", "id": 71173694, "nodes": [847300428, 10289622491, 847300441, 847300433, 847300438, 847300428], "tags": {"addr:city": "Berlin", "addr:country": "DE", "addr:housenumber": "258", "addr:postcode": "12679", "addr:street": "M\u00e4rkische Allee", "addr:suburb": "Marzahn", "amenity": "veterinary", "building": "commercial", "building:levels": "3", "name": "Tier\u00e4rztlichen Klinik f\u00fcr Kleintiere", "opening_hours": "24/7", "roof:levels": "0", "roof:shape": "flat", "website": "https://www.tierklinik-in-berlin.de/", "wheelchair": "yes"}}, {"type": "way", "id": 89101208, "nodes": [4736960522, 4736960521, 4736960420, 4736960419, 4736960418, 4736960417, 4736960522], "tags": {"addr:city": "Berlin", "addr:country": "DE", "addr:housenumber": "90", "addr:postcode": "10318", "addr:street": "Robert-Siewert-Stra\u00dfe", "addr:suburb": "Karlshorst", "amenity": "veterinary", "building": "commercial", "building:levels": "1", "check_date:opening_hours": "2024-04-30", "name": "Tierarztpraxis Kathrin B\u00f6hm", "opening_hours": "Th 10:00-18:00; Tu,We 10:00-19:00; Fr 10:00-15:00; Sa 10:00-15:00; Mo 10:00-17:00", "operator": "Kathrin B\u00f6hm", "phone": "+49 30 32669736", "roof:shape": "flat", "wheelchair": "limited"}}, {"type": "way", "id": 97222207, "nodes": [1126213250, 10235703303, 10235703301, 1126214927, 1126214294, 10235703302, 1126213577, 1126213250], "tags": {"addr:city": "Dallgow-D\u00f6beritz", "addr:country": "DE", "addr:housenumber": "18", "addr:postcode": "14624", "addr:street": "Alte Dorfstra\u00dfe", "addr:suburb": "Seeburg", "amenity": "veterinary", "building": "yes", "contact:phone": "+49 33201 59 23 50", "emergency:phone": "+49 163 23 86 86 7", "name": "Tierarztpraxis Dr. Stefanie Bartsch", "opening_hours": "Mo 10:00-12:00,16:00-18:00; Tu,Th 16:00-18:00; Fr 10:00-12:00; PH off", "source": "survey"}}, {"type": "way", "id": 117230559, "nodes": [3218958598, 3218960064, 3218958602, 3218957857, 3218958799, 3218895055, 3218957838, 3218957836, 3218957839, 3218958684, 3218958592, 3218958030, 3218958893, 3218958600, 3218958032, 3218958605, 3218958895, 3218958610, 3218958034, 3218958808, 3218958598], "tags": {"addr:city": "Berlin", "addr:country": "DE", "addr:housenumber": "21", "addr:postcode": "14193", "addr:street": "Winkler Stra\u00dfe", "addr:suburb": "Grunewald", "amenity": "veterinary", "building": "yes", "check_date": "2023-07-30", "name": "Tierartzpraxis Gotthardt", "wikidata": "Q76599062"}}, {"type": "way", "id": 143895112, "nodes": [1574567078, 1574568646, 1574567352, 1574567351, 1574567348, 1574567350, 1574567349, 1574567967, 1574568647, 1574567082, 1574567083, 1574567075, 1574567078], "tags": {"addr:city": "Kleinmachnow", "addr:country": "DE", "addr:housenumber": "8", "addr:postcode": "14532", "addr:street": "Uhlenhorst", "amenity": "veterinary", "building": "house", "description": "Kleintierpraxis Dr. Kattinger  Dr. Lammerschmidt", "name": "Kleintierpraxis am Uhlenhorst", "phone": "00493320370884", "website": "https://www.kleintierpraxis-uhlenhorst.de/"}}, {"type": "way", "id": 163836866, "nodes": [1755090997, 1755090996, 1755090982, 5003622496, 5003622494, 5003622495, 5003622497, 5003622498, 5003622499, 5003622500, 5003622501, 1755090985, 1755090997], "tags": {"addr:city": "Berlin", "addr:country": "DE", "addr:housenumber": "22", "addr:postcode": "12683", "addr:street": "Alt-Biesdorf", "addr:suburb": "Biesdorf", "amenity": "veterinary", "building": "yes", "emergency": "yes", "heritage": "yes", "historic": "building", "name": "Tierklinik Berlin-Biesdorf", "opening_hours": "Mo-Fr 08:00-13:00,15:00-20:00; Sa 09:00-12:00", "phone": "+49 30 5143760", "source": "Geoportal Berlin / Hauskoordinaten", "website": "https://www.tierklinik-in-biesdorf.de/", "wheelchair": "no"}}, {"type": "way", "id": 166669128, "nodes": [1781199404, 1781199406, 1781199401, 1781199398, 3431640297, 1781199403, 1781199407, 1781199408, 1781199404], "tags": {"addr:city": "M\u00fchlenbecker Land", "addr:housenumber": "6", "addr:postcode": "16567", "addr:street": "Am Anger", "addr:suburb": "Sch\u00f6nflie\u00df", "amenity": "veterinary", "building": "yes", "contact:phone": "+49 33056 43800", "contact:website": "http://www.tpis.de", "fax": "+49 33056 4380290", "name": "Tier\u00e4rztliche Praxis Sch\u00f6nflie\u00df", "opening_hours": "Mo-Su 10:30-12:00, Mo-Fr 18:30-20:00", "operator": "Ziekursch,Negatsch,Lipka,Thomas", "wheelchair": "yes"}}, {"type": "way", "id": 231231602, "nodes": [2396407720, 2396407724, 2396407726, 2396407722, 2396407720], "tags": {"addr:city": "Sch\u00f6nefeld", "addr:country": "DE", "addr:housename": "Dr. Norberto Pedot (Tierarzt)", "addr:housenumber": "55", "addr:postcode": "12529", "addr:street": "Karl-Marx-Stra\u00dfe", "addr:suburb": "Gro\u00dfziethen", "amenity": "veterinary", "building": "yes", "website": "http://www.praxispedot.de/"}}, {"type": "way", "id": 286010852, "nodes": [2896439553, 2896440156, 2896440155, 2896440311, 2896440314, 2896440137, 2896440140, 2872429538, 2896440080, 2896439553], "tags": {"addr:city": "Berlin", "addr:country": "DE", "addr:housenumber": "26E", "addr:postcode": "13591", "addr:street": "S\u00fcdekumzeile", "addr:suburb": "Staaken", "amenity": "veterinary", "building": "commercial", "contact:email": "christinemueller.berlin@web.de", "contact:phone": "+49 30 366 0128", "contact:website": "http://tierarztpraxis-spandau.de/", "name": "Tierarztpraxis Dr. Christine Mueller", "source:shape": "Geoportal Berlin / Hausumringe"}}, {"type": "way", "id": 300487350, "nodes": [3045653583, 3045653580, 3045653578, 3045653558, 3045653564, 3045653557, 3045653584, 3045653553, 3045653583], "tags": {"addr:city": "M\u00fchlenbecker Land", "addr:housenumber": "18", "addr:postcode": "16552", "addr:street": "Sch\u00f6nflie\u00dfer Stra\u00dfe", "addr:suburb": "Schildow", "amenity": "veterinary", "building": "residential", "building:colour": "white", "building:levels": "1", "name": "Tierarztpraxis", "opening_hours": "Mo-Fr 09:00-12:00,16:00-19:00; PH off", "phone": "+49 33056 494258", "roof:levels": "0", "roof:shape": "flat"}}]}