{
"type": "FeatureCollection",
"name": "vet_clinics_aligned_merged",
"crs": { "type": "name", "properties": { "name": "urn:ogc:def:crs:OGC:1.3:CRS84" } },
"features": [
{ "type": "Feature", "properties": { "clinic_id": "A_0", "clinic_name": null, "street": "Alt-Biesdorf", "house_number": "22", "postcode": "12683", "city": "Berlin", "phone_number": "49305143760", "website": null, "email": null, "opening_hours": null, "operator": "<Na>", "brand": "<NA>", "speciality": "<NA>", "wheelchair_acces": null, "amenity": "veterinary", "latitude": null, "longitude": null, "full_address": "Alt-Biesdorf, 22, 12683, Berlin", "district_id": "<NA>", "neighbourhood_id": "<NA>", "source": "A", "emergency": null, "opening_hours_valid": null, "footprint": null }, "geometry": null },
{ "type": "Feature", "properties": { "clinic_id": "A_1", "clinic_name": null, "street": "Märkische Allee", "house_number": "258", "postcode": "12679", "city": "Berlin", "phone_number": "49309322093", "website": null, "email": null, "opening_hours": null, "operator": "<Na>", "brand": "<NA>", "speciality": "<NA>", "wheelchair_acces": null, "amenity": "veterinary", "latitude": null, "longitude": null, "full_address": "Märkische Allee, 258, 12679, Berlin", "district_id": "<NA>", "neighbourhood_id": "<NA>", "source": "A", "emergency": null, "opening_hours_valid": null, "footprint": null }, "geometry": null },
{ "type": "Feature", "properties": { "clinic_id": "A_2", "clinic_name": null, "street": "Potsdamer Str.", "house_number": "23", "postcode": "14163", "city": "Berlin", "phone_number": "4930201805750", "website": null, "email": null, "opening_hours": null, "operator": "<Na>", "brand": "<NA>", "speciality": "<NA>", "wheelchair_acces": null, "amenity": "veterinary", "latitude": null, "longitude": null, "full_address": "Potsdamer Str., 23, 14163, Berlin", "district_id": "<NA>", "neighbourhood_id": "<NA>", "source": "A", "emergency": null, "opening_hours_valid": null, "footprint": null }, "geometry": null },
{ "type": "Feature", "properties": { "clinic_id": "A_3", "clinic_name": null, "street": "Uhlandstr", "house_number": "151", "postcode": "10719", "city": "Berlin", "phone_number": "493023362627", "website": null, "email": null, "opening_hours": null, "operator": "<Na>", "brand": "<NA>", "speciality": "<NA>", "wheelchair_acces": null, "amenity": "veterinary", "latitude": null, "longitude": null, "full_address": "Uhlandstr, 151, 10719, Berlin", "district_id": "<NA>", "neighbourhood_id": "<NA>", "source": "A", "emergency": null, "opening_hours_valid": null, "footprint": null }, "geometry": null },
{ "type": "Feature", "properties": { "clinic_id": "A_4", "clinic_name": null, "street": "Scharnweberstr.", "house_number": "136", "postcode": "13405", "city": "Berlin", "phone_number": "49304127357", "website": null, "email": null, "opening_hours": null, "operator": "<Na>", "brand": "<NA>", "speciality": "<NA>", "wheelchair_acces": null, "amenity": "veterinary", "latitude": null, "longitude": null, "full_address": "Scharnweberstr., 136, 13405, Berlin", "district_id": "<NA>", "neighbourhood_id": "<NA>", "source": "A", "emergency": null, "opening_hours_valid": null, "footprint": null }, "geometry": null },
{ "type": "Feature", "properties": { "clinic_id": "A_5", "clinic_name": null, "street": "Königsweg", "house_number": "65", "postcode": "14163", "city": "Berlin", "phone_number": "493083862261", "website": null, "email": null, "opening_hours": null, "operator": "<Na>", "brand": "<NA>", "speciality": "<NA>", "wheelchair_acces": null, "amenity": "veterinary", "latitude": null, "longitude": null, "full_address": "Königsweg, 65, 14163, Berlin", "district_id": "<NA>", "neighbourhood_id": "<NA>", "source": "A", "emergency": null, "opening_hours_valid": null, "footprint": null }, "geometry": null },
{ "type": "Feature", "properties": { "clinic_id": "A_6", "clinic_name": null, "street": "Oertzenweg", "house_number": "19b", "postcode": "14163", "city": "Berlin", "phone_number": "493083862299", "website": null, "email": null, "opening_hours": null, "operator": "<Na>", "brand": "<NA>", "speciality": "<NA>", "wheelchair_acces": null, "amenity": "veterinary", "latitude": null, "longitude": null, "full_address": "Oertzenweg, 19b, 14163, Berlin", "district_id": "<NA>", "neighbourhood_id": "<NA>", "source": "A", "emergency": null, "opening_hours_valid": null, "footprint": null }, "geometry": null },
{ "type": "Feature", "properties": { "clinic_id": "A_7", "clinic_name": null, "street": "Königsweg", "house_number": "63", "postcode": "14163", "city": "Berlin", "phone_number": "493083862618", "website": null, "email": null, "opening_hours": null, "operator": "<Na>", "brand": "<NA>", "speciality": "<NA>", "wheelchair_acces": null, "amenity": "veterinary", "latitude": null, "longitude": null, "full_address": "Königsweg, 63, 14163, Berlin", "district_id": "<NA>", "neighbourhood_id": "<NA>", "source": "A", "emergency": null, "opening_hours_valid": null, "footprint": null }, "geometry": null },
{ "type": "Feature", "properties": { "clinic_id": "A_8", "clinic_name": null, "street": "Königsberger Str.", "house_number": "36", "postcode": "12207", "city": "Berlin", "phone_number": "49307738321", "website": null, "email": null, "opening_hours": null, "operator": "<Na>", "brand": "<NA>", "speciality": "<NA>", "wheelchair_acces": null, "amenity": "veterinary", "latitude": null, "longitude": null, "full_address": "Königsberger Str., 36, 12207, Berlin", "district_id": "<NA>", "neighbourhood_id": "<NA>", "source": "A", "emergency": null, "opening_hours_valid": null, "footprint": null }, "geometry": null },
{ "type": "Feature", "properties": { "clinic_id": "A_9", "clinic_name": null, "street": "Kanada Allee", "house_number": "12", "postcode": "14513", "city": "Teltow", "phone_number": "493328301808", "website": null, "email": null, "opening_hours": null, "operator": "<Na>", "brand": "<NA>", "speciality": "<NA>", "wheelchair_acces": null, "amenity": "veterinary", "latitude": null, "longitude": null, "full_address": "Kanada Allee, 12, 14513, Teltow", "district_id": "<NA>", "neighbourhood_id": "<NA>", "source": "A", "emergency": null, "opening_hours_valid": null, "footprint": null }, "geometry": null },
{ "type": "Feature", "properties": { "clinic_id": "A_10", "clinic_name": null, "street": "Manteuffelstraße", "house_number": "74", "postcode": "12103", "city": "Berlin", "phone_number": "493063314227", "website": null, "email": null, "opening_hours": null, "operator": "<Na>", "brand": "<NA>", "speciality": "<NA>", "wheelchair_acces": null, "amenity": "veterinary", "latitude": null, "longitude": null, "full_address": "Manteuffelstraße, 74, 12103, Berlin", "district_id": "<NA>", "neighbourhood_id": "<NA>", "source": "A", "emergency": null, "opening_hours_valid": null, "footprint": null }, "geometry": null },
{ "type": "Feature", "properties": { "clinic_id": "A_11", "clinic_name": null, "street": "Schlierbacher Weg", "house_number": "5", "postcode": "12349", "city": "Berlin", "phone_number": "491733923431", "website": null, "email": null, "opening_hours": null, "operator": "<Na>", "brand": "<NA>", "speciality": "<NA>", "wheelchair_acces": null, "amenity": "veterinary", "latitude": null, "longitude": null, "full_address": "Schlierbacher Weg, 5, 12349, Berlin", "district_id": "<NA>", "neighbourhood_id": "<NA>", "source": "A", "emergency": null, "opening_hours_valid": null, "footprint": null }, "geometry": null },
{ "type": "Feature", "properties": { "clinic_id": "A_12", "clinic_name": null, "street": "Tiermedizinzentrum Berlin Evidensia Kufsteiner Str.", "house_number": "22", "postcode": "10825", "city": "Berlin", "phone_number": "49308542050", "website": null, "email": null, "opening_hours": null, "operator": "<Na>", "brand": "<NA>", "speciality": "<NA>", "wheelchair_acces": null, "amenity": "veterinary", "latitude": null, "longitude": null, "full_address": "Tiermedizinzentrum Berlin Evidensia Kufsteiner Str., 22, 10825, Berlin", "district_id": "<NA>", "neighbourhood_id": "<NA>", "source": "A", "emergency": null, "opening_hours_valid": null, "footprint": null }, "geometry": null },
{ "type": "Feature", "properties": { "clinic_id": "A_13", "clinic_name": null, "street": "Schönfließer Str.", "house_number": "1", "postcode": "10439", "city": "Berlin", "phone_number": "49304469769", "website": null, "email": null, "opening_hours": null, "operator": "<Na>", "brand": "<NA>", "speciality": "<NA>", "wheelchair_acces": null, "amenity": "veterinary", "latitude": null, "longitude": null, "full_address": "Schönfließer Str., 1, 10439, Berlin", "district_id": "<NA>", "neighbourhood_id": "<NA>", "source": "A", "emergency": null, "opening_hours_valid": null, "footprint": null }, "geometry": null },
{ "type": "Feature", "properties": { "clinic_id": "A_14", "clinic_name": null, "street": "Hausvaterweg", "house_number": "39", "postcode": "13057", "city": "Berlin-Falkenberg", "phone_number": "493093662200", "website": null, "email": null, "opening_hours": null, "operator": "<Na>", "brand": "<NA>", "speciality": "<NA>", "wheelchair_acces": null, "amenity": "veterinary", "latitude": null, "longitude": null, "full_address": "Hausvaterweg, 39, 13057, Berlin-Falkenberg", "district_id": "<NA>", "neighbourhood_id": "<NA>", "source": "A", "emergency": null, "opening_hours_valid": null, "footprint": null }, "geometry": null },
{ "type": "Feature", "properties": { "clinic_id": "A_15", "clinic_name": null, "street": "Pasewalker Straße", "house_number": "25", "postcode": "13127", "city": "Berlin", "phone_number": "493047469232", "website": null, "email": null, "opening_hours": null, "operator": "<Na>", "brand": "<NA>", "speciality": "<NA>", "wheelchair_acces": null, "amenity": "veterinary", "latitude": null, "longitude": null, "full_address": "Pasewalker Straße, 25, 13127, Berlin", "district_id": "<NA>", "neighbourhood_id": "<NA>", "source": "A", "emergency": null, "opening_hours_valid": null, "footprint": null }, "geometry": null },
{ "type": "Feature", "properties": { "clinic_id": "A_16", "clinic_name": null, "street": "Mecklenburgische Str.", "house_number": "27", "postcode": "14197", "city": "Berlin", "phone_number": "493089736868", "website": null, "email": null, "opening_hours": null, "operator": "<Na>", "brand": "<NA>", "speciality": "<NA>", "wheelchair_acces": null, "amenity": "veterinary", "latitude": null, "longitude": null, "full_address": "Mecklenburgische Str., 27, 14197, Berlin", "district_id": "<NA>", "neighbourhood_id": "<NA>", "source": "A", "emergency": null, "opening_hours_valid": null, "footprint": null }, "geometry": null },
{ "type": "Feature", "properties": { "clinic_id": "A_17", "clinic_name": null, "street": "Neuköllner Straße", "house_number": "261", "postcode": "12357", "city": "Berlin", "phone_number": "49306612063", "website": null, "email": null, "opening_hours": null, "operator": "<Na>", "brand": "<NA>", "speciality": "<NA>", "wheelchair_acces": null, "amenity": "veterinary", "latitude": null, "longitude": null, "full_address": "Neuköllner Straße, 261, 12357, Berlin", "district_id": "<NA>", "neighbourhood_id": "<NA>", "source": "A", "emergency": null, "opening_hours_valid": null, "footprint": null }, "geometry": null },
{ "type": "Feature", "properties": { "clinic_id": "A_18", "clinic_name": null, "street": "Wittestr.", "house_number": "30", "postcode": "13509", "city": "Berlin", "phone_number": "493043662200", "website": null, "email": null, "opening_hours": null, "operator": "<Na>", "brand": "<NA>", "speciality": "<NA>", "wheelchair_acces": null, "amenity": "veterinary", "latitude": null, "longitude": null, "full_address": "Wittestr., 30, 13509, Berlin", "district_id": "<NA>", "neighbourhood_id": "<NA>", "source": "A", "emergency": null, "opening_hours_valid": null, "footprint": null }, "geometry": null },
{ "type": "Feature", "properties": { "clinic_id": "A_19", "clinic_name": null, "street": "täglich", "house_number": "24", "postcode": null, "city": null, "phone_number": "4915785949631", "website": null, "email": null, "opening_hours": null, "operator": "<Na>", "brand": "<NA>", "speciality": "<NA>", "wheelchair_acces": null, "amenity": "veterinary", "latitude": null, "longitude": null, "full_address": "täglich, 24", "district_id": "<NA>", "neighbourhood_id": "<NA>", "source": "A", "emergency": null, "opening_hours_valid": null, "footprint": null }, "geometry": null },
{ "type": "Feature", "properties": { "clinic_id": "B_0", "clinic_name": "Dr. Regina Fengler", "street": null, "house_number": "<NA>", "postcode": null, "city": null, "phone_number": "+4930442032901784420329", "website": null, "email": null, "opening_hours": "<NA>", "operator": "<Na>", "brand": "<NA>", "speciality": "<NA>", "wheelchair_acces": null, "amenity": "veterinary", "latitude": 52.535, "longitude": 13.42, "full_address": "<NA>", "district_id": "<NA>", "neighbourhood_id": "<NA>", "source": "B", "emergency": null, "opening_hours_valid": null, "footprint": null }, "geometry": { "type": "Point", "coordinates": [ 13.42, 52.535 ] } },
{ "type": "Feature", "properties": { "clinic_id": "B_1", "clinic_name": "Stephanie Stenschke-Großmann", "street": null, "house_number": "<NA>", "postcode": null, "city": null, "phone_number": "+493026397900", "website": "http://www.vet-berlin.de", "email": "praxis@vet-berlin.de", "opening_hours": "<NA>", "operator": "<Na>", "brand": "<NA>", "speciality": "<NA>", "wheelchair_acces": null, "amenity": "veterinary", "latitude": 52.5062, "longitude": 13.3494, "full_address": "<NA>", "district_id": "<NA>", "neighbourhood_id": "<NA>", "source": "B", "emergency": null, "opening_hours_valid": null, "footprint": null }, "geometry": { "type": "Point", "coordinates": [ 13.3494, 52.5062 ] } },
{ "type": "Feature", "properties": { "clinic_id": "B_2", "clinic_name": "Dr. Pascal Kyle Theobald", "street": null, "house_number": "<NA>", "postcode": null, "city": null, "phone_number": "+49302111779", "website": "http://www.tierarztschoeneberg.de", "email": null, "opening_hours": "<NA>", "operator": "<Na>", "brand": "<NA>", "speciality": "<NA>", "wheelchair_acces": null, "amenity": "veterinary", "latitude": 52.4898, "longitude": 13.3489, "full_address": "<NA>", "district_id": "<NA>", "neighbourhood_id": "<NA>", "source": "B", "emergency": null, "opening_hours_valid": null, "footprint": null }, "geometry": { "type": "Point", "coordinates": [ 13.3489, 52.4898 ] } },
{ "type": "Feature", "properties": { "clinic_id": "B_3", "clinic_name": "Gudrun Diek", "street": null, "house_number": "<NA>", "postcode": null, "city": null, "phone_number": "+49302142954", "website": null, "email": "dknurdug@alice.de", "opening_hours": "<NA>", "operator": "<Na>", "brand": "<NA>", "speciality": "<NA>", "wheelchair_acces": null, "amenity": "veterinary", "latitude": 52.4931, "longitude": 13.3455, "full_address": "<NA>", "district_id": "<NA>", "neighbourhood_id": "<NA>", "source": "B", "emergency": null, "opening_hours_valid": null, "footprint": null }, "geometry": { "type": "Point", "coordinates": [ 13.3455, 52.4931 ] } },
{ "type": "Feature", "properties": { "clinic_id": "B_4", "clinic_name": "Ulrike Gollmer", "street": null, "house_number": "<NA>", "postcode": null, "city": null, "phone_number": "+49303951555", "website": "http://www.tierarztpraxis-oldenburger-strasse.de", "email": null, "opening_hours": "<NA>", "operator": "<Na>", "brand": "<NA>", "speciality": "<NA>", "wheelchair_acces": null, "amenity": "veterinary", "latitude": 52.5288, "longitude": 13.3357, "full_address": "<NA>", "district_id": "<NA>", "neighbourhood_id": "<NA>", "source": "B", "emergency": null, "opening_hours_valid": null, "footprint": null }, "geometry": { "type": "Point", "coordinates": [ 13.3357, 52.5288 ] } },
{ "type": "Feature", "properties": { "clinic_id": "B_5", "clinic_name": "Dr. Claudia Pastor", "street": null, "house_number": "<NA>", "postcode": null, "city": null, "phone_number": "+49304539080", "website": "http://www.tierarztpraxis-pastor.de", "email": null, "opening_hours": "<NA>", "operator": "<Na>", "brand": "<NA>", "speciality": "<NA>", "wheelchair_acces": null, "amenity": "veterinary", "latitude": 52.5487, "longitude": 13.3532, "full_address": "<NA>", "district_id": "<NA>", "neighbourhood_id": "<NA>", "source": "B", "emergency": null, "opening_hours_valid": null, "footprint": null }, "geometry": { "type": "Point", "coordinates": [ 13.3532, 52.5487 ] } },
{ "type": "Feature", "properties": { "clinic_id": "B_6", "clinic_name": "Daniel Kitzing", "street": null, "house_number": "<NA>", "postcode": null, "city": null, "phone_number": "+4930681445503068809111", "website": "http://www.tierarztpraxis-sonnenallee.de", "email": "post@tierarztpraxis-sonnenallee.de", "opening_hours": "<NA>", "operator": "<Na>", "brand": "<NA>", "speciality": "<NA>", "wheelchair_acces": null, "amenity": "veterinary", "latitude": 52.4748, "longitude": 13.4537, "full_address": "<NA>", "district_id": "<NA>", "neighbourhood_id": "<NA>", "source": "B", "emergency": null, "opening_hours_valid": null, "footprint": null }, "geometry": { "type": "Point", "coordinates": [ 13.4537, 52.4748 ] } },
{ "type": "Feature", "properties": { "clinic_id": "B_7", "clinic_name": "Dr. Carolin Hallmann", "street": null, "house_number": "<NA>", "postcode": null, "city": null, "phone_number": "+49308618564", "website": "http://www.tierarztpraxis-gasteiner-strasse.de", "email": null, "opening_hours": "<NA>", "operator": "<Na>", "brand": "<NA>", "speciality": "<NA>", "wheelchair_acces": null, "amenity": "veterinary", "latitude": 52.4873, "longitude": 13.326, "full_address": "<NA>", "district_id": "<NA>", "neighbourhood_id": "<NA>", "source": "B", "emergency": null, "opening_hours_valid": null, "footprint": null }, "geometry": { "type": "Point", "coordinates": [ 13.326, 52.4873 ] } },
{ "type": "Feature", "properties": { "clinic_id": "B_8", "clinic_name": "Dr. Ulrich Mattke", "street": null, "house_number": "<NA>", "postcode": null, "city": null, "phone_number": "+49309268843", "website": null, "email": null, "opening_hours": "<NA>", "operator": "<Na>", "brand": "<NA>", "speciality": "<NA>", "wheelchair_acces": null, "amenity": "veterinary", "latitude": 52.5535, "longitude": 13.4484, "full_address": "<NA>", "district_id": "<NA>", "neighbourhood_id": "<NA>", "source": "B", "emergency": null, "opening_hours_valid": null, "footprint": null }, "geometry": { "type": "Point", "coordinates": [ 13.4484, 52.5535 ] } },
{ "type": "Feature", "properties": { "clinic_id": "B_9", "clinic_name": "Dirk Trimpe", "street": null, "house_number": "<NA>", "postcode": null, "city": null, "phone_number": "+49308521920", "website": "http://www.tierarztpraxis-trimpe.de", "email": "info@tierarztpraxis-trimpe.de", "opening_hours": "<NA>", "operator": "<Na>", "brand": "<NA>", "speciality": "<NA>", "wheelchair_acces": null, "amenity": "veterinary", "latitude": 52.4699, "longitude": 13.3394, "full_address": "<NA>", "district_id": "<NA>", "neighbourhood_id": "<NA>", "source": "B", "emergency": null, "opening_hours_valid": null, "footprint": null }, "geometry": { "type": "Point", "coordinates": [ 13.3394, 52.4699 ] } },
{ "type": "Feature", "properties": { "clinic_id": "B_10", "clinic_name": "Dr. Andrea Bahr", "street": null, "house_number": "<NA>", "postcode": null, "city": null, "phone_number": "+49308554050", "website": "http://www.viechdoktor.de", "email": null, "opening_hours": "<NA>", "operator": "<Na>", "brand": "<NA>", "speciality": "<NA>", "wheelchair_acces": null, "amenity": "veterinary", "latitude": 52.4644, "longitude": 13.3395, "full_address": "<NA>", "district_id": "<NA>", "neighbourhood_id": "<NA>", "source": "B", "emergency": null, "opening_hours_valid": null, "footprint": null }, "geometry": { "type": "Point", "coordinates": [ 13.3395, 52.4644 ] } },
{ "type": "Feature", "properties": { "clinic_id": "B_11", "clinic_name": "Dr. Katharina Dralle", "street": null, "house_number": "<NA>", "postcode": null, "city": null, "phone_number": "+49308527705", "website": "http://www.dr-dralle-berlin.de", "email": null, "opening_hours": "<NA>", "operator": "<Na>", "brand": "<NA>", "speciality": "<NA>", "wheelchair_acces": null, "amenity": "veterinary", "latitude": 52.4709, "longitude": 13.3255, "full_address": "<NA>", "district_id": "<NA>", "neighbourhood_id": "<NA>", "source": "B", "emergency": null, "opening_hours_valid": null, "footprint": null }, "geometry": { "type": "Point", "coordinates": [ 13.3255, 52.4709 ] } },
{ "type": "Feature", "properties": { "clinic_id": "B_12", "clinic_name": "Leszek Chelminski", "street": null, "house_number": "<NA>", "postcode": null, "city": null, "phone_number": "+49304954038", "website": null, "email": null, "opening_hours": "<NA>", "operator": "<Na>", "brand": "<NA>", "speciality": "<NA>", "wheelchair_acces": null, "amenity": "veterinary", "latitude": 52.5692, "longitude": 13.3611, "full_address": "<NA>", "district_id": "<NA>", "neighbourhood_id": "<NA>", "source": "B", "emergency": null, "opening_hours_valid": null, "footprint": null }, "geometry": { "type": "Point", "coordinates": [ 13.3611, 52.5692 ] } },
{ "type": "Feature", "properties": { "clinic_id": "B_13", "clinic_name": "Dr. Christina March", "street": null, "house_number": "<NA>", "postcode": null, "city": null, "phone_number": "+49303215058", "website": "http://www.tierarztpraxis-am-lietzenseepark.de", "email": "mail@tierarztpraxis-am-lietzenseepark.de", "opening_hours": "<NA>", "operator": "<Na>", "brand": "<NA>", "speciality": "<NA>", "wheelchair_acces": null, "amenity": "veterinary", "latitude": 52.5093, "longitude": 13.2854, "full_address": "<NA>", "district_id": "<NA>", "neighbourhood_id": "<NA>", "source": "B", "emergency": null, "opening_hours_valid": null, "footprint": null }, "geometry": { "type": "Point", "coordinates": [ 13.2854, 52.5093 ] } },
{ "type": "Feature", "properties": { "clinic_id": "B_14", "clinic_name": "Dr. Kirsten Spellmeyer", "street": null, "house_number": "<NA>", "postcode": null, "city": null, "phone_number": "+49303215058", "website": "http://www.tierarztpraxis-am-lietzenseepark.de", "email": "mail@tierarztpraxis-am-lietzenseepark.de", "opening_hours": "<NA>", "operator": "<Na>", "brand": "<NA>", "speciality": "<NA>", "wheelchair_acces": null, "amenity": "veterinary", "latitude": 52.5093, "longitude": 13.2854, "full_address": "<NA>", "district_id": "<NA>", "neighbourhood_id": "<NA>", "source": "B", "emergency": null, "opening_hours_valid": null, "footprint": null }, "geometry": { "type": "Point", "coordinates": [ 13.2854, 52.5093 ] } },
{ "type": "Feature", "properties": { "clinic_id": "B_15", "clinic_name": "Dr. Jana Bulik", "street": null, "house_number": "<NA>", "postcode": null, "city": null, "phone_number": "+49309864712", "website": "http://www.kleintierpraxis-pohlenz.de", "email": null, "opening_hours": "<NA>", "operator": "<Na>", "brand": "<NA>", "speciality": "<NA>", "wheelchair_acces": null, "amenity": "veterinary", "latitude": 52.5491, "longitude": 13.4937, "full_address": "<NA>", "district_id": "<NA>", "neighbourhood_id": "<NA>", "source": "B", "emergency": null, "opening_hours_valid": null, "footprint": null }, "geometry": { "type": "Point", "coordinates": [ 13.4937, 52.5491 ] } },
{ "type": "Feature", "properties": { "clinic_id": "B_16", "clinic_name": "Jeanette Sagawe", "street": null, "house_number": "<NA>", "postcode": null, "city": null, "phone_number": "+49307951435", "website": "http://www.tieraerzte-steglitz.de", "email": "info@tieraerzte-steglitz.de", "opening_hours": "<NA>", "operator": "<Na>", "brand": "<NA>", "speciality": "<NA>", "wheelchair_acces": null, "amenity": "veterinary", "latitude": 52.4505, "longitude": 13.3411, "full_address": "<NA>", "district_id": "<NA>", "neighbourhood_id": "<NA>", "source": "B", "emergency": null, "opening_hours_valid": null, "footprint": null }, "geometry": { "type": "Point", "coordinates": [ 13.3411, 52.4505 ] } },
{ "type": "Feature", "properties": { "clinic_id": "B_17", "clinic_name": "DVM Michael Voigt", "street": null, "house_number": "<NA>", "postcode": null, "city": null, "phone_number": "+49305329481", "website": "http://www.tierarzt-voigt.de", "email": null, "opening_hours": "<NA>", "operator": "<Na>", "brand": "<NA>", "speciality": "<NA>", "wheelchair_acces": null, "amenity": "veterinary", "latitude": 52.4655, "longitude": 13.4888, "full_address": "<NA>", "district_id": "<NA>", "neighbourhood_id": "<NA>", "source": "B", "emergency": null, "opening_hours_valid": null, "footprint": null }, "geometry": { "type": "Point", "coordinates": [ 13.4888, 52.4655 ] } },
{ "type": "Feature", "properties": { "clinic_id": "B_18", "clinic_name": "Ulrike Eßrich", "street": null, "house_number": "<NA>", "postcode": null, "city": null, "phone_number": "+493066407200", "website": "http://www.ktpraxis-berlin.de", "email": "mail@ktpraxis-berlin.de", "opening_hours": "<NA>", "operator": "<Na>", "brand": "<NA>", "speciality": "<NA>", "wheelchair_acces": null, "amenity": "veterinary", "latitude": 52.4371, "longitude": 13.3772, "full_address": "<NA>", "district_id": "<NA>", "neighbourhood_id": "<NA>", "source": "B", "emergency": null, "opening_hours_valid": null, "footprint": null }, "geometry": { "type": "Point", "coordinates": [ 13.3772, 52.4371 ] } },
{ "type": "Feature", "properties": { "clinic_id": "B_19", "clinic_name": "Dr. Hans Georg König", "street": null, "house_number": "<NA>", "postcode": null, "city": null, "phone_number": "+493083223422", "website": "http://www.drkoenig.org", "email": "mail@drkoenig.org", "opening_hours": "<NA>", "operator": "<Na>", "brand": "<NA>", "speciality": "<NA>", "wheelchair_acces": null, "amenity": "veterinary", "latitude": 52.4785, "longitude": 13.284, "full_address": "<NA>", "district_id": "<NA>", "neighbourhood_id": "<NA>", "source": "B", "emergency": null, "opening_hours_valid": null, "footprint": null }, "geometry": { "type": "Point", "coordinates": [ 13.284, 52.4785 ] } },
{ "type": "Feature", "properties": { "clinic_id": "B_20", "clinic_name": "Anita Kapahnke", "street": null, "house_number": "<NA>", "postcode": null, "city": null, "phone_number": "+493049856880", "website": "http://www.tierarztpraxis-pankow.de", "email": "info@tierarztpraxis-pankow.de", "opening_hours": "<NA>", "operator": "<Na>", "brand": "<NA>", "speciality": "<NA>", "wheelchair_acces": null, "amenity": "veterinary", "latitude": 52.5878, "longitude": 13.365, "full_address": "<NA>", "district_id": "<NA>", "neighbourhood_id": "<NA>", "source": "B", "emergency": null, "opening_hours_valid": null, "footprint": null }, "geometry": { "type": "Point", "coordinates": [ 13.365, 52.5878 ] } },
{ "type": "Feature", "properties": { "clinic_id": "B_21", "clinic_name": "Ute Schäfer", "street": null, "house_number": "<NA>", "postcode": null, "city": null, "phone_number": "+493049856880", "website": "http://www.tierarztpraxis-pankow.de", "email": "info@tierarztpraxis-pankow.de", "opening_hours": "<NA>", "operator": "<Na>", "brand": "<NA>", "speciality": "<NA>", "wheelchair_acces": null, "amenity": "veterinary", "latitude": 52.5878, "longitude": 13.365, "full_address": "<NA>", "district_id": "<NA>", "neighbourhood_id": "<NA>", "source": "B", "emergency": null, "opening_hours_valid": null, "footprint": null }, "geometry": { "type": "Point", "coordinates": [ 13.365, 52.5878 ] } },
{ "type": "Feature", "properties": { "clinic_id": "B_22", "clinic_name": "Dietlinde Soppa", "street": null, "house_number": "<NA>", "postcode": null, "city": null, "phone_number": "+493055468416", "website": "http://www.tierarztpraxis-am-rohrdamm.de", "email": null, "opening_hours": "<NA>", "operator": "<Na>", "brand": "<NA>", "speciality": "<NA>", "wheelchair_acces": null, "amenity": "veterinary", "latitude": 52.5376, "longitude": 13.2646, "full_address": "<NA>", "district_id": "<NA>", "neighbourhood_id": "<NA>", "source": "B", "emergency": null, "opening_hours_valid": null, "footprint": null }, "geometry": { "type": "Point", "coordinates": [ 13.2646, 52.5376 ] } },
{ "type": "Feature", "properties": { "clinic_id": "B_23", "clinic_name": "Dr. Brigitte Morath", "street": null, "house_number": "<NA>", "postcode": null, "city": null, "phone_number": "+49308336055", "website": null, "email": "bmorath@gmx.de", "opening_hours": "<NA>", "operator": "<Na>", "brand": "<NA>", "speciality": "<NA>", "wheelchair_acces": null, "amenity": "veterinary", "latitude": 52.4413, "longitude": 13.2981, "full_address": "<NA>", "district_id": "<NA>", "neighbourhood_id": "<NA>", "source": "B", "emergency": null, "opening_hours_valid": null, "footprint": null }, "geometry": { "type": "Point", "coordinates": [ 13.2981, 52.4413 ] } },
{ "type": "Feature", "properties": { "clinic_id": "B_24", "clinic_name": "Margrit Blessing", "street": null, "house_number": "<NA>", "postcode": null, "city": null, "phone_number": "+493040710151", "website": "http://www.ta-blessing.de", "email": "info@ta-blessing.de", "opening_hours": "<NA>", "operator": "<Na>", "brand": "<NA>", "speciality": "<NA>", "wheelchair_acces": null, "amenity": "veterinary", "latitude": 52.6046, "longitude": 13.3663, "full_address": "<NA>", "district_id": "<NA>", "neighbourhood_id": "<NA>", "source": "B", "emergency": null, "opening_hours_valid": null, "footprint": null }, "geometry": { "type": "Point", "coordinates": [ 13.3663, 52.6046 ] } },
{ "type": "Feature", "properties": { "clinic_id": "B_25", "clinic_name": "Dr. Janine Sommer", "street": null, "house_number": "<NA>", "postcode": null, "city": null, "phone_number": "+491751845114", "website": "http://www.tierarztpraxismobil.de", "email": "dr@tierarztpraxismobil.de", "opening_hours": "<NA>", "operator": "<Na>", "brand": "<NA>", "speciality": "<NA>", "wheelchair_acces": null, "amenity": "veterinary", "latitude": 52.504802, "longitude": 13.2375787, "full_address": "<NA>", "district_id": "<NA>", "neighbourhood_id": "<NA>", "source": "B", "emergency": null, "opening_hours_valid": null, "footprint": null }, "geometry": { "type": "Point", "coordinates": [ 13.2375787, 52.504802 ] } },
{ "type": "Feature", "properties": { "clinic_id": "B_26", "clinic_name": "Dr. Christian Koch", "street": null, "house_number": "<NA>", "postcode": null, "city": null, "phone_number": "+493067037657", "website": "http://www.tierarztpraxis-koch.de", "email": "koch.ch@web.de", "opening_hours": "<NA>", "operator": "<Na>", "brand": "<NA>", "speciality": "<NA>", "wheelchair_acces": null, "amenity": "veterinary", "latitude": 52.4108, "longitude": 13.4038, "full_address": "<NA>", "district_id": "<NA>", "neighbourhood_id": "<NA>", "source": "B", "emergency": null, "opening_hours_valid": null, "footprint": null }, "geometry": { "type": "Point", "coordinates": [ 13.4038, 52.4108 ] } },
{ "type": "Feature", "properties": { "clinic_id": "B_27", "clinic_name": "Dr. Silke Sanft", "street": null, "house_number": "<NA>", "postcode": null, "city": null, "phone_number": "+49307912368", "website": "http://www.tierarztpraxis-sanft.de", "email": "mail@tierarztpraxis-sanft.de", "opening_hours": "<NA>", "operator": "<Na>", "brand": "<NA>", "speciality": "<NA>", "wheelchair_acces": null, "amenity": "veterinary", "latitude": 52.4405601, "longitude": 13.273689315582001, "full_address": "<NA>", "district_id": "<NA>", "neighbourhood_id": "<NA>", "source": "B", "emergency": null, "opening_hours_valid": null, "footprint": null }, "geometry": { "type": "Point", "coordinates": [ 13.273689315582001, 52.4405601 ] } },
{ "type": "Feature", "properties": { "clinic_id": "B_28", "clinic_name": "Joel Vesmes", "street": null, "house_number": "<NA>", "postcode": null, "city": null, "phone_number": "+49309340440", "website": "http://www.tierarztpraxis-vesmes.de", "email": "info@tierarztpraxis-vesmes.de", "opening_hours": "<NA>", "operator": "<Na>", "brand": "<NA>", "speciality": "<NA>", "wheelchair_acces": null, "amenity": "veterinary", "latitude": 52.5452947, "longitude": 13.5718701, "full_address": "<NA>", "district_id": "<NA>", "neighbourhood_id": "<NA>", "source": "B", "emergency": null, "opening_hours_valid": null, "footprint": null }, "geometry": { "type": "Point", "coordinates": [ 13.5718701, 52.5452947 ] } },
{ "type": "Feature", "properties": { "clinic_id": "B_29", "clinic_name": "Ulf Kutzner", "street": null, "house_number": "<NA>", "postcode": null, "city": null, "phone_number": "+493094382030", "website": null, "email": null, "opening_hours": "<NA>", "operator": "<Na>", "brand": "<NA>", "speciality": "<NA>", "wheelchair_acces": null, "amenity": "veterinary", "latitude": 52.6164, "longitude": 13.4892, "full_address": "<NA>", "district_id": "<NA>", "neighbourhood_id": "<NA>", "source": "B", "emergency": null, "opening_hours_valid": null, "footprint": null }, "geometry": { "type": "Point", "coordinates": [ 13.4892, 52.6164 ] } },
{ "type": "Feature", "properties": { "clinic_id": "B_30", "clinic_name": "Dr. Petra Steffens", "street": null, "house_number": "<NA>", "postcode": null, "city": null, "phone_number": "+49303318012", "website": "http://www.Tierarzt-in-Spandau.de", "email": "info@tierarzt-in-spandau.de", "opening_hours": "<NA>", "operator": "<Na>", "brand": "<NA>", "speciality": "<NA>", "wheelchair_acces": null, "amenity": "veterinary", "latitude": 52.5232, "longitude": 13.1983, "full_address": "<NA>", "district_id": "<NA>", "neighbourhood_id": "<NA>", "source": "B", "emergency": null, "opening_hours_valid": null, "footprint": null }, "geometry": { "type": "Point", "coordinates": [ 13.1983, 52.5232 ] } },
{ "type": "Feature", "properties": { "clinic_id": "B_31", "clinic_name": "Christoph Ladwig", "street": null, "house_number": "<NA>", "postcode": null, "city": null, "phone_number": "+493074732888", "website": "http://www.kleintierpraxis-ladwig.de", "email": "info@kleintierpraxis-ladwig.de", "opening_hours": "<NA>", "operator": "<Na>", "brand": "<NA>", "speciality": "<NA>", "wheelchair_acces": null, "amenity": "veterinary", "latitude": 52.5285, "longitude": 13.1913, "full_address": "<NA>", "district_id": "<NA>", "neighbourhood_id": "<NA>", "source": "B", "emergency": null, "opening_hours_valid": null, "footprint": null }, "geometry": { "type": "Point", "coordinates": [ 13.1913, 52.5285 ] } },
{ "type": "Feature", "properties": { "clinic_id": "B_32", "clinic_name": "Dr. Susanne Schmid", "street": "Märkische Allee 76", "house_number": "<NA>", "postcode": "16548", "city": "Glienicke/Nordbahn", "phone_number": "+4933056248892", "website": "http://www.die-tierarztpraxis-glienicke.de", "email": "info@die-tierarztpraxis-glienicke.de", "opening_hours": "<NA>", "operator": "<Na>", "brand": "<NA>", "speciality": "<NA>", "wheelchair_acces": null, "amenity": "veterinary", "latitude": 52.6312, "longitude": 13.3229, "full_address": "Märkische Allee 76, <NA>, 16548, Glienicke/Nordbahn", "district_id": "<NA>", "neighbourhood_id": "<NA>", "source": "B", "emergency": null, "opening_hours_valid": null, "footprint": null }, "geometry": { "type": "Point", "coordinates": [ 13.3229, 52.6312 ] } },
{ "type": "Feature", "properties": { "clinic_id": "B_33", "clinic_name": "Dr. Dagmar Bredenbröker", "street": "Schönfließer Str. 18", "house_number": "<NA>", "postcode": "16552", "city": "Schildow", "phone_number": "+491753336076", "website": "http://www.rollender-tierarzt.de", "email": "info@rollender-tierarzt.de", "opening_hours": "<NA>", "operator": "<Na>", "brand": "<NA>", "speciality": "<NA>", "wheelchair_acces": null, "amenity": "veterinary", "latitude": 52.643, "longitude": 13.3722, "full_address": "Schönfließer Str. 18, <NA>, 16552, Schildow", "district_id": "<NA>", "neighbourhood_id": "<NA>", "source": "B", "emergency": null, "opening_hours_valid": null, "footprint": null }, "geometry": { "type": "Point", "coordinates": [ 13.3722, 52.643 ] } },
{ "type": "Feature", "properties": { "clinic_id": "B_34", "clinic_name": "Dr. Claudia Ernst", "street": "Richard-Wagner-Str. 54", "house_number": "<NA>", "postcode": "14513", "city": "Teltow", "phone_number": "+4933283090050", "website": null, "email": "ernst-medvet@web.de", "opening_hours": "<NA>", "operator": "<Na>", "brand": "<NA>", "speciality": "<NA>", "wheelchair_acces": null, "amenity": "veterinary", "latitude": 52.3896, "longitude": 13.283, "full_address": "Richard-Wagner-Str. 54, <NA>, 14513, Teltow", "district_id": "<NA>", "neighbourhood_id": "<NA>", "source": "B", "emergency": null, "opening_hours_valid": null, "footprint": null }, "geometry": { "type": "Point", "coordinates": [ 13.283, 52.3896 ] } },
{ "type": "Feature", "properties": { "clinic_id": "B_35", "clinic_name": "Dr. Volker Lammerschmidt", "street": "Uhlenhorst 8", "house_number": "<NA>", "postcode": "14532", "city": "Kleinmachnow", "phone_number": "+493320370884", "website": "http://www.kleintierpraxis-uhlenhorst.de", "email": "info@kleintierpraxis-uhlenhorst.de", "opening_hours": "<NA>", "operator": "<Na>", "brand": "<NA>", "speciality": "<NA>", "wheelchair_acces": null, "amenity": "veterinary", "latitude": 52.4163, "longitude": 13.2267, "full_address": "Uhlenhorst 8, <NA>, 14532, Kleinmachnow", "district_id": "<NA>", "neighbourhood_id": "<NA>", "source": "B", "emergency": null, "opening_hours_valid": null, "footprint": null }, "geometry": { "type": "Point", "coordinates": [ 13.2267, 52.4163 ] } },
{ "type": "Feature", "properties": { "clinic_id": "B_36", "clinic_name": "Dr. Ute Teutenberg", "street": null, "house_number": "<NA>", "postcode": null, "city": null, "phone_number": "+493037588910", "website": "http://www.tierarztspandau.de", "email": "praxisdr.teutenberg@t-online.de", "opening_hours": "<NA>", "operator": "<Na>", "brand": "<NA>", "speciality": "<NA>", "wheelchair_acces": null, "amenity": "veterinary", "latitude": 52.5508, "longitude": 13.1685, "full_address": "<NA>", "district_id": "<NA>", "neighbourhood_id": "<NA>", "source": "B", "emergency": null, "opening_hours_valid": null, "footprint": null }, "geometry": { "type": "Point", "coordinates": [ 13.1685, 52.5508 ] } },
{ "type": "Feature", "properties": { "clinic_id": "B_37", "clinic_name": "Dr. Ute Busch", "street": "Grasweg 43", "house_number": "<NA>", "postcode": "14532", "city": "Kleinmachnow", "phone_number": "+4933203608576", "website": "http://www.tierarzt-kleinmachnow.de", "email": null, "opening_hours": "<NA>", "operator": "<Na>", "brand": "<NA>", "speciality": "<NA>", "wheelchair_acces": null, "amenity": "veterinary", "latitude": 52.4049, "longitude": 13.2038, "full_address": "Grasweg 43, <NA>, 14532, Kleinmachnow", "district_id": "<NA>", "neighbourhood_id": "<NA>", "source": "B", "emergency": null, "opening_hours_valid": null, "footprint": null }, "geometry": { "type": "Point", "coordinates": [ 13.2038, 52.4049 ] } },
{ "type": "Feature", "properties": { "clinic_id": "B_38", "clinic_name": "Dr. Torsten Muche", "street": "Spandauer Str. 160d", "house_number": "<NA>", "postcode": "14612", "city": "Falkensee", "phone_number": "+49332222690", "website": "https://tierarzt-praxis-falkensee.de/", "email": "Tierarztpraxis-Falkensee@gmx.de", "opening_hours": "<NA>", "operator": "<Na>", "brand": "<NA>", "speciality": "<NA>", "wheelchair_acces": null, "amenity": "veterinary", "latitude": 52.5553, "longitude": 13.145, "full_address": "Spandauer Str. 160d, <NA>, 14612, Falkensee", "district_id": "<NA>", "neighbourhood_id": "<NA>", "source": "B", "emergency": null, "opening_hours_valid": null, "footprint": null }, "geometry": { "type": "Point", "coordinates": [ 13.145, 52.5553 ] } },
{ "type": "Feature", "properties": { "clinic_id": "B_39", "clinic_name": "Dr. Annette Klug", "street": "Rathenaustr. 9", "house_number": "<NA>", "postcode": "16761", "city": "Hennigsdorf", "phone_number": "+493302200633", "website": "http://www.tap-hennigsdorf.de", "email": "info@tap-hennigsdorf.de", "opening_hours": "<NA>", "operator": "<Na>", "brand": "<NA>", "speciality": "<NA>", "wheelchair_acces": null, "amenity": "veterinary", "latitude": 52.6304, "longitude": 13.2058, "full_address": "Rathenaustr. 9, <NA>, 16761, Hennigsdorf", "district_id": "<NA>", "neighbourhood_id": "<NA>", "source": "B", "emergency": null, "opening_hours_valid": null, "footprint": null }, "geometry": { "type": "Point", "coordinates": [ 13.2058, 52.6304 ] } },
{ "type": "Feature", "properties": { "clinic_id": "B_40", "clinic_name": "Dr. Michael Burger", "street": "Heinrich-Hertz-Str. 1b", "house_number": "<NA>", "postcode": "14532", "city": "Kleinmachnow", "phone_number": "+493320387390", "website": "http://www.kleintierchirurgie-dreilinden.de", "email": "info@kleintierchirurgie-dreilinden.de", "opening_hours": "<NA>", "operator": "<Na>", "brand": "<NA>", "speciality": "<NA>", "wheelchair_acces": null, "amenity": "veterinary", "latitude": 52.4038, "longitude": 13.1874, "full_address": "Heinrich-Hertz-Str. 1b, <NA>, 14532, Kleinmachnow", "district_id": "<NA>", "neighbourhood_id": "<NA>", "source": "B", "emergency": null, "opening_hours_valid": null, "footprint": null }, "geometry": { "type": "Point", "coordinates": [ 13.1874, 52.4038 ] } },
{ "type": "Feature", "properties": { "clinic_id": "B_41", "clinic_name": "Dr. Caroline Bäcker", "street": null, "house_number": "<NA>", "postcode": null, "city": null, "phone_number": "+49308034138", "website": "http://www.einhausfuertiere.de", "email": "info@einhausfuertiere.de", "opening_hours": "<NA>", "operator": "<Na>", "brand": "<NA>", "speciality": "<NA>", "wheelchair_acces": null, "amenity": "veterinary", "latitude": 52.4192, "longitude": 13.1584, "full_address": "<NA>", "district_id": "<NA>", "neighbourhood_id": "<NA>", "source": "B", "emergency": null, "opening_hours_valid": null, "footprint": null }, "geometry": { "type": "Point", "coordinates": [ 13.1584, 52.4192 ] } },
{ "type": "Feature", "properties": { "clinic_id": "B_42", "clinic_name": "Sebastian Fritz", "street": "Am Rosengarten 48", "house_number": "<NA>", "postcode": "15566", "city": "Schöneiche", "phone_number": "+49306322047401752079561", "website": "http://tierarztpraxis-fritz.de", "email": "kontakt@tierarztpraxis-fritz.de", "opening_hours": "<NA>", "operator": "<Na>", "brand": "<NA>", "speciality": "<NA>", "wheelchair_acces": null, "amenity": "veterinary", "latitude": 52.4615405, "longitude": 13.7256645, "full_address": "Am Rosengarten 48, <NA>, 15566, Schöneiche", "district_id": "<NA>", "neighbourhood_id": "<NA>", "source": "B", "emergency": null, "opening_hours_valid": null, "footprint": null }, "geometry": { "type": "Point", "coordinates": [ 13.7256645, 52.4615405 ] } },
{ "type": "Feature", "properties": { "clinic_id": "B_43", "clinic_name": "Lisanne Tesch", "street": "Tobias-Seiler-Str. 30", "house_number": "<NA>", "postcode": "16321", "city": "Bernau", "phone_number": "+491606880778", "website": null, "email": null, "opening_hours": "<NA>", "operator": "<Na>", "brand": "<NA>", "speciality": "<NA>", "wheelchair_acces": null, "amenity": "veterinary", "latitude": 52.6846, "longitude": 13.5881, "full_address": "Tobias-Seiler-Str. 30, <NA>, 16321, Bernau", "district_id": "<NA>", "neighbourhood_id": "<NA>", "source": "B", "emergency": null, "opening_hours_valid": null, "footprint": null }, "geometry": { "type": "Point", "coordinates": [ 13.5881, 52.6846 ] } },
{ "type": "Feature", "properties": { "clinic_id": "B_44", "clinic_name": "Dr. Tajo M. Waack", "street": "Bahnhofstr. 148", "house_number": "<NA>", "postcode": "14624", "city": "Dallgow", "phone_number": "+493322215091", "website": null, "email": "tajo@mac.com", "opening_hours": "<NA>", "operator": "<Na>", "brand": "<NA>", "speciality": "<NA>", "wheelchair_acces": null, "amenity": "veterinary", "latitude": 52.5424, "longitude": 13.0594, "full_address": "Bahnhofstr. 148, <NA>, 14624, Dallgow", "district_id": "<NA>", "neighbourhood_id": "<NA>", "source": "B", "emergency": null, "opening_hours_valid": null, "footprint": null }, "geometry": { "type": "Point", "coordinates": [ 13.0594, 52.5424 ] } },
{ "type": "Feature", "properties": { "clinic_id": "B_45", "clinic_name": "Madeleine Wrasse", "street": "Ahornstraße 27", "house_number": "<NA>", "postcode": "15834", "city": "Rangsdorf", "phone_number": "+49337087316401716949975", "website": "http://https://www.tierarztpraxis-m-wrasse-rangsdorf.de", "email": "Mwrasse@t-online.de", "opening_hours": "<NA>", "operator": "<Na>", "brand": "<NA>", "speciality": "<NA>", "wheelchair_acces": null, "amenity": "veterinary", "latitude": 52.2987, "longitude": 13.4248, "full_address": "Ahornstraße 27, <NA>, 15834, Rangsdorf", "district_id": "<NA>", "neighbourhood_id": "<NA>", "source": "B", "emergency": null, "opening_hours_valid": null, "footprint": null }, "geometry": { "type": "Point", "coordinates": [ 13.4248, 52.2987 ] } },
{ "type": "Feature", "properties": { "clinic_id": "B_46", "clinic_name": "Dr. Elisabeth Zimpfer GVP-zertifiziert", "street": "Tuchmacherstr. 47", "house_number": "<NA>", "postcode": "14482", "city": "Potsdam", "phone_number": "+4933124346333", "website": "http://www.meine-tierarztpraxis.com", "email": "kontakt@meine-tierarztpraxis.com", "opening_hours": "<NA>", "operator": "<Na>", "brand": "<NA>", "speciality": "<NA>", "wheelchair_acces": null, "amenity": "veterinary", "latitude": 52.3957184, "longitude": 13.0910274, "full_address": "Tuchmacherstr. 47, <NA>, 14482, Potsdam", "district_id": "<NA>", "neighbourhood_id": "<NA>", "source": "B", "emergency": null, "opening_hours_valid": null, "footprint": null }, "geometry": { "type": "Point", "coordinates": [ 13.0910274, 52.3957184 ] } },
{ "type": "Feature", "properties": { "clinic_id": "B_47", "clinic_name": "Lars Kockerbeck", "street": "Prenzlauer Chaussee 111", "house_number": "<NA>", "postcode": "16348", "city": "Wandlitz", "phone_number": "+493339721965", "website": "http://www.tierarztpraxis-kockerbeck.de", "email": "info@tierarztpraxis-kockerbeck.de", "opening_hours": "<NA>", "operator": "<Na>", "brand": "<NA>", "speciality": "<NA>", "wheelchair_acces": null, "amenity": "veterinary", "latitude": 52.7456, "longitude": 13.4625, "full_address": "Prenzlauer Chaussee 111, <NA>, 16348, Wandlitz", "district_id": "<NA>", "neighbourhood_id": "<NA>", "source": "B", "emergency": null, "opening_hours_valid": null, "footprint": null }, "geometry": { "type": "Point", "coordinates": [ 13.4625, 52.7456 ] } },
{ "type": "Feature", "properties": { "clinic_id": "B_48", "clinic_name": "Dr. Alexandra Bruhnke", "street": "Feldweg 2", "house_number": "<NA>", "postcode": "14558", "city": "Nuthetal / OT Tremsdorf", "phone_number": "+493320538837801722088782", "website": "http://www.tierarzt-bruhnke.de", "email": "info@tierarzt-bruhnke.de", "opening_hours": "<NA>", "operator": "<Na>", "brand": "<NA>", "speciality": "<NA>", "wheelchair_acces": null, "amenity": "veterinary", "latitude": 52.3516, "longitude": 13.1043, "full_address": "Feldweg 2, <NA>, 14558, Nuthetal / OT Tremsdorf", "district_id": "<NA>", "neighbourhood_id": "<NA>", "source": "B", "emergency": null, "opening_hours_valid": null, "footprint": null }, "geometry": { "type": "Point", "coordinates": [ 13.1043, 52.3516 ] } },
{ "type": "Feature", "properties": { "clinic_id": "B_49", "clinic_name": "Dr. Christine Jahn", "street": "Berliner Str. 65", "house_number": "<NA>", "postcode": "16515", "city": "Oranienburg", "phone_number": "+493301582539", "website": "http://www.kleintierpraxisjahn.de", "email": "info@kleintierpraxisjahn.de", "opening_hours": "<NA>", "operator": "<Na>", "brand": "<NA>", "speciality": "<NA>", "wheelchair_acces": null, "amenity": "veterinary", "latitude": 52.7458, "longitude": 13.2371, "full_address": "Berliner Str. 65, <NA>, 16515, Oranienburg", "district_id": "<NA>", "neighbourhood_id": "<NA>", "source": "B", "emergency": null, "opening_hours_valid": null, "footprint": null }, "geometry": { "type": "Point", "coordinates": [ 13.2371, 52.7458 ] } },
{ "type": "Feature", "properties": { "clinic_id": "B_50", "clinic_name": "Dr. Sonja Spankowsky", "street": null, "house_number": "<NA>", "postcode": "15749", "city": "Mittenwalde", "phone_number": "+4933764400223", "website": "http://www.tierarztpraxis-mittenwalde.de", "email": "info@tierarztpraxis-mittenwalde.de", "opening_hours": "<NA>", "operator": "<Na>", "brand": "<NA>", "speciality": "<NA>", "wheelchair_acces": null, "amenity": "veterinary", "latitude": 52.2605, "longitude": 13.5409, "full_address": "<NA>, 15749, Mittenwalde", "district_id": "<NA>", "neighbourhood_id": "<NA>", "source": "B", "emergency": null, "opening_hours_valid": null, "footprint": null }, "geometry": { "type": "Point", "coordinates": [ 13.5409, 52.2605 ] } },
{ "type": "Feature", "properties": { "clinic_id": "B_51", "clinic_name": "Antje Sonntag", "street": "Weinberg 10", "house_number": "<NA>", "postcode": "14959", "city": "Trebbin", "phone_number": "+49337318036501709605407", "website": "http://www.tierarztpraxis-sonntag-trebbin.de", "email": "antjesonntag@hotmail.com", "opening_hours": "<NA>", "operator": "<Na>", "brand": "<NA>", "speciality": "<NA>", "wheelchair_acces": null, "amenity": "veterinary", "latitude": 52.2197, "longitude": 13.2209, "full_address": "Weinberg 10, <NA>, 14959, Trebbin", "district_id": "<NA>", "neighbourhood_id": "<NA>", "source": "B", "emergency": null, "opening_hours_valid": null, "footprint": null }, "geometry": { "type": "Point", "coordinates": [ 13.2209, 52.2197 ] } },
{ "type": "Feature", "properties": { "clinic_id": "B_52", "clinic_name": "Dr. Klaus Kördel", "street": "Parkstr. 12", "house_number": "<NA>", "postcode": "14641", "city": "Nauen", "phone_number": "+49332145097001726602077", "website": "http://www.tierarzt-koerdel.de", "email": "info@tierarzt-nauen.de", "opening_hours": "<NA>", "operator": "<Na>", "brand": "<NA>", "speciality": "<NA>", "wheelchair_acces": null, "amenity": "veterinary", "latitude": 52.6100669, "longitude": 12.8721581, "full_address": "Parkstr. 12, <NA>, 14641, Nauen", "district_id": "<NA>", "neighbourhood_id": "<NA>", "source": "B", "emergency": null, "opening_hours_valid": null, "footprint": null }, "geometry": { "type": "Point", "coordinates": [ 12.8721581, 52.6100669 ] } },
{ "type": "Feature", "properties": { "clinic_id": "B_53", "clinic_name": "Lars Bauerfeind", "street": "Havelstr. 21", "house_number": "<NA>", "postcode": "16559", "city": "Liebenwalde", "phone_number": "+4933054900121015114954555", "website": "http://www.tierarztpraxis-bauerfeind.de", "email": "info@tierarztpraxis-bauerfeind.de", "opening_hours": "<NA>", "operator": "<Na>", "brand": "<NA>", "speciality": "<NA>", "wheelchair_acces": null, "amenity": "veterinary", "latitude": 52.87002535, "longitude": 13.384955578188, "full_address": "Havelstr. 21, <NA>, 16559, Liebenwalde", "district_id": "<NA>", "neighbourhood_id": "<NA>", "source": "B", "emergency": null, "opening_hours_valid": null, "footprint": null }, "geometry": { "type": "Point", "coordinates": [ 13.384955578188, 52.87002535 ] } },
{ "type": "Feature", "properties": { "clinic_id": "B_54", "clinic_name": "Dr. Karola Kadau", "street": "Schwarzer Weg 30", "house_number": "<NA>", "postcode": "16766", "city": "Kremmen / OT Sommerfeld", "phone_number": "+49330557272401714103788", "website": null, "email": null, "opening_hours": "<NA>", "operator": "<Na>", "brand": "<NA>", "speciality": "<NA>", "wheelchair_acces": null, "amenity": "veterinary", "latitude": 52.81, "longitude": 13.0228, "full_address": "Schwarzer Weg 30, <NA>, 16766, Kremmen / OT Sommerfeld", "district_id": "<NA>", "neighbourhood_id": "<NA>", "source": "B", "emergency": null, "opening_hours_valid": null, "footprint": null }, "geometry": { "type": "Point", "coordinates": [ 13.0228, 52.81 ] } },
{ "type": "Feature", "properties": { "clinic_id": "B_55", "clinic_name": "Jeannine Kell-Oelzner", "street": "Schloßgutsiedlung 2", "house_number": "<NA>", "postcode": "16244", "city": "Schorfheide OT Finowfurt", "phone_number": "+493335325924", "website": "http://www.tierarztpraxis-finowfurt.de", "email": "j.kell-oelzner@t-online.de", "opening_hours": "<NA>", "operator": "<Na>", "brand": "<NA>", "speciality": "<NA>", "wheelchair_acces": null, "amenity": "veterinary", "latitude": 52.8438, "longitude": 13.6903, "full_address": "Schloßgutsiedlung 2, <NA>, 16244, Schorfheide OT Finowfurt", "district_id": "<NA>", "neighbourhood_id": "<NA>", "source": "B", "emergency": null, "opening_hours_valid": null, "footprint": null }, "geometry": { "type": "Point", "coordinates": [ 13.6903, 52.8438 ] } },
{ "type": "Feature", "properties": { "clinic_id": "B_56", "clinic_name": "Fabienne Gutschwager", "street": "Lindenstr. 21", "house_number": "<NA>", "postcode": "15746", "city": "Größ Köris", "phone_number": null, "website": "http://www.tierarztpraxis-gross-koeris.de", "email": "tierarzt@tierarztpraxis-gross-koeris.de", "opening_hours": "<NA>", "operator": "<Na>", "brand": "<NA>", "speciality": "<NA>", "wheelchair_acces": null, "amenity": "veterinary", "latitude": 52.1678, "longitude": 13.6585, "full_address": "Lindenstr. 21, <NA>, 15746, Größ Köris", "district_id": "<NA>", "neighbourhood_id": "<NA>", "source": "B", "emergency": null, "opening_hours_valid": null, "footprint": null }, "geometry": { "type": "Point", "coordinates": [ 13.6585, 52.1678 ] } },
{ "type": "Feature", "properties": { "clinic_id": "B_57", "clinic_name": "DVM Holger Einhorn", "street": "Altstädter Platz 4", "house_number": "<NA>", "postcode": "15517", "city": "Fürstenwalde", "phone_number": "+4933612523", "website": "http://www.tierarztpraxis-einhorn.de", "email": "info@tierarztpraxis-einhorn.de", "opening_hours": "<NA>", "operator": "<Na>", "brand": "<NA>", "speciality": "<NA>", "wheelchair_acces": null, "amenity": "veterinary", "latitude": 52.3597, "longitude": 14.0572, "full_address": "Altstädter Platz 4, <NA>, 15517, Fürstenwalde", "district_id": "<NA>", "neighbourhood_id": "<NA>", "source": "B", "emergency": null, "opening_hours_valid": null, "footprint": null }, "geometry": { "type": "Point", "coordinates": [ 14.0572, 52.3597 ] } },
{ "type": "Feature", "properties": { "clinic_id": "B_58", "clinic_name": "DVM Heiko Strauß", "street": "Ahornweg 4", "house_number": "<NA>", "postcode": "14797", "city": "Kloster Lehnin", "phone_number": "+49338270051701722702616", "website": null, "email": null, "opening_hours": "<NA>", "operator": "<Na>", "brand": "<NA>", "speciality": "<NA>", "wheelchair_acces": null, "amenity": "veterinary", "latitude": 52.3118, "longitude": 12.7299, "full_address": "Ahornweg 4, <NA>, 14797, Kloster Lehnin", "district_id": "<NA>", "neighbourhood_id": "<NA>", "source": "B", "emergency": null, "opening_hours_valid": null, "footprint": null }, "geometry": { "type": "Point", "coordinates": [ 12.7299, 52.3118 ] } },
{ "type": "Feature", "properties": { "clinic_id": "B_59", "clinic_name": "Dr. Corinna Vogel", "street": "Heideweg 14", "house_number": "<NA>", "postcode": "15837", "city": "Baruth / Mark", "phone_number": "+493370466449", "website": null, "email": null, "opening_hours": "<NA>", "operator": "<Na>", "brand": "<NA>", "speciality": "<NA>", "wheelchair_acces": null, "amenity": "veterinary", "latitude": 52.0391, "longitude": 13.514, "full_address": "Heideweg 14, <NA>, 15837, Baruth / Mark", "district_id": "<NA>", "neighbourhood_id": "<NA>", "source": "B", "emergency": null, "opening_hours_valid": null, "footprint": null }, "geometry": { "type": "Point", "coordinates": [ 13.514, 52.0391 ] } },
{ "type": "Feature", "properties": { "clinic_id": "B_60", "clinic_name": "Ulf-Michael Stumpe", "street": "Freienwalder Str. 48", "house_number": "<NA>", "postcode": "16269", "city": "Wriezen", "phone_number": "+4933456151082", "website": "http://www.tap-stumpe.de", "email": "tap.stumpe@gmail.com", "opening_hours": "<NA>", "operator": "<Na>", "brand": "<NA>", "speciality": "<NA>", "wheelchair_acces": null, "amenity": "veterinary", "latitude": 52.7221324, "longitude": 14.1339542, "full_address": "Freienwalder Str. 48, <NA>, 16269, Wriezen", "district_id": "<NA>", "neighbourhood_id": "<NA>", "source": "B", "emergency": null, "opening_hours_valid": null, "footprint": null }, "geometry": { "type": "Point", "coordinates": [ 14.1339542, 52.7221324 ] } },
{ "type": "Feature", "properties": { "clinic_id": "B_61", "clinic_name": "Björn-Sirke Schwarz", "street": "Deutsches Dorf 47", "house_number": "<NA>", "postcode": "14776", "city": "Brandenburg", "phone_number": "+493381410601601727541890", "website": "http://www.tierarztpraxis-dr-schwarz.de", "email": "b.s.schwarz@t-online.de", "opening_hours": "<NA>", "operator": "<Na>", "brand": "<NA>", "speciality": "<NA>", "wheelchair_acces": null, "amenity": "veterinary", "latitude": 52.4086, "longitude": 12.5655, "full_address": "Deutsches Dorf 47, <NA>, 14776, Brandenburg", "district_id": "<NA>", "neighbourhood_id": "<NA>", "source": "B", "emergency": null, "opening_hours_valid": null, "footprint": null }, "geometry": { "type": "Point", "coordinates": [ 12.5655, 52.4086 ] } },
{ "type": "Feature", "properties": { "clinic_id": "B_62", "clinic_name": "Florian Tillack", "street": "Lamitsch 38", "house_number": "<NA>", "postcode": "15848", "city": "Rietz Neuendorf", "phone_number": "+491736013338", "website": "http://www.tierarzt-tillack.de", "email": "info@tierarzt-tillack.de", "opening_hours": "<NA>", "operator": "<Na>", "brand": "<NA>", "speciality": "<NA>", "wheelchair_acces": null, "amenity": "veterinary", "latitude": 52.2601645, "longitude": 14.162551300053, "full_address": "Lamitsch 38, <NA>, 15848, Rietz Neuendorf", "district_id": "<NA>", "neighbourhood_id": "<NA>", "source": "B", "emergency": null, "opening_hours_valid": null, "footprint": null }, "geometry": { "type": "Point", "coordinates": [ 14.162551300053, 52.2601645 ] } },
{ "type": "Feature", "properties": { "clinic_id": "B_63", "clinic_name": "Dr. Lutz Borchardt", "street": "Schinkelstr. 47", "house_number": "<NA>", "postcode": "16827", "city": "Alt Ruppin", "phone_number": "+493391771050", "website": null, "email": null, "opening_hours": "<NA>", "operator": "<Na>", "brand": "<NA>", "speciality": "<NA>", "wheelchair_acces": null, "amenity": "veterinary", "latitude": 52.944, "longitude": 12.8541, "full_address": "Schinkelstr. 47, <NA>, 16827, Alt Ruppin", "district_id": "<NA>", "neighbourhood_id": "<NA>", "source": "B", "emergency": null, "opening_hours_valid": null, "footprint": null }, "geometry": { "type": "Point", "coordinates": [ 12.8541, 52.944 ] } },
{ "type": "Feature", "properties": { "clinic_id": "B_64", "clinic_name": "Dr. Hagen Mallow", "street": "Wubrigsberg 44", "house_number": "<NA>", "postcode": "15320", "city": "Altbarnim", "phone_number": "+4933474222", "website": null, "email": "HagenMallow@t-online.de", "opening_hours": "<NA>", "operator": "<Na>", "brand": "<NA>", "speciality": "<NA>", "wheelchair_acces": null, "amenity": "veterinary", "latitude": 52.6843, "longitude": 14.2621, "full_address": "Wubrigsberg 44, <NA>, 15320, Altbarnim", "district_id": "<NA>", "neighbourhood_id": "<NA>", "source": "B", "emergency": null, "opening_hours_valid": null, "footprint": null }, "geometry": { "type": "Point", "coordinates": [ 14.2621, 52.6843 ] } },
{ "type": "Feature", "properties": { "clinic_id": "B_65", "clinic_name": "Katja Thomas", "street": "Quenzweg 32a", "house_number": "<NA>", "postcode": "14772", "city": "Brandenburg", "phone_number": "+4933817143260338171818801607969027", "website": "http://www.tierarztpraxis-thomas.de", "email": "info@tierarztpraxis-thomas.de", "opening_hours": "<NA>", "operator": "<Na>", "brand": "<NA>", "speciality": "<NA>", "wheelchair_acces": null, "amenity": "veterinary", "latitude": 52.4253, "longitude": 12.4963, "full_address": "Quenzweg 32a, <NA>, 14772, Brandenburg", "district_id": "<NA>", "neighbourhood_id": "<NA>", "source": "B", "emergency": null, "opening_hours_valid": null, "footprint": null }, "geometry": { "type": "Point", "coordinates": [ 12.4963, 52.4253 ] } },
{ "type": "Feature", "properties": { "clinic_id": "B_66", "clinic_name": "Dr. Frank Spremberg", "street": "Müncheberger Weg 4", "house_number": "<NA>", "postcode": "15306", "city": "Seelow", "phone_number": "+493346846600", "website": "http://www.tierarztpraxis-seelow.de", "email": "tierarztpraxis-seelow@t-online.de", "opening_hours": "<NA>", "operator": "<Na>", "brand": "<NA>", "speciality": "<NA>", "wheelchair_acces": null, "amenity": "veterinary", "latitude": 52.5364, "longitude": 14.3739, "full_address": "Müncheberger Weg 4, <NA>, 15306, Seelow", "district_id": "<NA>", "neighbourhood_id": "<NA>", "source": "B", "emergency": null, "opening_hours_valid": null, "footprint": null }, "geometry": { "type": "Point", "coordinates": [ 14.3739, 52.5364 ] } },
{ "type": "Feature", "properties": { "clinic_id": "B_67", "clinic_name": "Anja Kaul", "street": "Küstriner Str. 2", "house_number": "<NA>", "postcode": "15324", "city": "Letschin", "phone_number": "+493347545301733655437", "website": null, "email": "anjakaul@web.de", "opening_hours": "<NA>", "operator": "<Na>", "brand": "<NA>", "speciality": "<NA>", "wheelchair_acces": null, "amenity": "veterinary", "latitude": 52.6423, "longitude": 14.3615, "full_address": "Küstriner Str. 2, <NA>, 15324, Letschin", "district_id": "<NA>", "neighbourhood_id": "<NA>", "source": "B", "emergency": null, "opening_hours_valid": null, "footprint": null }, "geometry": { "type": "Point", "coordinates": [ 14.3615, 52.6423 ] } },
{ "type": "Feature", "properties": { "clinic_id": "B_68", "clinic_name": "Ursula Driemel", "street": "Puschkinstr. 42", "house_number": "<NA>", "postcode": "14806", "city": "Belzig", "phone_number": "+4933841441018", "website": null, "email": "tap.driemel@web.de", "opening_hours": "<NA>", "operator": "<Na>", "brand": "<NA>", "speciality": "<NA>", "wheelchair_acces": null, "amenity": "veterinary", "latitude": 52.1451, "longitude": 12.5828, "full_address": "Puschkinstr. 42, <NA>, 14806, Belzig", "district_id": "<NA>", "neighbourhood_id": "<NA>", "source": "B", "emergency": null, "opening_hours_valid": null, "footprint": null }, "geometry": { "type": "Point", "coordinates": [ 12.5828, 52.1451 ] } },
{ "type": "Feature", "properties": { "clinic_id": "B_69", "clinic_name": "Dr. Sylvia Garbe", "street": "Am Friedenspark 1", "house_number": "<NA>", "postcode": "16278", "city": "Angermünde", "phone_number": "+493331299876", "website": "http://www.tierarztpraxis-garbe-paal.de", "email": "garbesylvia@aol.com", "opening_hours": "<NA>", "operator": "<Na>", "brand": "<NA>", "speciality": "<NA>", "wheelchair_acces": null, "amenity": "veterinary", "latitude": 53.0148, "longitude": 14.0021, "full_address": "Am Friedenspark 1, <NA>, 16278, Angermünde", "district_id": "<NA>", "neighbourhood_id": "<NA>", "source": "B", "emergency": null, "opening_hours_valid": null, "footprint": null }, "geometry": { "type": "Point", "coordinates": [ 14.0021, 53.0148 ] } },
{ "type": "Feature", "properties": { "clinic_id": "B_70", "clinic_name": "Dr. Christian Thiel", "street": "Niemegker Str. 12", "house_number": "<NA>", "postcode": "68890", "city": "Lutherstadt Wittenberg", "phone_number": "+493492020932", "website": null, "email": null, "opening_hours": "<NA>", "operator": "<Na>", "brand": "<NA>", "speciality": "<NA>", "wheelchair_acces": null, "amenity": "veterinary", "latitude": 51.99138695, "longitude": 12.68289555, "full_address": "Niemegker Str. 12, <NA>, 68890, Lutherstadt Wittenberg", "district_id": "<NA>", "neighbourhood_id": "<NA>", "source": "B", "emergency": null, "opening_hours_valid": null, "footprint": null }, "geometry": { "type": "Point", "coordinates": [ 12.68289555, 51.99138695 ] } },
{ "type": "Feature", "properties": { "clinic_id": "B_71", "clinic_name": "DVM Wolfgang Schmidtke", "street": "Prietzener Dorfstr. 6", "house_number": "<NA>", "postcode": "14715", "city": "Havelaue OT Wolsier", "phone_number": "+49338759065801736418547", "website": "http://www.tierarzt-schmidtke.de", "email": "taschmidtke@t-online.de", "opening_hours": "<NA>", "operator": "<Na>", "brand": "<NA>", "speciality": "<NA>", "wheelchair_acces": null, "amenity": "veterinary", "latitude": 52.7327, "longitude": 12.2828, "full_address": "Prietzener Dorfstr. 6, <NA>, 14715, Havelaue OT Wolsier", "district_id": "<NA>", "neighbourhood_id": "<NA>", "source": "B", "emergency": null, "opening_hours_valid": null, "footprint": null }, "geometry": { "type": "Point", "coordinates": [ 12.2828, 52.7327 ] } },
{ "type": "Feature", "properties": { "clinic_id": "B_72", "clinic_name": "Olaf Beetz", "street": "Weinberge 39a", "house_number": "<NA>", "postcode": "69170", "city": "Jessen (Elster)", "phone_number": "+493537202325", "website": "http://www.vetkomb.de", "email": "Beetz@vetkomb.de", "opening_hours": "<NA>", "operator": "<Na>", "brand": "<NA>", "speciality": "<NA>", "wheelchair_acces": null, "amenity": "veterinary", "latitude": 51.7963, "longitude": 12.9951, "full_address": "Weinberge 39a, <NA>, 69170, Jessen (Elster)", "district_id": "<NA>", "neighbourhood_id": "<NA>", "source": "B", "emergency": null, "opening_hours_valid": null, "footprint": null }, "geometry": { "type": "Point", "coordinates": [ 12.9951, 51.7963 ] } },
{ "type": "Feature", "properties": { "clinic_id": "B_73", "clinic_name": "DVM Stefan Boden", "street": "An der Alten Elbe 1", "house_number": "<NA>", "postcode": "39319", "city": "Jerichow", "phone_number": "+4939343233", "website": null, "email": "MSBODEN@t-online.de", "opening_hours": "<NA>", "operator": "<Na>", "brand": "<NA>", "speciality": "<NA>", "wheelchair_acces": null, "amenity": "veterinary", "latitude": 52.492, "longitude": 12.0295, "full_address": "An der Alten Elbe 1, <NA>, 39319, Jerichow", "district_id": "<NA>", "neighbourhood_id": "<NA>", "source": "B", "emergency": null, "opening_hours_valid": null, "footprint": null }, "geometry": { "type": "Point", "coordinates": [ 12.0295, 52.492 ] } },
{ "type": "Feature", "properties": { "clinic_id": "B_74", "clinic_name": "DVM Erika Schröter", "street": "Ragösener Str. 3", "house_number": "<NA>", "postcode": "14806", "city": "Belzig OT Ragösen", "phone_number": "+493384640312", "website": null, "email": null, "opening_hours": "<NA>", "operator": "<Na>", "brand": "<NA>", "speciality": "<NA>", "wheelchair_acces": null, "amenity": "veterinary", "latitude": 51.98, "longitude": 12.2952, "full_address": "Ragösener Str. 3, <NA>, 14806, Belzig OT Ragösen", "district_id": "<NA>", "neighbourhood_id": "<NA>", "source": "B", "emergency": null, "opening_hours_valid": null, "footprint": null }, "geometry": { "type": "Point", "coordinates": [ 12.2952, 51.98 ] } },
{ "type": "Feature", "properties": { "clinic_id": "B_75", "clinic_name": "DVM Christine Bartels", "street": "Wilsnacker Str. 57", "house_number": "<NA>", "postcode": "39539", "city": "Havelberg", "phone_number": "+49393878057001715028790", "website": null, "email": "tierarzt.havelberg@t-online.de", "opening_hours": "<NA>", "operator": "<Na>", "brand": "<NA>", "speciality": "<NA>", "wheelchair_acces": null, "amenity": "veterinary", "latitude": 52.8343, "longitude": 12.0711, "full_address": "Wilsnacker Str. 57, <NA>, 39539, Havelberg", "district_id": "<NA>", "neighbourhood_id": "<NA>", "source": "B", "emergency": null, "opening_hours_valid": null, "footprint": null }, "geometry": { "type": "Point", "coordinates": [ 12.0711, 52.8343 ] } },
{ "type": "Feature", "properties": { "clinic_id": "B_76", "clinic_name": "DVM Kristin Heilmann", "street": "Stendaler Str. 85", "house_number": "<NA>", "postcode": "39596", "city": "Arneburg", "phone_number": "+4939321533210", "website": "http://www.tierarztpraxis-kristin-heilmann.de", "email": null, "opening_hours": "<NA>", "operator": "<Na>", "brand": "<NA>", "speciality": "<NA>", "wheelchair_acces": null, "amenity": "veterinary", "latitude": 52.6745905, "longitude": 11.996177723475, "full_address": "Stendaler Str. 85, <NA>, 39596, Arneburg", "district_id": "<NA>", "neighbourhood_id": "<NA>", "source": "B", "emergency": null, "opening_hours_valid": null, "footprint": null }, "geometry": { "type": "Point", "coordinates": [ 11.996177723475, 52.6745905 ] } },
{ "type": "Feature", "properties": { "clinic_id": "B_77", "clinic_name": "Doreen Judis", "street": "Wiesenweg 12", "house_number": "<NA>", "postcode": "31850", "city": "Turnow-Preilack", "phone_number": "+4935601802915", "website": "http://www.tierarztpraxis-turnow.de", "email": "kontakt@tierarztpraxis-turnow.de", "opening_hours": "<NA>", "operator": "<Na>", "brand": "<NA>", "speciality": "<NA>", "wheelchair_acces": null, "amenity": "veterinary", "latitude": 51.8744, "longitude": 14.3996, "full_address": "Wiesenweg 12, <NA>, 31850, Turnow-Preilack", "district_id": "<NA>", "neighbourhood_id": "<NA>", "source": "B", "emergency": null, "opening_hours_valid": null, "footprint": null }, "geometry": { "type": "Point", "coordinates": [ 14.3996, 51.8744 ] } },
{ "type": "Feature", "properties": { "clinic_id": "B_78", "clinic_name": "DVM Michael Frey", "street": "Bahnhofsweg 5", "house_number": "<NA>", "postcode": "17291", "city": "Fürstenwerder", "phone_number": "+493985924901718537677", "website": null, "email": "frey_fw@t-online.de", "opening_hours": "<NA>", "operator": "<Na>", "brand": "<NA>", "speciality": "<NA>", "wheelchair_acces": null, "amenity": "veterinary", "latitude": 53.3915, "longitude": 13.5911, "full_address": "Bahnhofsweg 5, <NA>, 17291, Fürstenwerder", "district_id": "<NA>", "neighbourhood_id": "<NA>", "source": "B", "emergency": null, "opening_hours_valid": null, "footprint": null }, "geometry": { "type": "Point", "coordinates": [ 13.5911, 53.3915 ] } },
{ "type": "Feature", "properties": { "clinic_id": "B_79", "clinic_name": "Dr. Melanie Ganser", "street": "Friedrich-Blersch-Strasse 4", "house_number": "<NA>", "postcode": "88662", "city": "Ü", "phone_number": "+4975518329660", "website": "http://www.tierarztpraxis-ueberlingen.de", "email": null, "opening_hours": "<NA>", "operator": "<Na>", "brand": "<NA>", "speciality": "<NA>", "wheelchair_acces": null, "amenity": "veterinary", "latitude": 47.776231849304999, "longitude": 9.2073953350517002, "full_address": "Friedrich-Blersch-Strasse 4, <NA>, 88662, Ü", "district_id": "<NA>", "neighbourhood_id": "<NA>", "source": "B", "emergency": null, "opening_hours_valid": null, "footprint": null }, "geometry": { "type": "Point", "coordinates": [ 9.2073953350517, 47.776231849304999 ] } },
{ "type": "Feature", "properties": { "clinic_id": "B_80", "clinic_name": "Anne-Lore Seyfried", "street": "Am Bacheck 7", "house_number": "<NA>", "postcode": "88662", "city": "Ü", "phone_number": "+497551970911", "website": "http://www.praxis-seyfried.de", "email": "termine@praxis-seyfried.de", "opening_hours": "<NA>", "operator": "<Na>", "brand": "<NA>", "speciality": "<NA>", "wheelchair_acces": null, "amenity": "veterinary", "latitude": 47.7679, "longitude": 9.21641, "full_address": "Am Bacheck 7, <NA>, 88662, Ü", "district_id": "<NA>", "neighbourhood_id": "<NA>", "source": "B", "emergency": null, "opening_hours_valid": null, "footprint": null }, "geometry": { "type": "Point", "coordinates": [ 9.21641, 47.7679 ] } },
{ "type": "Feature", "properties": { "clinic_id": "B_81", "clinic_name": "Katrin Breskewitz", "street": null, "house_number": "<NA>", "postcode": null, "city": null, "phone_number": "+493092213380", "website": "http://www.animal-docs.de", "email": "info@animal-docs.de", "opening_hours": "<NA>", "operator": "<Na>", "brand": "<NA>", "speciality": "<NA>", "wheelchair_acces": null, "amenity": "veterinary", "latitude": null, "longitude": null, "full_address": "<NA>", "district_id": "<NA>", "neighbourhood_id": "<NA>", "source": "B", "emergency": null, "opening_hours_valid": null, "footprint": null }, "geometry": null },
{ "type": "Feature", "properties": { "clinic_id": "B_82", "clinic_name": "Rebecca Rust-Herwig", "street": null, "house_number": "<NA>", "postcode": null, "city": null, "phone_number": "+491777894294", "website": "http://www.tierarztpraxis-eichberg.de", "email": "info@tierarztpraxis-eichberg.de", "opening_hours": "<NA>", "operator": "<Na>", "brand": "<NA>", "speciality": "<NA>", "wheelchair_acces": null, "amenity": "veterinary", "latitude": null, "longitude": null, "full_address": "<NA>", "district_id": "<NA>", "neighbourhood_id": "<NA>", "source": "B", "emergency": null, "opening_hours_valid": null, "footprint": null }, "geometry": null },
{ "type": "Feature", "properties": { "clinic_id": "B_83", "clinic_name": "Claudia Wahle", "street": null, "house_number": "<NA>", "postcode": null, "city": null, "phone_number": "+49308593215", "website": "http://www.tierarztpraxis-chung-wahle.com", "email": "info@tierarztpraxis-chung-wahle.com", "opening_hours": "<NA>", "operator": "<Na>", "brand": "<NA>", "speciality": "<NA>", "wheelchair_acces": null, "amenity": "veterinary", "latitude": null, "longitude": null, "full_address": "<NA>", "district_id": "<NA>", "neighbourhood_id": "<NA>", "source": "B", "emergency": null, "opening_hours_valid": null, "footprint": null }, "geometry": null }
]
}
