{"version": 0.6, "generator": "Overpass API 0.7.62.7 375dc00a", "osm3s": {"timestamp_osm_base": "2025-08-13T10:58:01Z", "copyright": "The data included in this document is from www.openstreetmap.org. The data is made available under ODbL."}, "elements": [{"type": "node", "id": 28968292, "lat": 52.4866675, "lon": 13.319723, "tags": {"addr:city": "Berlin", "addr:country": "DE", "addr:housenumber": "42", "addr:postcode": "10713", "addr:street": "Berliner Stra\u00dfe", "addr:suburb": "Wilmersdorf", "amenity": "bank", "atm": "yes", "branch": "eG", "brand": "Berliner Volksbank", "brand:wikidata": "Q821855", "brand:wikipedia": "de:Berliner Volksbank", "check_date:opening_hours": "2025-05-22", "name": "Berliner Volksbank", "opening_hours": "Mo-Fr 10:00-13:00, Mo 14:00-16:00, Tu,Th 14:00-18:00", "wheelchair": "yes"}}, {"type": "node", "id": 60848455, "lat": 52.5303309, "lon": 13.4710375, "tags": {"addr:city": "Berlin", "addr:housenumber": "13", "addr:postcode": "10369", "addr:street": "Anton-Saefkow-Platz", "amenity": "bank", "atm": "yes", "check_date:opening_hours": "2025-03-04", "name": "Sparkasse", "opening_hours": "Mo,We,Fr 09:30-15:00; Tu,Th 09:30-18:00", "operator": "Berliner Sparkasse", "ref": "PKC 175", "wheelchair": "limited"}}, {"type": "node", "id": 87040399, "lat": 52.51105, "lon": 13.3887982, "tags": {"amenity": "bank", "name": "DKB", "surveillance": "indoor", "wheelchair": "limited", "wikidata": "Q1203255"}}, {"type": "node", "id": 89274635, "lat": 52.5232377, "lon": 13.4157495, "tags": {"addr:city": "Berlin", "addr:housenumber": "5", "addr:postcode": "10178", "addr:street": "Alexanderstra\u00dfe", "amenity": "bank", "atm": "yes", "atm:network": "Cash Group", "brand": "Deutsche Bank", "brand:wikidata": "Q66048", "brand:wikipedia": "en:Deutsche Bank", "check_date": "2024-06-11", "check_date:opening_hours": "2022-09-13", "contact:phone": "+49 30 34070", "level": "0", "name": "Deutsche Bank", "name:ja": "\u30c9\u30a4\u30c4\u9280\u884c", "opening_hours": "Mo-Tu 10:00-18:00; We 10:00-16:00; Th 10:00-18:00; Fr 10:00-14:00; Sa,Su,PH off", "operator": "Deutsche Bank", "wheelchair": "yes"}}, {"type": "node", "id": 203561614, "lat": 52.5276869, "lon": 13.5383271, "tags": {"addr:city": "Berlin", "addr:housenumber": "1/2", "addr:postcode": "12681", "addr:street": "Helene-Weigel-Platz", "amenity": "bank", "atm": "yes", "check_date:opening_hours": "2024-03-21", "name": "Sparkasse", "opening_hours": "Mo,We,Fr 09:30-15:00; Tu,Th 09:30-18:00", "operator": "Berliner Sparkasse", "ref": "PKC 214", "wheelchair": "yes", "wheelchair:description": "Zugang ohne Stufen"}}, {"type": "node", "id": 213106681, "lat": 52.5362734, "lon": 13.4336585, "tags": {"addr:city": "Berlin", "addr:country": "DE", "addr:housenumber": "119", "addr:postcode": "10407", "addr:street": "Danziger Stra\u00dfe", "addr:suburb": "Prenzlauer Berg", "amenity": "bank", "atm": "yes", "check_date:opening_hours": "2024-12-28", "name": "Sparkasse", "opening_hours": "Mo,We,Fr 09:30-15:00; Tu,Th 09:30-18:00", "operator": "Berliner Sparkasse", "ref": "PKC 414", "surveillance": "indoor", "wheelchair": "yes"}}, {"type": "node", "id": 213108224, "lat": 52.5208149, "lon": 13.4136431, "tags": {"addr:city": "Berlin", "addr:housenumber": "2", "addr:place": "Alexanderplatz", "addr:postcode": "10178", "amenity": "bank", "atm": "yes", "check_date:opening_hours": "2023-10-01", "level": "0", "name": "Sparkasse", "name:ja": "\u8caf\u84c4\u9280\u884c", "opening_hours": "Mo-Fr 09:30-18:00", "operator": "Berliner Sparkasse", "operator:wikidata": "Q821760", "ref": "PKC 001", "surveillance": "indoor", "wheelchair": "yes"}}, {"type": "node", "id": 213112439, "lat": 52.5235168, "lon": 13.4018803, "tags": {"addr:city": "Berlin", "addr:country": "DE", "addr:housenumber": "4", "addr:postcode": "10178", "addr:street": "Hackescher Markt", "addr:suburb": "Mitte", "amenity": "bank", "atm": "yes", "check_date:opening_hours": "2024-10-19", "email": "info@berliner-sparkasse.de", "fax": "+49 30 869732014", "name": "Sparkasse", "opening_hours": "24/7", "opening_hours:signed": "no", "operator": "Berliner Sparkasse", "phone": "+49 30 86986969", "ref": "PKC 006", "surveillance": "indoor", "toilets:wheelchair": "no", "website": "https://berliner-sparkasse.de", "wheelchair": "yes"}}, {"type": "node", "id": 239659091, "lat": 52.4817888, "lon": 13.5250469, "tags": {"addr:city": "Berlin", "addr:housenumber": "112", "addr:postcode": "10318", "addr:street": "Treskowallee", "amenity": "bank", "atm": "yes", "check_date:opening_hours": "2024-08-10", "description": "Sparkasse PrivatkundenCenter", "name": "Sparkasse", "opening_hours": "Mo,We,Fr 09:30-15:00; Tu,Th 09:30-18:00", "operator": "Berliner Sparkasse", "ref": "PKC 177", "wheelchair": "yes"}}, {"type": "node", "id": 239661671, "lat": 52.4610112, "lon": 13.5209589, "tags": {"addr:city": "Berlin", "addr:country": "DE", "addr:housenumber": "41", "addr:postcode": "12459", "addr:street": "Wilhelminenhofstra\u00dfe", "addr:suburb": "Obersch\u00f6neweide", "amenity": "bank", "atm": "yes", "check_date:opening_hours": "2025-04-13", "name": "Sparkasse", "opening_hours": "Mo-Fr 06:00-23:00; Sa,Su 08:00-23:00", "operator": "Berliner Sparkasse", "ref": "PKC 163", "wheelchair": "yes"}}, {"type": "node", "id": 249221047, "lat": 52.5637254, "lon": 13.3289891, "tags": {"addr:city": "Berlin", "addr:country": "DE", "addr:housenumber": "14", "addr:postcode": "13405", "addr:street": "Scharnweberstra\u00dfe", "addr:suburb": "Reinickendorf", "amenity": "bank", "atm": "yes", "check_date:opening_hours": "2023-08-14", "name": "Sparkasse", "opening_hours": "Mo,We,Fr 09:30-15:00; Tu,Th 09:30-18:00", "operator": "Berliner Sparkasse", "ref": "PKC 202", "wheelchair": "limited", "wheelchair:description": "Recht neben dem Eingang gibt es eine Einfahrt und dann direkt wieder link ist eine Rollstuhlrampe"}}, {"type": "node", "id": 253625297, "lat": 52.5072911, "lon": 13.4677685, "tags": {"addr:city": "Berlin", "addr:floor": "0", "addr:housenumber": "55", "addr:postcode": "10245", "addr:street": "Boxhagener Stra\u00dfe", "amenity": "bank", "atm": "yes", "check_date": "2025-07-25", "check_date:opening_hours": "2025-07-25", "currency:EUR": "yes", "drive_through": "no", "level": "0", "name": "Sparkasse", "opening_hours": "Mo,We,Fr 09:30-15:00; Tu,Th 09:30-18:00", "operator": "Berliner Sparkasse", "ref": "PKC 054", "source": "survey", "wheelchair": "yes"}}, {"type": "node", "id": 255336764, "lat": 52.4699818, "lon": 13.4632351, "tags": {"amenity": "bank", "check_date": "2021-01-16", "name": "Berliner Sparkasse", "phone": "+49-30-86986969"}}, {"type": "node", "id": 257704250, "lat": 52.5479034, "lon": 13.2015723, "tags": {"addr:city": "Berlin", "addr:country": "DE", "addr:housenumber": "28", "addr:postcode": "13585", "addr:street": "Sch\u00f6nwalder Stra\u00dfe", "addr:suburb": "Spandau", "amenity": "bank", "atm": "yes", "bic": "BELADEBEXXX", "contact:website": "https://www.berliner-sparkasse.de", "name": "Sparkasse", "opening_hours": "Mo,We,Fr 09:30-15:00; Tu,Th 09:30-18:00", "operator": "Berliner Sparkasse", "ref": "PKC 088", "wheelchair": "yes"}}, {"type": "node", "id": 259863450, "lat": 52.4127212, "lon": 13.5714066, "tags": {"addr:city": "Berlin", "addr:housenumber": "1", "addr:postcode": "12524", "addr:street": "Bruno-Taut-Stra\u00dfe", "amenity": "bank", "atm": "yes", "name": "Sparkasse", "opening_hours": "Mo-Th 09:00-18:00; Fr 09:30-16:00", "operator": "Berliner Sparkasse", "ref": "PKC 162", "wheelchair": "yes"}}, {"type": "node", "id": 266614884, "lat": 52.5114264, "lon": 13.5862843, "tags": {"amenity": "bank", "atm": "yes", "brand": "Berliner Volksbank", "brand:wikidata": "Q821855", "brand:wikipedia": "de:Berliner Volksbank", "name": "Berliner Volksbank", "wheelchair": "yes"}}, {"type": "node", "id": 266629927, "lat": 52.508749, "lon": 13.6135549, "tags": {"addr:city": "Berlin", "addr:country": "DE", "addr:housenumber": "48", "addr:postcode": "12623", "addr:street": "H\u00f6nower Stra\u00dfe", "addr:suburb": "Mahlsdorf", "amenity": "bank", "atm": "no", "drive_through": "no", "name": "Sparkasse", "opening_hours": "Mo,We,Fr 09:30-15:00; Tu,Th 09:30-18:00; PH off", "operator": "Berliner Sparkasse", "ref": "PKC 227", "wheelchair": "yes"}}, {"type": "node", "id": 269380542, "lat": 52.5508457, "lon": 13.4143413, "tags": {"addr:city": "Berlin", "addr:country": "DE", "addr:housenumber": "83", "addr:postcode": "10439", "addr:street": "Sch\u00f6nhauser Allee", "addr:suburb": "Prenzlauer Berg", "amenity": "bank", "atm": "yes", "check_date:opening_hours": "2024-09-01", "drive_through": "no", "name": "Sparkasse", "opening_hours": "Mo-Th 09:30-18:00; Fr 09:30-15:00", "operator": "Berliner Sparkasse", "ref": "PKC 412", "wheelchair": "yes"}}, {"type": "node", "id": 269380900, "lat": 52.531183, "lon": 13.3850296}, {"type": "node", "id": 270915509, "lat": 52.5705858, "lon": 13.5667532, "tags": {"addr:city": "Berlin", "addr:country": "DE", "addr:housenumber": "378", "addr:postcode": "12689", "addr:street": "M\u00e4rkische Allee", "addr:suburb": "Marzahn", "amenity": "bank", "atm": "yes", "brand": "Berliner Volksbank", "brand:wikidata": "Q821855", "brand:wikipedia": "de:Berliner Volksbank", "name": "Berliner Volksbank", "opening_hours": "Mo 10:00-13:00,14:00-16:00; Tu 10:00-13:00,14:00-18:00; We 10:00-13:00; Th 10:00-13:00,14:00-18:00; Fr 10:00-13:00", "phone": "+493030630", "website": "https://www.berliner-volksbank.de/", "wheelchair": "yes"}}, {"type": "node", "id": 271707886, "lat": 52.5369021, "lon": 13.2030227, "tags": {"amenity": "bank", "atm": "yes", "brand": "Santander", "brand:wikidata": "Q875292", "brand:wikipedia": "en:Santander Bank", "check_date": "2023-05-27", "name": "Santander", "operator": "SEB", "wheelchair": "yes"}}, {"type": "node", "id": 271708583, "lat": 52.5366871, "lon": 13.2053397, "tags": {"addr:city": "Berlin", "addr:country": "DE", "addr:housenumber": "21", "addr:postcode": "13597", "addr:street": "Breite Stra\u00dfe", "addr:suburb": "Spandau", "amenity": "bank", "atm": "yes", "contact:phone": "+49 30 86986969", "contact:website": "https://www.berliner-sparkasse.de/module/ihre_sparkasse/filialfinder/index.php?n=%2Fmodule%2Fihre_sparkasse%2Fstandorte-der-berliner-sparkasse%2Ffilialfinder%2F#details/42", "name": "Sparkasse", "opening_hours": "Mo,We,Fr 09:30-15:00; Tu,Th 09:30-18:00; Sa,Su off", "operator": "Berliner Sparkasse", "ref": "PKC 081", "toilets:wheelchair": "no", "wheelchair": "yes"}}, {"type": "node", "id": 271710347, "lat": 52.5379015, "lon": 13.2044788, "tags": {"amenity": "bank", "atm": "yes", "brand": "Targobank", "brand:wikidata": "Q1455437", "brand:wikipedia": "en:Targobank", "name": "Targobank", "opening_hours": "Mo-Fr 10:00-13:00, Tu,Th 14:00-18:00", "wheelchair": "yes"}}, {"type": "node", "id": 271891568, "lat": 52.5011008, "lon": 13.341955, "tags": {"amenity": "bank", "atm": "yes", "brand": "Targobank", "brand:wikidata": "Q1455437", "brand:wikipedia": "en:Targobank", "name": "Targobank", "opening_hours": "Mo-Fr 10:00-13:00, Mo,Tu,Th 14:00-18:00", "wheelchair": "yes"}}, {"type": "node", "id": 275891182, "lat": 52.5168774, "lon": 13.3916223, "tags": {"addr:city": "Berlin", "addr:country": "DE", "addr:housenumber": "13", "addr:postcode": "10117", "addr:street": "Unter den Linden", "addr:suburb": "Mitte", "amenity": "bank", "atm": "yes", "atm:network": "Cash Group", "brand": "Deutsche Bank", "brand:wikidata": "Q66048", "brand:wikipedia": "en:Deutsche Bank", "check_date": "2024-11-23", "name": "Deutsche Bank", "opening_hours": "Mo 10:00-13:00,14:00-18:00; Tu 10:00-13:00,14:00-18:00; We 10:00-13:00; Th 10:00-13:00,14:00-18:00; Fr 10:00-14:00", "wheelchair": "no"}}, {"type": "node", "id": 277065067, "lat": 52.4573971, "lon": 13.3209, "tags": {"addr:city": "Berlin", "addr:housenumber": "35", "addr:postcode": "12163", "addr:street": "Schlo\u00dfstra\u00dfe", "amenity": "bank", "atm": "yes", "brand": "Sparkasse", "brand:wikidata": "Q13601825", "check_date:opening_hours": "2025-08-01", "level": "0;1", "man_made": "surveillance", "name": "Sparkasse", "opening_hours": "Mo-Fr 09:30-18:00; Sa,Su,PH off", "operator": "Berliner Sparkasse", "ref": "PKC 121", "surveillance": "indoor", "wheelchair": "yes"}}, {"type": "node", "id": 278131188, "lat": 52.538325, "lon": 13.2018907, "tags": {"amenity": "bank", "bic": "COBADEBB", "brand": "Commerzbank", "brand:wikidata": "Q157617", "brand:wikipedia": "de:Commerzbank", "check_date:opening_hours": "2023-01-18", "contact:phone": "+49 30 353826", "contact:website": "http://www.commerzbank.de", "name": "Commerzbank", "opening_hours": "Mo,We 09:00-13:00,14:00-16:00; Tu,Th 09:00-13:00,14:30-18:00; Fr 09:00-14:00", "operator": "Commerzbank", "wheelchair": "yes", "wheelchair:description": "T\u00fcr \u00f6ffnet nicht automatisch, EC-Automaten schlecht einsehbar,"}}, {"type": "node", "id": 278299922, "lat": 52.4837587, "lon": 13.3849844, "tags": {"addr:city": "Berlin", "addr:country": "DE", "addr:housenumber": "154", "addr:postcode": "12101", "addr:street": "Kaiserkorso", "amenity": "bank", "atm": "yes", "name": "Berliner Sparkasse", "opening_hours": "Mo-Fr 06:00-23:00; Sa,Su 08:00-23:00", "self_service": "only", "wheelchair": "yes"}}, {"type": "node", "id": 278735091, "lat": 52.5465951, "lon": 13.3583613, "tags": {"addr:housenumber": "151", "addr:street": "M\u00fcllerstra\u00dfe", "amenity": "bank", "atm": "yes", "brand": "Berliner Volksbank", "brand:wikidata": "Q821855", "brand:wikipedia": "de:Berliner Volksbank", "check_date": "2024-02-16", "drive_through": "no", "email": "service@berliner-volksbank.de", "fax": "+493030634400", "level": "0", "name": "Berliner Volksbank", "opening_hours": "Mo-Fr 10:00-13:00; Mo 14:00-16:00; Tu,Th 14:00-18:00; Sa-Su off", "phone": "+49 30 30633300", "source": "survey", "website": "https://standorte.berliner-volksbank.de/berlin/mullerstra%C3%9Fe-151", "wheelchair": "no"}}, {"type": "node", "id": 279305513, "lat": 52.5277358, "lon": 13.3855389, "tags": {"addr:city": "Berlin", "addr:country": "DE", "addr:housenumber": "128A", "addr:postcode": "10115", "addr:street": "Chausseestra\u00dfe", "addr:suburb": "Mitte", "amenity": "bank", "atm": "yes", "brand": "Pax-Bank", "contact:website": "https://www.pax-bank.de/", "name": "Pax-Bank", "network": "BankCard ServiceNetz", "opening_hours": "Mo-Th 09:00-16:00; Fr 09:00-13:00", "opening_hours:atm": "06:00-23:00", "operator": "Pax-Bank eG", "wheelchair": "yes"}}, {"type": "node", "id": 279387386, "lat": 52.5479747, "lon": 13.3568836, "tags": {"addr:city": "Berlin", "addr:country": "DE", "addr:housenumber": "32", "addr:postcode": "13353", "addr:street": "M\u00fcllerstra\u00dfe", "addr:suburb": "Wedding", "amenity": "bank", "atm": "yes", "brand": "Deutsche Bank", "brand:wikidata": "Q66048", "brand:wikipedia": "en:Deutsche Bank", "check_date": "2023-10-14", "drive_through": "no", "internet_access": "wlan", "internet_access:fee": "no", "level": "0", "name": "Deutsche Bank", "opening_hours": "Mo,Tu,Th 10:00-13:00,14:00-18:00; We,Fr 10:00-14:00", "wheelchair": "yes"}}, {"type": "node", "id": 282430537, "lat": 52.5159765, "lon": 13.4575184, "tags": {"amenity": "bank", "atm": "yes", "brand": "Commerzbank", "brand:wikidata": "Q157617", "brand:wikipedia": "de:Commerzbank", "check_date:opening_hours": "2024-09-01", "name": "Commerzbank", "opening_hours": "Mo-Fr 09:00-13:00, Th 14:00-18:00, Tu 09:00-13:00,14:00-16:00", "wheelchair": "yes"}}, {"type": "node", "id": 282465619, "lat": 52.4975398, "lon": 13.5203133, "tags": {"addr:city": "Berlin", "addr:housenumber": "9", "addr:postcode": "10319", "addr:street": "Erich-Kurz-Stra\u00dfe", "amenity": "bank", "atm": "yes", "bic": "BELADEBE", "check_date:opening_hours": "2024-07-22", "name": "Sparkasse", "opening_hours": "Mo,We,Fr 09:30-15:00; Tu,Th 09:30-18:00; PH off", "operator": "Berliner Sparkasse", "ref": "PKC 179", "wheelchair": "yes"}}, {"type": "node", "id": 282758807, "lat": 52.5146557, "lon": 13.467775, "tags": {"addr:city": "Berlin", "addr:country": "DE", "addr:housenumber": "69", "addr:postcode": "10247", "addr:street": "Frankfurter Allee", "addr:suburb": "Friedrichshain", "amenity": "bank", "atm": "yes", "brand": "Berliner Volksbank", "brand:wikidata": "Q821855", "brand:wikipedia": "de:Berliner Volksbank", "check_date": "2024-07-21", "contact:phone": "+49 30 30633300", "level": "0", "name": "Berliner Volksbank", "opening_hours": "Mo-Fr 10:00-13:00, Tu,Th 14:00-18:00, Mo 14:00-16:00", "operator": "Berliner Volksbank", "website": "https://www.berliner-volksbank.de/", "wheelchair": "yes"}}, {"type": "node", "id": 282759670, "lat": 52.5142273, "lon": 13.4672334, "tags": {"addr:city": "Berlin", "addr:country": "DE", "addr:housenumber": "70", "addr:postcode": "10247", "addr:street": "Frankfurter Allee", "addr:suburb": "Friedrichshain", "amenity": "bank", "brand": "Santander", "brand:wikidata": "Q875292", "brand:wikipedia": "en:Santander Bank", "check_date:opening_hours": "2024-11-25", "contact:phone": "+49304228290", "contact:website": "http://www.santander.de", "name": "Santander", "opening_hours": "Tu,Th 09:00-13:00,14:00-18:00; Mo,We 09:00-13:00,14:00-16:00; Fr 09:00-14:00", "wheelchair": "limited", "wheelchair:description": "1 Stufe"}}, {"type": "node", "id": 282833032, "lat": 52.4827553, "lon": 13.6012962, "tags": {"addr:city": "Berlin", "addr:housenumber": "83", "addr:postcode": "12623", "addr:street": "Hultschiner Damm", "amenity": "bank", "atm": "no", "name": "Sparkasse", "opening_hours": "Mo,We,Fr 09:30-15:00; Tu,Th 09:30-18:00; PH off", "operator": "Berliner Sparkasse", "ref": "PKC 228", "wheelchair": "yes"}}, {"type": "node", "id": 283287313, "lat": 52.5894424, "lon": 13.2840835, "tags": {"addr:city": "Berlin", "addr:housenumber": "99", "addr:postcode": "13507", "addr:street": "Berliner Stra\u00dfe", "amenity": "bank", "atm": "yes", "name": "Sparkasse", "opening_hours": "Mo-Th 09:30-18:00; Fr 09:30-16:00", "operator": "Berliner Sparkasse", "ref": "PKC 203", "surveillance": "indoor", "wheelchair": "no"}}, {"type": "node", "id": 283287364, "lat": 52.5956546, "lon": 13.332671, "tags": {"addr:city": "Berlin", "addr:housenumber": "194", "addr:postcode": "13437", "addr:street": "Oranienburger Stra\u00dfe", "amenity": "bank", "atm": "yes", "name": "Sparkasse", "opening_hours": "Mo-Fr 06:00-23:00; Sa,Su 08:00-23:00", "operator": "Berliner Sparkasse", "ref": "PKC 205", "wheelchair": "yes", "wheelchair:description": "kein WC"}}, {"type": "node", "id": 283287402, "lat": 52.5531369, "lon": 13.347713, "tags": {"addr:city": "Berlin", "addr:housenumber": "53", "addr:postcode": "13349", "addr:street": "M\u00fcllerstra\u00dfe", "amenity": "bank", "atm": "yes", "name": "Sparkasse", "opening_hours": "Mo,We,Fr 09:30-15:00; Tu,Th 09:30-18:00", "operator": "Berliner Sparkasse", "ref": "PKC 031", "wheelchair": "yes"}}, {"type": "node", "id": 283287488, "lat": 52.5195079, "lon": 13.3881322, "tags": {"addr:city": "Berlin", "addr:country": "DE", "addr:housenumber": "148", "addr:postcode": "10117", "addr:street": "Friedrichstra\u00dfe", "addr:suburb": "Mitte", "amenity": "bank", "atm": "yes", "check_date:opening_hours": "2024-11-02", "drive_through": "no", "name": "Sparkasse", "opening_hours": "Tu,Th 09:30-18:00; Mo,We,Fr 09:30-15:00; PH closed", "operator": "Berliner Sparkasse", "ref": "PKC 010", "surveillance": "indoor", "wheelchair": "yes"}}, {"type": "node", "id": 285082079, "lat": 52.5086558, "lon": 13.4513189, "tags": {"addr:city": "Berlin", "addr:country": "DE", "addr:housenumber": "55", "addr:postcode": "10243", "addr:street": "Warschauer Stra\u00dfe", "addr:suburb": "Friedrichshain", "amenity": "bank", "atm": "yes", "check_date:opening_hours": "2024-07-29", "contact:phone": "+49 30 86986969", "contact:website": "https://www.berliner-sparkasse.de", "name": "Sparkasse", "opening_hours": "Mo,We,Fr 09:30-15:00; Tu,Th 09:30-18:00", "operator": "Berliner Sparkasse", "ref": "PKC 051", "wheelchair": "yes"}}, {"type": "node", "id": 287444109, "lat": 52.5066412, "lon": 13.3321498, "tags": {"amenity": "bank", "atm": "yes", "brand": "Reisebank", "brand:wikidata": "Q1421107", "brand:wikipedia": "de:Reisebank", "name": "Reisebank", "opening_hours": "Mo-Su,PH 08:00-21:00", "wheelchair": "yes"}}, {"type": "node", "id": 292051576, "lat": 52.455179, "lon": 13.6249313, "tags": {"addr:city": "Berlin", "addr:country": "DE", "addr:housenumber": "81", "addr:postcode": "12587", "addr:street": "B\u00f6lschestra\u00dfe", "addr:suburb": "Friedrichshagen", "amenity": "bank", "atm": "yes", "check_date:opening_hours": "2022-10-10", "name": "Sparkasse", "opening_hours": "Mo,We,Fr 09:30-15:00; Tu,Th 09:30-18:00", "operator": "Berliner Sparkasse", "ref": "PKC 164", "wheelchair": "yes"}}, {"type": "node", "id": 292700480, "lat": 52.5893531, "lon": 13.2835504, "tags": {"amenity": "bank", "atm": "yes", "brand": "Sparda-Bank Berlin", "brand:wikidata": "Q1656189", "brand:wikipedia": "de:Sparda-Bank Berlin", "contact:phone": "+49 30 32894434", "contact:website": "https://www.sparda-b.de/", "name": "Sparda-Bank Berlin", "opening_hours": "Mo-Th 09:00-13:00,14:00-18:00; We,Fr 09:00-13:00", "operator": "Sparda-Bank Berlin eG", "wheelchair": "yes"}}, {"type": "node", "id": 302949475, "lat": 52.5480048, "lon": 13.1836134, "tags": {"addr:city": "Berlin", "addr:country": "DE", "addr:housenumber": "33", "addr:postcode": "13583", "addr:street": "Falkenseer Chaussee", "amenity": "bank", "atm": "yes", "check_date:opening_hours": "2022-05-07", "name": "Sparkasse", "opening_hours": "Mo,We,Fr 09:30-15:00; Tu,Th 09:30-18:00", "operator": "Berliner Sparkasse", "ref": "PKC 085", "wheelchair": "yes"}}, {"type": "node", "id": 304791561, "lat": 52.5515043, "lon": 13.4144894, "tags": {"addr:city": "Berlin", "addr:country": "DE", "addr:housenumber": "85", "addr:postcode": "10439", "addr:street": "Sch\u00f6nhauser Allee", "addr:suburb": "Prenzlauer Berg", "amenity": "bank", "atm": "yes", "brand": "Santander", "brand:wikidata": "Q875292", "brand:wikipedia": "en:Santander Bank", "check_date:opening_hours": "2022-10-19", "name": "Santander", "opening_hours": "Mo-Th 09:00-13:00, Mo,We 14:00-16:00, Tu,Th 14:00-18:00, Fr 09:00-14:00", "operator": "Santander Consumer Bank", "website": "https://www.santander.de/", "wheelchair": "no"}}, {"type": "node", "id": 310242942, "lat": 52.5156523, "lon": 13.3933742}, {"type": "node", "id": 310242949, "lat": 52.5158325, "lon": 13.3937852}, {"type": "node", "id": 310385704, "lat": 52.4789708, "lon": 13.3433052, "tags": {"addr:city": "Berlin", "addr:housenumber": "1", "addr:postcode": "10825", "addr:street": "Wexstra\u00dfe", "amenity": "bank", "atm": "yes", "atm:network": "Cash Group", "brand": "Deutsche Bank", "brand:wikidata": "Q66048", "brand:wikipedia": "en:Deutsche Bank", "name": "Deutsche Bank", "opening_hours": "Mo,Tu 14:00-18:00; We,Th 10:00-13:00; Fr 10:00-14:00", "opening_hours:atm": "06:00-22:00", "phone": "+49 30 31090", "wheelchair": "no"}}, {"type": "node", "id": 311039022, "lat": 52.5031107, "lon": 13.3268376, "tags": {"addr:city": "Berlin", "addr:country": "DE", "addr:housenumber": "28", "addr:postcode": "10719", "addr:street": "Kurf\u00fcrstendamm", "addr:suburb": "Charlottenburg", "amenity": "bank", "atm": "yes", "atm:network": "Cash Group", "brand": "Deutsche Bank", "brand:wikidata": "Q66048", "brand:wikipedia": "en:Deutsche Bank", "name": "Deutsche Bank", "source": "Collected via KeypadMapper", "wheelchair": "yes"}}, {"type": "node", "id": 313144189, "lat": 52.52588, "lon": 13.4471598, "tags": {"amenity": "bank", "atm": "yes", "bic": "BELADEBEXXX", "check_date": "2025-05-08", "contact:phone": "+493086986969", "name": "Sparkasse SB-Center", "opening_hours": "Mo-Fr 07:00-24:00; Sa 07:00-23:30", "operator": "Berliner Sparkasse", "wheelchair": "yes"}}, {"type": "node", "id": 313162501, "lat": 52.4588324, "lon": 13.3228843, "tags": {"addr:city": "Berlin", "addr:housenumber": "97", "addr:postcode": "12163", "addr:street": "Schlo\u00dfstra\u00dfe", "amenity": "bank", "atm": "separate", "brand": "Sparda-Bank Berlin", "brand:wikidata": "Q1656189", "brand:wikipedia": "de:Sparda-Bank Berlin", "level": "0", "name": "Sparda-Bank Berlin", "opening_hours": "Tu,Th,Fr 09:00-13:00, Tu,Th 14:00-18:00", "opening_hours:atm": "06:00-23:00", "phone": "+49 30 42080420", "website": "https://www.sparda-b.de/kontakt/filialen-geldautomaten.html#!/l/berlin/schlossstrasse-97/116", "wheelchair": "yes"}}, {"type": "node", "id": 313233252, "lat": 52.5041776, "lon": 13.3349624, "tags": {"amenity": "bank", "brand": "Commerzbank", "brand:wikidata": "Q157617", "brand:wikipedia": "de:Commerzbank", "check_date": "2024-07-26", "name": "Commerzbank", "opening_hours": "Mo-Fr 09:00-19:00", "operator": "Commerzbank", "operator:wikidata": "Q157617", "website": "https://www.commerzbank.de/filialen/de/Berlin-Ged%C3%A4chtniskirche", "wheelchair": "yes"}}, {"type": "node", "id": 315816388, "lat": 52.4849159, "lon": 13.3544351, "tags": {"addr:city": "Berlin", "addr:country": "DE", "addr:housenumber": "135", "addr:postcode": "10827", "addr:street": "Hauptstra\u00dfe", "addr:suburb": "Sch\u00f6neberg", "amenity": "bank", "atm": "yes", "check_date:opening_hours": "2024-09-06", "name": "Sparkasse", "opening_hours": "Mo,We,Fr 09:30-15:00; Tu,Th 09:30-18:00", "operator": "Berliner Sparkasse", "operator:wikidata": "Q821760", "ref": "PKC 114", "wheelchair": "no"}}, {"type": "node", "id": 316772344, "lat": 52.5893241, "lon": 13.2842965, "tags": {"amenity": "bank", "atm": "yes", "brand": "Berliner Volksbank", "brand:wikidata": "Q821855", "brand:wikipedia": "de:Berliner Volksbank", "name": "Berliner Volksbank", "opening_hours": "Mo-Fr 10:00-13:00,14:00-18:00", "operator": "Berliner Volksbank", "wheelchair": "no"}}, {"type": "node", "id": 319229036, "lat": 52.4322593, "lon": 13.5357184, "tags": {"amenity": "bank", "atm": "yes", "brand": "Commerzbank", "brand:wikidata": "Q157617", "brand:wikipedia": "de:Commerzbank", "name": "Commerzbank", "opening_hours": "Mo-Fr 09:00-13:00, Th 14:00-18:00, Tu 14:00-16:00", "operator": "Commerzbank", "wheelchair": "yes"}}, {"type": "node", "id": 322078516, "lat": 52.5452716, "lon": 13.3606846, "tags": {"addr:city": "Berlin", "addr:country": "DE", "addr:housenumber": "156b", "addr:postcode": "13353", "addr:street": "M\u00fcllerstra\u00dfe", "addr:suburb": "Wedding", "amenity": "bank", "atm": "yes", "brand": "Postbank", "brand:wikidata": "Q708835", "brand:wikipedia": "de:Postbank", "check_date": "2024-08-24", "check_date:opening_hours": "2024-08-24", "level": "0", "name": "Postbank", "opening_hours": "Mo-Fr 09:00-18:30; Sa 09:00-14:00", "wheelchair": "limited"}}, {"type": "node", "id": 323597687, "lat": 52.4282677, "lon": 13.3270905, "tags": {"amenity": "bank", "atm": "yes", "brand": "Deutsche Bank", "brand:wikidata": "Q66048", "brand:wikipedia": "en:Deutsche Bank", "name": "Deutsche Bank", "opening_hours": "Mo,Tu,Th 10:00-12:30, We,Fr 10:00-14:00, Mo,Tu,Th 14:00-18:00", "operator": "Deutsche Bank", "wheelchair": "yes"}}, {"type": "node", "id": 323602520, "lat": 52.4278403, "lon": 13.3276196, "tags": {"addr:city": "Berlin", "addr:country": "DE", "addr:housenumber": "2", "addr:postcode": "12209", "addr:street": "Kranoldplatz", "addr:suburb": "Lichterfelde", "amenity": "bank", "atm": "yes", "brand": "Berliner Volksbank", "brand:wikidata": "Q821855", "brand:wikipedia": "de:Berliner Volksbank", "check_date:opening_hours": "2024-09-05", "name": "Berliner Volksbank", "opening_hours": "Mo-Fr 10:00-13:00", "operator": "Berliner Volksbank", "wheelchair": "limited"}}, {"type": "node", "id": 324365784, "lat": 52.5177105, "lon": 13.4401523, "tags": {"addr:city": "Berlin", "addr:housenumber": "91", "addr:postcode": "10243", "addr:street": "Karl-Marx-Allee", "amenity": "bank", "check_date:opening_hours": "2023-08-05", "name": "Sparkasse", "opening_hours": "Mo,We,Fr 09:30-15:00; Tu,Th 09:30-18:00", "operator": "Berliner Sparkasse", "ref": "PKC 052", "surveillance": "indoor", "wheelchair": "yes"}}, {"type": "node", "id": 330062562, "lat": 52.5156776, "lon": 13.3937805}, {"type": "node", "id": 330140989, "lat": 52.4988786, "lon": 13.420093, "tags": {"addr:city": "Berlin", "addr:country": "DE", "addr:housenumber": "15", "addr:postcode": "10999", "addr:street": "Skalitzer Stra\u00dfe", "addr:suburb": "Kreuzberg", "amenity": "bank", "atm": "yes", "check_date": "2022-11-16", "level": "0", "name": "Sparkasse", "opening_hours": "Mo,We,Fr 09:30-15:00; Tu,Th 09:30-18:00", "operator": "Berliner Sparkasse", "ref": "PKC 067", "surveillance": "indoor", "wheelchair": "yes"}}, {"type": "node", "id": 331515778, "lat": 52.5241263, "lon": 13.3828334, "tags": {"addr:city": "Berlin", "addr:country": "DE", "addr:housenumber": "10", "addr:postcode": "10117", "addr:street": "Schumannstra\u00dfe", "addr:suburb": "Mitte", "amenity": "bank", "atm": "yes", "bic": "GENODEM1GLS", "check_date": "2025-07-27", "check_date:opening_hours": "2025-07-27", "contact:phone": "+49 30 526885880", "name": "GLS Bank", "network": "BankCard ServiceNetz", "opening_hours": "Mo-Th 10:00-12:30,14:00-16:00; Fr 10:00-13:00", "operator": "GLS Gemeinschaftsbank", "payment:cash": "yes", "payment:credit_cards": "yes", "payment:debit_cards": "yes", "surveillance": "indoor", "toilets:wheelchair": "no", "website": "https://www.gls.de/gls-bank/ueber-uns/standorte/berlin/", "wheelchair": "yes"}}, {"type": "node", "id": 332967732, "lat": 52.5528208, "lon": 13.3816626, "tags": {"addr:city": "Berlin", "addr:country": "DE", "addr:housenumber": "89-90", "addr:postcode": "13357", "addr:street": "Prinzenallee", "addr:suburb": "Gesundbrunnen", "amenity": "bank", "brand": "Santander", "brand:wikidata": "Q875292", "brand:wikipedia": "en:Santander Bank", "name": "Santander", "opening_hours": "Mo,Tu,Th 09:00-13:00, Tu,Th 14:00-18:00, Fr 09:00-14:00, We 09:00-13:00,14:00-16:00"}}, {"type": "node", "id": 334727707, "lat": 52.5013818, "lon": 13.4312566, "tags": {"addr:city": "Berlin", "addr:country": "DE", "addr:housenumber": "48", "addr:postcode": "10997", "addr:street": "Muskauer Stra\u00dfe", "addr:suburb": "Kreuzberg", "amenity": "bank", "atm": "yes", "check_date": "2025-03-08", "name": "Sparkasse", "opening_hours": "Mo,We,Fr 09:30-15:00; Tu,Th 09:30-18:00", "operator": "Berliner Sparkasse", "ref": "PKC 064", "surveillance": "indoor", "wheelchair": "yes"}}, {"type": "node", "id": 335870281, "lat": 52.4862003, "lon": 13.3209362, "tags": {"addr:city": "Berlin", "addr:country": "DE", "addr:housenumber": "5", "addr:postcode": "10713", "addr:street": "Blissestra\u00dfe", "addr:suburb": "Wilmersdorf", "amenity": "bank", "atm": "yes", "brand": "Sparda-Bank", "brand:wikidata": "Q2307136", "brand:wikipedia": "en:Sparda-Bank", "contact:phone": "+49 30 92257060", "contact:website": "https://www.sparda-b.de/", "name": "Hallo Sparda", "network": "CashPool;BankCard ServiceNetz", "opening_hours": "Mo 09:00-13:00; Tu 09:00-13:00,14:00-18:00; Th 09:00-13:00,14:00-18:00", "operator": "Sparda-Bank Berlin eG", "wheelchair": "limited"}}, {"type": "node", "id": 340324654, "lat": 52.4975046, "lon": 13.5223099, "tags": {"addr:city": "Berlin", "addr:housenumber": "3", "addr:postcode": "10319", "addr:street": "Otto-Schmirgal-Stra\u00dfe", "amenity": "bank", "atm": "yes", "brand": "Postbank", "brand:wikidata": "Q708835", "brand:wikipedia": "de:Postbank", "check_date:opening_hours": "2025-01-31", "level": "0", "name": "Postbank", "opening_hours": "Mo-Fr 09:00-18:00, Sa 09:00-12:30; PH off", "wheelchair": "yes"}}, {"type": "node", "id": 346135245, "lat": 52.5398213, "lon": 13.3709781, "tags": {"addr:city": "Berlin", "addr:housenumber": "1", "addr:postcode": "13347", "addr:street": "Schulzendorfer Stra\u00dfe", "amenity": "bank", "atm": "yes", "brand": "Sparkasse", "check_date": "2024-02-21", "internet_access": "wlan", "internet_access:fee": "no", "level": "0", "name": "Sparkasse", "opening_hours": "Mo,We,Fr 09:30-15:00; Tu,Th 09:30-18:00", "operator": "Berliner Sparkasse", "ref": "PKC 033", "surveillance": "indoor", "wheelchair": "limited"}}, {"type": "node", "id": 346608399, "lat": 52.5076156, "lon": 13.3061738, "tags": {"addr:city": "Berlin", "addr:country": "DE", "addr:housenumber": "57", "addr:postcode": "10627", "addr:street": "Wilmersdorfer Stra\u00dfe", "addr:suburb": "Charlottenburg", "amenity": "bank", "atm": "yes", "check_date": "2025-05-29", "check_date:opening_hours": "2021-05-27", "drive_through": "no", "name": "Sparkasse", "opening_hours": "Mo-Th 09:30-18:00; Fr 09:30-15:00; Sa-Su,PH off||Mo-Th 06:00-23:00 open \"SB-Bereich\";Fr 06:00-24:00 open \"SB-Bereich\"; Sa 00:00-24:00 open \"SB-Bereich\"; Su 00:00-23:00 open \"SB-Bereich\"", "operator": "Berliner Sparkasse", "ref": "PKC 078", "wheelchair": "yes"}}, {"type": "node", "id": 355142046, "lat": 52.5896791, "lon": 13.2832149, "tags": {"amenity": "bank", "brand": "Commerzbank", "brand:wikidata": "Q157617", "brand:wikipedia": "de:Commerzbank", "name": "Commerzbank", "opening_hours": "Mo-Th 09:00-13:00, Fr 09:00-14:00, Mo,We 14:00-16:00, Tu,Th 14:30-18:00", "operator": "Commerzbank", "wheelchair": "no"}}, {"type": "node", "id": 355180027, "lat": 52.4349895, "lon": 13.2596238, "tags": {"addr:city": "Berlin", "addr:country": "DE", "addr:housenumber": "2", "addr:postcode": "14169", "addr:street": "Teltower Damm", "addr:suburb": "Zehlendorf", "amenity": "bank", "atm": "yes", "brand": "Deutsche Bank", "brand:wikidata": "Q66048", "brand:wikipedia": "en:Deutsche Bank", "contact:phone": "+49 30 34070", "contact:website": "https://www.deutsche-bank.de", "entrance": "main", "name": "Deutsche Bank", "opening_hours": "Mo,Tu,Th 10:00-12:30,14:00-18:00; We,Fr 10:00-14:00", "wheelchair": "yes"}}, {"type": "node", "id": 364785097, "lat": 52.3729835, "lon": 13.6168563, "tags": {"access:covid19": "yes", "addr:city": "Eichwalde", "addr:country": "DE", "addr:housenumber": "85", "addr:postcode": "15732", "addr:street": "Bahnhofstra\u00dfe", "amenity": "bank", "atm": "yes", "brand": "Mittelbrandenburgische Sparkasse", "brand:wikidata": "Q1940058", "brand:wikipedia": "de:Mittelbrandenburgische Sparkasse", "entrance": "main", "name": "Sparkasse", "opening_hours": "Mo-Fr 09:00-12:30, Tu,Th 13:30-18:00, Mo,Fr 13:30-16:00", "operator": "Mittelbrandenburgische Sparkasse", "phone": "+49 30 6706981266411", "wheelchair": "yes"}}, {"type": "node", "id": 365808332, "lat": 52.3644958, "lon": 13.5939242, "tags": {"addr:city": "Schulzendorf", "addr:country": "DE", "addr:housenumber": "4d", "addr:postcode": "15732", "addr:street": "Richard-Israel-Stra\u00dfe", "amenity": "bank", "brand": "Mittelbrandenburgische Sparkasse", "brand:wikidata": "Q1940058", "brand:wikipedia": "de:Mittelbrandenburgische Sparkasse", "entrance": "main", "name": "Sparkasse", "operator": "Mittelbrandenburgische Sparkasse", "wheelchair": "yes"}}, {"type": "node", "id": 366013582, "lat": 52.5265587, "lon": 13.340121, "tags": {"addr:city": "Berlin", "addr:country": "DE", "addr:housenumber": "33", "addr:postcode": "10551", "addr:street": "Turmstra\u00dfe", "amenity": "bank", "atm": "yes", "bic": "BE LA DE BE", "check_date": "2025-04-02", "check_date:opening_hours": "2025-04-02", "level": "0", "name": "Sparkasse", "opening_hours": "Mo-Th 09:30-18:00; Fr 09:30-15:00", "operator": "Berliner Sparkasse", "ref": "PKC 024", "wheelchair": "yes"}}, {"type": "node", "id": 366429802, "lat": 52.5373155, "lon": 13.6041606, "tags": {"addr:city": "Berlin", "addr:housenumber": "21", "addr:postcode": "12627", "addr:street": "Stendaler Stra\u00dfe", "amenity": "bank", "atm": "yes", "name": "Sparkasse", "opening_hours": "Mo-Fr 06:00-23:00; Sa,Su 08:00-23:00", "operator": "Berliner Sparkasse", "ref": "PKC 222", "wheelchair": "yes"}}, {"type": "node", "id": 370131145, "lat": 52.4506725, "lon": 13.339864, "tags": {"addr:city": "Berlin", "addr:country": "DE", "addr:housenumber": "24", "addr:postcode": "12169", "addr:street": "Steglitzer Damm", "addr:suburb": "Steglitz", "amenity": "bank", "atm": "no", "brand": "Postbank", "brand:wikidata": "Q708835", "brand:wikipedia": "de:Postbank", "name": "Postbank", "opening_hours": "Mo-Fr 09:30-18:00; Sa 09:30-14:00", "wheelchair": "yes"}}, {"type": "node", "id": 370172188, "lat": 52.5265453, "lon": 13.3406471, "tags": {"addr:city": "Berlin", "addr:country": "DE", "addr:housenumber": "32", "addr:postcode": "10551", "addr:street": "Turmstra\u00dfe", "addr:suburb": "Moabit", "amenity": "bank", "atm": "yes", "atm:network": "Cash Group", "brand": "Commerzbank", "brand:wikidata": "Q157617", "brand:wikipedia": "de:Commerzbank", "check_date:opening_hours": "2025-03-29", "name": "Commerzbank", "opening_hours": "Tu-Fr 09:00-13:00, 14:00-16:00, Tu,Th 14:30-18:00", "operator": "Commerzbank", "wheelchair": "yes"}}, {"type": "node", "id": 370765387, "lat": 52.5018157, "lon": 13.3192893, "tags": {"addr:city": "Berlin", "addr:country": "DE", "addr:postcode": "10707", "addr:street": "Kurf\u00fcrstendamm", "addr:suburb": "Charlottenburg", "amenity": "bank", "atm": "yes", "brand": "Berliner Volksbank", "brand:wikidata": "Q821855", "brand:wikipedia": "de:Berliner Volksbank", "name": "Berliner Volksbank", "opening_hours": "Mo-Fr 10:00-13:00,14:00-18:00", "wheelchair": "limited"}}, {"type": "node", "id": 375800452, "lat": 52.5140687, "lon": 13.3197163, "tags": {"amenity": "bank", "atm": "yes", "atm:network": "Cash Group", "brand": "Deutsche Bank", "brand:wikidata": "Q66048", "brand:wikipedia": "en:Deutsche Bank", "check_date": "2023-06-14", "fee": "varies", "name": "Deutsche Bank", "opening_hours": "Mo, Tu, Th 10:00-18:00; We, Fr 10:00-16:00", "operator": "Deutsche Bank", "wheelchair": "yes"}}, {"type": "node", "id": 414996118, "lat": 52.4455851, "lon": 13.5057931, "tags": {"addr:city": "Berlin", "addr:housenumber": "79", "addr:postcode": "12487", "addr:street": "Sterndamm", "amenity": "bank", "atm": "yes", "name": "Sparkasse", "opening_hours": "Mo 09:30-15:00; Th 09:30-18:00", "operator": "Berliner Sparkasse", "ref": "PKC 156", "wheelchair": "limited"}}, {"type": "node", "id": 415791575, "lat": 52.4426382, "lon": 13.2974109, "tags": {"addr:city": "Berlin", "addr:housenumber": "32", "addr:postcode": "12205", "addr:street": "Drakestra\u00dfe", "amenity": "bank", "atm": "yes", "check_date": "2024-06-18", "check_date:opening_hours": "2024-06-18", "name": "Sparkasse", "opening_hours": "Mo,We,Fr 09:30-15:00; Tu,Th 09:30-18:00", "operator": "Berliner Sparkasse", "phone": "+49 30 86986969", "ref": "PKC 122", "website": "https://www.berliner-sparkasse.de", "wheelchair": "yes"}}, {"type": "node", "id": 415858762, "lat": 52.4647956, "lon": 13.3853614, "tags": {"addr:city": "Berlin", "addr:housenumber": "152", "addr:postcode": "12099", "addr:street": "Tempelhofer Damm", "amenity": "bank", "atm": "yes", "brand": "Berliner Volksbank", "brand:wikidata": "Q821855", "brand:wikipedia": "de:Berliner Volksbank", "check_date": "2023-08-05", "contact:website": "https://www.berliner-volksbank.de/", "drive_through": "no", "name": "Berliner Volksbank", "opening_hours": "Mo-Th 10:00-13:00,14:00-18:00; We,Fr 10:00-13:00,14:00-16:00", "operator": "Berliner Volksbank eG", "wheelchair": "limited"}}, {"type": "node", "id": 416660137, "lat": 52.5101491, "lon": 13.3058142, "tags": {"addr:city": "Berlin", "addr:country": "DE", "addr:housenumber": "128", "addr:postcode": "10627", "addr:street": "Wilmersdorfer Stra\u00dfe", "addr:suburb": "Charlottenburg", "amenity": "bank", "atm": "yes", "brand": "Targobank", "brand:wikidata": "Q1455437", "brand:wikipedia": "en:Targobank", "check_date": "2025-05-29", "check_date:opening_hours": "2024-07-11", "drive_through": "no", "level": "0", "name": "Targobank", "opening_hours": "Mo-Tu,Th 10:00-13:00,14:00-18:00; We,Fr 10:00-13:00; Sa-Su,PH off", "operator": "Targobank", "wheelchair": "yes"}}, {"type": "node", "id": 417302813, "lat": 52.5055916, "lon": 13.4960317, "tags": {"addr:city": "Berlin", "addr:housenumber": "59/60", "addr:postcode": "10317", "addr:street": "Weitlingstra\u00dfe", "amenity": "bank", "atm": "yes", "bic": "BELADEBE", "check_date": "2024-09-05", "check_date:opening_hours": "2022-08-17", "internet_access": "yes", "internet_access:ssid": "Sparbaras Welt", "name": "Sparkasse PrivatkundenCenter", "opening_hours": "Mo,We,Fr 09:30-15:00; Tu,Th 09:30-18:00", "operator": "Berliner Sparkasse", "ref": "PKC 174", "surveillance": "yes", "wheelchair": "yes"}}, {"type": "node", "id": 419566429, "lat": 52.5910337, "lon": 13.2826465, "tags": {"amenity": "bank", "brand": "Deutsche Bank", "brand:wikidata": "Q66048", "brand:wikipedia": "en:Deutsche Bank", "check_date:opening_hours": "2021-11-01", "name": "Deutsche Bank", "opening_hours": "Mo-Th 10:00-13:00, Mo,Tu,Th 14:00-18:00, We 14:00-16:00, Fr 10:00-14:00", "operator": "Deutsche Bank", "phone": "+49304309570", "website": "https://www.deutsche-bank.de/", "wheelchair": "yes"}}, {"type": "node", "id": 420448903, "lat": 52.4868431, "lon": 13.4237278, "tags": {"amenity": "bank", "atm": "yes", "brand": "Postbank", "brand:wikidata": "Q708835", "brand:wikipedia": "de:Postbank", "name": "Postbank", "post_office": "bureau", "wheelchair": "limited"}}, {"type": "node", "id": 421299910, "lat": 52.3865001, "lon": 13.4028829, "tags": {"addr:city": "Berlin", "addr:country": "DE", "addr:postcode": "12305", "addr:street": "Bahnhofstra\u00dfe", "addr:suburb": "Lichtenrade", "amenity": "bank", "atm": "yes", "brand": "Berliner Volksbank", "brand:wikidata": "Q821855", "brand:wikipedia": "de:Berliner Volksbank", "name": "Berliner Volksbank", "opening_hours": "Mo 10:00-16:00; Tu,Th 10:00-18:00; We,Fr 10:00-13:00", "operator": "Berliner Volksbank", "wheelchair": "yes"}}, {"type": "node", "id": 421299912, "lat": 52.3865106, "lon": 13.4016296, "tags": {"addr:city": "Berlin", "addr:country": "DE", "addr:postcode": "12305", "addr:street": "Bahnhofstra\u00dfe", "addr:suburb": "Lichtenrade", "amenity": "bank", "atm": "yes", "brand": "Deutsche Bank", "brand:wikidata": "Q66048", "brand:wikipedia": "en:Deutsche Bank", "check_date:opening_hours": "2024-10-24", "name": "Deutsche Bank", "opening_hours": "Fr 10:00-14:00; Mo,Tu,Th 10:00-12:30,14:00-18:00; We 10:00-14:00", "operator": "Deutsche Bank", "wheelchair": "limited"}}, {"type": "node", "id": 422510102, "lat": 52.5432142, "lon": 13.4261762, "tags": {"addr:city": "Berlin", "addr:country": "DE", "addr:housenumber": "182", "addr:postcode": "10405", "addr:street": "Prenzlauer Allee", "addr:suburb": "Prenzlauer Berg", "amenity": "bank", "atm": "yes", "check_date": "2023-07-05", "name": "Sparkasse SB-Service", "opening_hours": "Mo-Fr 06:00-23:00; Sa, Su 08:00-23:00", "operator": "Berliner Sparkasse", "ref": "PKC 416", "wheelchair": "limited"}}, {"type": "node", "id": 426581071, "lat": 52.5497704, "lon": 13.3865323, "tags": {"addr:city": "Berlin", "addr:country": "DE", "addr:housenumber": "8", "addr:postcode": "13357", "addr:street": "Badstra\u00dfe", "addr:suburb": "Gesundbrunnen", "amenity": "bank", "atm": "yes", "brand": "Targobank", "brand:wikidata": "Q1455437", "brand:wikipedia": "en:Targobank", "check_date": "2024-11-24", "contact:phone": "+49 30 4930610", "fax": "+49 30 49306144", "name": "Targobank", "opening_hours": "Mo,Tu,Th 10:00-13:00,14:00-18:00; We,Fr 10:00-13:00", "operator": "Targobank AG & Co. KGaA", "website": "https://targobank.de/", "wheelchair": "no"}}, {"type": "node", "id": 430643794, "lat": 52.610274, "lon": 13.2490725, "tags": {"addr:city": "Berlin", "addr:country": "DE", "addr:housenumber": "17", "addr:postcode": "13503", "addr:street": "Keilerstra\u00dfe", "addr:suburb": "Heiligensee", "amenity": "bank", "atm": "yes", "name": "Sparkasse", "opening_hours": "Tu 10:00-18:00, Fr 10:00-15:00", "operator": "Berliner Sparkasse", "ref": "PKC 213"}}, {"type": "node", "id": 434517788, "lat": 52.4688328, "lon": 13.4307923, "tags": {"addr:city": "Berlin", "addr:housenumber": "162", "addr:postcode": "12051", "addr:street": "Hermannstra\u00dfe", "amenity": "bank", "atm": "yes", "check_date": "2024-05-14", "name": "Sparkasse", "opening_hours": "Mo,We,Fr 09:30-15:00; Tu,Th 09:30-18:00", "operator": "Berliner Sparkasse", "ref": "PKC 142", "wheelchair": "limited"}}, {"type": "node", "id": 434563786, "lat": 52.3737652, "lon": 13.6190018, "tags": {"amenity": "bank", "atm": "yes", "brand": "Berliner Volksbank", "brand:wikidata": "Q821855", "brand:wikipedia": "de:Berliner Volksbank", "check_date:opening_hours": "2025-07-16", "drive_through": "no", "name": "Berliner Volksbank", "opening_hours": "Mo-Su 06:00-23:00", "operator": "Berliner Volksbank"}}, {"type": "node", "id": 437514581, "lat": 52.5370508, "lon": 13.2737663, "tags": {"addr:city": "Berlin", "addr:country": "DE", "addr:housenumber": "18", "addr:postcode": "13629", "addr:street": "Popitzweg", "addr:suburb": "Siemensstadt", "amenity": "bank", "atm": "yes", "check_date:opening_hours": "2025-08-02", "name": "Sparkasse", "opening_hours": "Mo,We,Fr 09:30-15:00; Tu,Th 09:30-18:00", "operator": "Berliner Sparkasse", "ref": "PKC 083", "wheelchair": "yes"}}, {"type": "node", "id": 439234898, "lat": 52.4553097, "lon": 13.6255293, "tags": {"addr:city": "Berlin", "addr:country": "DE", "addr:housenumber": "63", "addr:postcode": "12587", "addr:street": "B\u00f6lschestra\u00dfe", "addr:suburb": "Friedrichshagen", "amenity": "bank", "atm": "yes", "brand": "Santander", "brand:wikidata": "Q875292", "brand:wikipedia": "en:Santander Bank", "check_date:opening_hours": "2023-11-25", "contact:website": "https://www.santander.de/", "name": "Santander", "opening_hours": "Mo-Th 09:00-13:00, We 14:00-16:00, Mo,Tu,Th 14:00-18:00, Fr 09:00-14:00", "wheelchair": "limited"}}, {"type": "node", "id": 441306019, "lat": 52.5376745, "lon": 13.2030843, "tags": {"amenity": "bank", "atm": "yes", "brand": "Targobank", "brand:wikidata": "Q1455437", "brand:wikipedia": "en:Targobank", "name": "Targobank", "operator": "Targobank", "wheelchair": "yes"}}, {"type": "node", "id": 441734598, "lat": 52.4816263, "lon": 13.4338, "tags": {"addr:housenumber": "76", "addr:street": "Karl-Marx-Stra\u00dfe", "amenity": "bank", "atm": "yes", "brand": "Commerzbank", "brand:wikidata": "Q157617", "brand:wikipedia": "de:Commerzbank", "check_date": "2024-03-13", "name": "Commerzbank", "network": "Cash Group", "opening_hours": "Mo-Th 09:00-13:00; Mo,We 14:00-16:00; Tu,Th 14:30-18:00; Fr 09:00-14:00; Sa-Su,PH off", "operator": "Commerzbank AG", "website": "https://www.commerzbank.de/filialen/de/Berlin-Neuk%C3%B6lln", "wheelchair": "yes"}}, {"type": "node", "id": 442387117, "lat": 52.4605838, "lon": 13.384535, "tags": {"amenity": "bank", "atm": "yes", "brand": "Commerzbank", "brand:wikidata": "Q157617", "brand:wikipedia": "de:Commerzbank", "check_date": "2023-08-04", "name": "Commerzbank", "name:ja": "\u30b3\u30e1\u30eb\u30c4\u9280\u884c", "opening_hours": "Mo-Fr 09:00-13:00, Mo 14:00-16:00, Tu,Th 14:30-18:00", "wheelchair": "yes"}}, {"type": "node", "id": 442393073, "lat": 52.4464966, "lon": 13.3858816, "tags": {"addr:city": "Berlin", "addr:country": "DE", "addr:housenumber": "69", "addr:postcode": "12109", "addr:street": "Mariendorfer Damm", "addr:suburb": "Mariendorf", "amenity": "bank", "atm": "yes", "brand": "Deutsche Bank", "brand:wikidata": "Q66048", "brand:wikipedia": "en:Deutsche Bank", "check_date:opening_hours": "2024-05-18", "name": "Deutsche Bank", "opening_hours": "Mo-Th 10:00-18:00, Fr 10:00-14:00", "wheelchair": "yes"}}, {"type": "node", "id": 442394344, "lat": 52.4448559, "lon": 13.3856992, "tags": {"addr:city": "Berlin", "addr:country": "DE", "addr:housenumber": "88-90", "addr:postcode": "12109", "addr:street": "Mariendorfer Damm", "addr:suburb": "Mariendorf", "amenity": "bank", "atm": "yes", "brand": "Berliner Volksbank", "brand:wikidata": "Q821855", "brand:wikipedia": "de:Berliner Volksbank", "check_date:opening_hours": "2024-05-24", "name": "Berliner Volksbank", "opening_hours": "Mo-We,Fr 10:00-18:00, Th 10:00-19:30", "phone": "+49 30 30633300", "website": "https://standorte.berliner-volksbank.de/detail/filiale/id/133", "wheelchair": "yes"}}, {"type": "node", "id": 445821376, "lat": 52.4538349, "lon": 13.4378411, "tags": {"addr:city": "Berlin", "addr:country": "DE", "addr:housenumber": "100", "addr:postcode": "12347", "addr:street": "Britzer Damm", "addr:suburb": "Britz", "amenity": "bank", "atm": "yes", "brand": "Berliner Sparkasse", "brand:wikidata": "Q821760", "brand:wikipedia": "de:Berliner_Sparkasse", "check_date:opening_hours": "2024-02-18", "contact:website": "https://www.berliner-sparkasse.de/de/home/service/filiale-finden.html?n=true#details/60567", "mapillary": "348730856587355", "name": "Berliner Sparkasse SB-Service", "opening_hours": "Mo-Fr 06:00-23:00; Sa,Su 08:00-23:00", "operator": "Berliner Sparkasse", "wheelchair": "limited"}}, {"type": "node", "id": 447946785, "lat": 52.4847666, "lon": 13.3846979, "tags": {"amenity": "bank", "brand": "Postbank", "brand:wikidata": "Q708835", "brand:wikipedia": "de:Postbank", "check_date": "2023-09-14", "check_date:opening_hours": "2023-08-23", "name": "@Surfpoint", "opening_hours": "Mo-Fr 10:00-18:00; Sa 10:00-12:30", "wheelchair": "yes"}}, {"type": "node", "id": 448810337, "lat": 52.4804888, "lon": 13.4361289, "tags": {"addr:city": "Berlin", "addr:country": "DE", "addr:housenumber": "91", "addr:postcode": "12043", "addr:street": "Karl-Marx-Stra\u00dfe", "addr:suburb": "Neuk\u00f6lln", "amenity": "bank", "atm": "yes", "brand": "Berliner Sparkasse", "brand:wikidata": "Q821760", "brand:wikipedia": "de:Berliner_Sparkasse", "check_date:opening_hours": "2022-11-12", "contact:fax": "+49 30 869740314", "contact:phone": "+49 30 86986969", "contact:website": "https://www.sparkasse.de/filialen/b/berliner-sparkasse-beratungscenter-neukoelln/140289.html", "name": "Sparkasse", "opening_hours": "Mo,We,Fr 09:30-15:00; Tu,Th 09:30-18:00", "opening_hours:atm": "24/7", "operator": "Berliner Sparkasse", "ref": "PKC 141", "wheelchair": "limited"}}, {"type": "node", "id": 450688374, "lat": 52.5371926, "lon": 13.2039561, "tags": {"amenity": "bank", "atm": "yes", "brand": "Berliner Volksbank", "brand:wikidata": "Q821855", "brand:wikipedia": "de:Berliner Volksbank", "check_date": "2023-05-27", "name": "Berliner Volksbank", "wheelchair": "limited"}}, {"type": "node", "id": 454206542, "lat": 52.5061264, "lon": 13.3066124, "tags": {"addr:city": "Berlin", "addr:country": "DE", "addr:housenumber": "65", "addr:postcode": "10627", "addr:street": "Wilmersdorfer Stra\u00dfe", "addr:suburb": "Charlottenburg", "amenity": "bank", "atm": "yes", "brand": "Berliner Volksbank", "brand:wikidata": "Q821855", "brand:wikipedia": "de:Berliner Volksbank", "name": "Berliner Volksbank", "opening_hours": "Mo-Fr 10:00-13:00, Mo 14:00-16:00, Tu,Th 14:00-18:00", "wheelchair": "yes"}}, {"type": "node", "id": 467821680, "lat": 52.4883294, "lon": 13.425376, "tags": {"addr:city": "Berlin", "addr:housenumber": "63/64", "addr:postcode": "10967", "addr:street": "Kottbusser Damm", "amenity": "bank", "atm": "yes", "atm:network": "Volksbank", "branch": "FinanzCenter Neuk\u00f6lln", "brand": "Berliner Volksbank", "brand:wikidata": "Q821855", "drive_through": "no", "name": "Berliner Volksbank", "opening_hours": "Tu,Th 10:00-13:00,14:00-18:00; We,Fr 10:00-13:00; Mo 10:00-13:00,14:00-16:00", "operator": "Berliner Volksbank", "wheelchair": "yes"}}, {"type": "node", "id": 469293560, "lat": 52.5715907, "lon": 13.4114826, "tags": {"addr:city": "Berlin", "addr:country": "DE", "addr:housenumber": "4b", "addr:postcode": "13187", "addr:street": "Breite Stra\u00dfe", "addr:suburb": "Pankow", "amenity": "bank", "atm": "yes", "brand": "Commerzbank", "brand:wikidata": "Q157617", "brand:wikipedia": "de:Commerzbank", "name": "Commerzbank", "opening_hours": "Mo-Fr 09:00-13:00, Tu 14:00-16:00, Th 14:00-18:00", "phone": "+4930315362700", "website": "https://www.commerzbank.de/", "wheelchair": "yes"}}, {"type": "node", "id": 472430734, "lat": 52.4311032, "lon": 13.4568179, "tags": {"amenity": "bank", "atm": "yes", "brand": "Targobank", "brand:wikidata": "Q1455437", "brand:wikipedia": "en:Targobank", "name": "Targobank", "operator": "Targobank", "wheelchair": "limited"}}, {"type": "node", "id": 472430735, "lat": 52.4307672, "lon": 13.455791, "tags": {"addr:city": "Berlin", "addr:country": "DE", "addr:housenumber": "300", "addr:postcode": "12351", "addr:street": "Johannisthaler Chaussee", "addr:suburb": "Gropiusstadt", "amenity": "bank", "atm": "yes", "brand": "Deutsche Bank", "brand:wikidata": "Q66048", "brand:wikipedia": "en:Deutsche Bank", "name": "Deutsche Bank", "phone": "+49306600670", "website": "https://www.deutsche-bank.de/", "wheelchair": "yes"}}, {"type": "node", "id": 472514884, "lat": 52.4908662, "lon": 13.4574268, "tags": {"addr:city": "Berlin", "addr:housenumber": "14", "addr:postcode": "12435", "addr:street": "Am Treptower Park", "amenity": "bank", "atm": "yes", "cash_in": "yes", "check_date": "2024-08-21", "name": "Sparkasse SB-Center", "opening_hours": "Mo-Su 08:00-22:00", "operator": "Berliner Sparkasse", "ref": "PKC 154", "self_service": "only", "wheelchair": "yes"}}, {"type": "node", "id": 486078400, "lat": 52.5437749, "lon": 13.546687, "tags": {"addr:city": "Berlin", "addr:housenumber": "25", "addr:postcode": "12679", "addr:street": "Marzahner Promenade", "amenity": "bank", "brand": "Deutsche Bank", "brand:wikidata": "Q66048", "brand:wikipedia": "en:Deutsche Bank", "name": "Deutsche Bank", "opening_hours": "Mo,Tu,Th 10:00-12:30,14:00-18:00; We,Fr 10:00-14:00", "wheelchair": "limited"}}, {"type": "node", "id": 493681654, "lat": 52.5106007, "lon": 13.2969401, "tags": {"addr:city": "Berlin", "addr:country": "DE", "addr:housenumber": "118", "addr:postcode": "14057", "addr:street": "Kaiserdamm", "addr:suburb": "Charlottenburg", "amenity": "bank", "brand": "Commerzbank", "brand:wikidata": "Q157617", "brand:wikipedia": "de:Commerzbank", "check_date": "2023-10-02", "name": "Commerzbank", "opening_hours": "Mo-We 09:00-13:00, Mo 14:00-16:00, Tu,Th 14:30-18:00", "wheelchair": "no"}}, {"type": "node", "id": 493681656, "lat": 52.5107652, "lon": 13.2981039, "tags": {"addr:city": "Berlin", "addr:country": "DE", "addr:housenumber": "68", "addr:postcode": "10627", "addr:street": "Bismarckstra\u00dfe", "addr:suburb": "Charlottenburg", "amenity": "bank", "atm": "yes", "brand": "Deutsche Bank", "brand:wikidata": "Q66048", "brand:wikipedia": "en:Deutsche Bank", "name": "Deutsche Bank", "network": "Cash Group", "opening_hours": "Mo-Th 10:00-18:00, Fr 10:00-14:00", "wheelchair": "yes"}}, {"type": "node", "id": 500086133, "lat": 52.4767912, "lon": 13.2802998, "tags": {"addr:city": "Berlin", "addr:country": "DE", "addr:housenumber": "95", "addr:postcode": "14199", "addr:street": "Hohenzollerndamm", "addr:suburb": "Grunewald", "amenity": "bank", "atm": "yes", "brand": "Berliner Volksbank", "brand:wikidata": "Q821855", "brand:wikipedia": "de:Berliner Volksbank", "check_date": "2023-11-01", "name": "Berliner Volksbank", "wheelchair": "yes"}}, {"type": "node", "id": 500339585, "lat": 52.5139618, "lon": 13.4746576, "tags": {"addr:city": "Berlin", "addr:housenumber": "111", "addr:postcode": "10247", "addr:street": "Frankfurter Allee", "amenity": "bank", "atm": "yes", "check_date:opening_hours": "2024-03-27", "drive_through": "no", "level": "0", "name": "Sparkasse", "opening_hours": "Mo-Fr 09:30-18:00; PH off", "operator": "Berliner Sparkasse", "ref": "PKC 057", "wheelchair": "yes"}}, {"type": "node", "id": 508423750, "lat": 52.4774757, "lon": 13.2810552, "tags": {"addr:city": "Berlin", "addr:country": "DE", "addr:housenumber": "42", "addr:postcode": "14193", "addr:street": "Teplitzer Stra\u00dfe", "addr:suburb": "Schmargendorf", "amenity": "bank", "atm": "yes", "branch": "Berlin-Roseneck", "brand": "Commerzbank", "brand:wikidata": "Q157617", "brand:wikipedia": "de:Commerzbank", "contact:website": "https://filialsuche.commerzbank.de/de/branch-name/Berlin-Roseneck", "drive_through": "no", "fax": "+4969405650299", "level": "0", "name": "Commerzbank", "opening_hours": "Mo, We, Fr 09:00-13:00; Tu 09:00-13:00,14:00-16:00; Th 09:00-13:00,14:00-18:00; Sa, Su, PH off", "phone": "+4930315360800", "source": "Geoportal Berlin / Hauskoordinaten", "wheelchair": "no"}}, {"type": "node", "id": 508504964, "lat": 52.4584176, "lon": 13.5788701, "tags": {"addr:city": "Berlin", "addr:housenumber": "33-38", "addr:postcode": "12555", "addr:street": "Bahnhofstra\u00dfe", "amenity": "bank", "atm": "yes", "level": "0", "name": "Sparkasse", "opening_hours": "Mo,We,Fr 09:30-15:00; PH off; Tu,Th 09:30-18:00", "operator": "Berliner Sparkasse", "ref": "PKC 165", "wheelchair": "yes"}}, {"type": "node", "id": 508657349, "lat": 52.5878887, "lon": 13.2851036, "tags": {"amenity": "bank", "atm": "yes", "brand": "Targobank", "brand:wikidata": "Q1455437", "brand:wikipedia": "en:Targobank", "check_date": "2023-07-25", "name": "Targobank", "opening_hours": "24/7", "operator": "Targo Bank", "wheelchair": "no"}}, {"type": "node", "id": 510622166, "lat": 52.4580147, "lon": 13.3844309, "tags": {"amenity": "bank", "atm": "yes", "brand": "Targobank", "brand:wikidata": "Q1455437", "brand:wikipedia": "en:Targobank", "check_date": "2023-08-04", "name": "Targobank", "name:ja": "\u30bf\u30eb\u30b4\u9280\u884c", "operator": "Targobank", "wheelchair": "limited"}}, {"type": "node", "id": 514784167, "lat": 52.5140938, "lon": 13.4771868, "tags": {"addr:city": "Berlin", "addr:country": "DE", "addr:housenumber": "113-117", "addr:postcode": "10365", "addr:street": "Frankfurter Allee", "addr:suburb": "Lichtenberg", "amenity": "bank", "atm": "yes", "brand": "Deutsche Bank", "brand:wikidata": "Q66048", "brand:wikipedia": "en:Deutsche Bank", "check_date:opening_hours": "2025-03-25", "level": "0", "name": "Deutsche Bank", "opening_hours": "Mo,Tu,Th 10:00-12:30, We,Fr 10:00-14:00; PH off, Mo,Tu,Th 14:00-18:00", "wheelchair": "yes"}}, {"type": "node", "id": 520518096, "lat": 52.5123669, "lon": 13.314511, "tags": {"addr:city": "Berlin", "addr:country": "DE", "addr:housenumber": "100", "addr:postcode": "10625", "addr:street": "Leibnizstra\u00dfe", "addr:suburb": "Charlottenburg", "amenity": "bank", "atm": "yes", "atm:opening_hours": "Mo-Su,PH 05:00-23:00", "brand": "HypoVereinsbank", "brand:wikidata": "Q220189", "brand:wikipedia": "en:HypoVereinsbank", "check_date": "2023-06-29", "contact:phone": "+49 30 340040", "drive_through": "no", "name": "HypoVereinsbank", "network": "Cash Group", "opening_hours": "Mo,We,Fr 10:00-13:00; Tu,Th 10:00-13:00,15:30-18:00; Sa-Su,PH off", "wheelchair": "yes"}}, {"type": "node", "id": 520518112, "lat": 52.5060841, "lon": 13.3255831, "tags": {"addr:city": "Berlin", "addr:country": "DE", "addr:housenumber": "9", "addr:postcode": "10623", "addr:street": "Uhlandstra\u00dfe", "addr:suburb": "Charlottenburg", "amenity": "bank", "atm": "yes", "branch": "Berlin Uhlandstra\u00dfe", "brand": "Commerzbank", "brand:wikidata": "Q157617", "brand:wikipedia": "de:Commerzbank", "contact:fax": "+49 30 767668-140", "contact:phone": "+49 30 767668-0", "name": "Commerzbank", "opening_hours": "Mo-Fr 08:00-19:30", "operator": "Commerzbank AG", "wheelchair": "yes"}}, {"type": "node", "id": 534020277, "lat": 52.4565864, "lon": 13.5103657, "tags": {"addr:city": "Berlin", "addr:country": "DE", "addr:housenumber": "128", "addr:postcode": "12439", "addr:street": "Schnellerstra\u00dfe", "amenity": "bank", "atm": "yes", "check_date": "2025-06-10", "name": "Sparkasse", "opening_hours": "Mo,We,Fr 09:30-15:00; Tu,Th 09:30-13:30,15:00-18:00", "operator": "Berliner Sparkasse", "phone": "+49 30 869 86 969", "ref": "PKC 151", "website": "https://www.berliner-sparkasse.de", "wheelchair": "yes"}}, {"type": "node", "id": 534893143, "lat": 52.4833445, "lon": 13.2927933, "tags": {"amenity": "bank", "atm": "yes", "name": "Weberbank", "opening_hours": "Mo-Th 09:00-18:00; Fr 09:00-16:00", "toilets:wheelchair": "yes", "wheelchair": "yes", "wikidata": "Q2553457", "wikipedia": "de:Weberbank"}}, {"type": "node", "id": 536434838, "lat": 52.4044954, "lon": 13.2194203, "tags": {"addr:city": "Kleinmachnow", "addr:country": "DE", "addr:housenumber": "104", "addr:postcode": "14532", "addr:street": "F\u00f6rster-Funke-Allee", "amenity": "bank", "atm": "yes", "bic": "WELA DE D1 PMB", "brand": "Mittelbrandenburgische Sparkasse", "brand:wikidata": "Q1940058", "brand:wikipedia": "de:Mittelbrandenburgische Sparkasse", "name": "Mittelbrandenburgische Sparkasse", "operator": "Mittelbrandenburgische Sparkasse", "wheelchair": "yes"}}, {"type": "node", "id": 540771894, "lat": 52.5160389, "lon": 13.4125772, "tags": {"addr:city": "Berlin", "addr:country": "DE", "addr:housenumber": "62", "addr:postcode": "10179", "addr:street": "Klosterstra\u00dfe", "addr:suburb": "Mitte", "amenity": "bank", "atm": "no", "description": "Headquarters of N26 Bank GmbH - https://n26.com/", "name": "N26 Bank GmbH", "opening_hours": "Mo-Sa 07:00-21:00"}}, {"type": "node", "id": 554098383, "lat": 52.5424561, "lon": 13.4898888, "tags": {"amenity": "bank", "atm": "yes", "brand": "Commerzbank", "brand:wikidata": "Q157617", "brand:wikipedia": "de:Commerzbank", "check_date:opening_hours": "2024-09-26", "name": "Commerzbank", "opening_hours": "Mo-Fr 09:00-13:00, Tu,Th 14:00-16:00", "wheelchair": "yes"}}, {"type": "node", "id": 560436662, "lat": 52.4672823, "lon": 13.4888286, "tags": {"addr:city": "Berlin", "addr:country": "DE", "addr:housenumber": "96", "addr:postcode": "12437", "addr:street": "Baumschulenstra\u00dfe", "addr:suburb": "Baumschulenweg", "amenity": "bank", "atm": "yes", "brand": "Berliner Volksbank", "brand:wikidata": "Q821855", "brand:wikipedia": "de:Berliner Volksbank", "contact:email": "service@berliner-volksbank.de", "contact:phone": "+49 30 30633300", "contact:website": "https://www.berliner-volksbank.de", "name": "Berliner Volksbank", "opening_hours": "Mo-Fr 10:00-13:00, Mo 14:00-16:00, Tu,Th 14:00-18:00", "operator": "Berliner Volksbank eG", "wheelchair": "no"}}, {"type": "node", "id": 574458715, "lat": 52.5126012, "lon": 13.3893178, "tags": {"addr:city": "Berlin", "addr:country": "DE", "addr:housenumber": "181", "addr:postcode": "10117", "addr:street": "Friedrichstra\u00dfe", "addr:suburb": "Mitte", "amenity": "bank", "atm": "separate", "brand": "Deutsche Bank", "brand:wikidata": "Q66048", "brand:wikipedia": "en:Deutsche Bank", "description": "Flagship branch incl. retail area", "drive_through": "no", "image": "https://www.db-bauzeitung.de/wp-content/uploads/4/8/481045.jpg;https://q-gallery.de/wp-content/uploads/2021/07/Blick-in-die-Gallery-Froschperspektive.jpg;https://mitvergnuegen.com/wp-content/uploads/2018/10/01_m-coworking-quartier-zukunft_gewaechshaus.jpg", "name": "Deutsche Bank Quartier Zukunft", "opening_hours": "Mo-Sa 10:00-18:00; PH closed", "phone": "+49 30 4606110", "short_name": "Quartier Zukunft;Deutsche Bank", "website": "https://www.deutsche-bank.de/ms/quartierzukunft/de/home.html", "wheelchair": "yes"}}, {"type": "node", "id": 588557534, "lat": 52.5479896, "lon": 13.4497608, "tags": {"addr:city": "Berlin", "addr:country": "DE", "addr:housenumber": "19", "addr:postcode": "13088", "addr:street": "Berliner Allee", "amenity": "bank", "atm": "yes", "brand": "Berliner Volksbank", "brand:wikidata": "Q821855", "brand:wikipedia": "de:Berliner Volksbank", "check_date": "2025-06-21", "check_date:opening_hours": "2025-06-21", "name": "Berliner Volksbank", "opening_hours": "Mo-Su 06:00-23:00", "wheelchair": "yes"}}, {"type": "node", "id": 588557537, "lat": 52.5482051, "lon": 13.4514665, "tags": {"addr:city": "Berlin", "addr:country": "DE", "addr:housenumber": "36", "addr:postcode": "13088", "addr:street": "Berliner Allee", "addr:suburb": "Wei\u00dfensee", "amenity": "bank", "atm": "yes", "brand": "Targobank", "brand:wikidata": "Q1455437", "brand:wikipedia": "en:Targobank", "name": "Targobank", "opening_hours": "Mo-Fr 10:00-13:00, Tu 14:00-18:00", "operator": "Targobank", "source": "Geoportal Berlin / Hauskoordinaten", "wheelchair": "yes"}}, {"type": "node", "id": 597276443, "lat": 52.5634416, "lon": 13.3278923, "tags": {"amenity": "bank", "atm": "yes", "brand": "Commerzbank", "brand:wikidata": "Q157617", "brand:wikipedia": "de:Commerzbank", "check_date:opening_hours": "2024-04-21", "level": "0", "name": "Commerzbank", "opening_hours": "Mo-Th 09:00-13:00, Fr 09:00-14:00, Mo,We 14:00-16:00, Tu,Th 14:30-18:00", "wheelchair": "yes"}}, {"type": "node", "id": 609820507, "lat": 52.4783903, "lon": 13.7004164, "tags": {"addr:city": "Sch\u00f6neiche bei Berlin", "addr:country": "DE", "addr:housenumber": "78", "addr:postcode": "15566", "addr:street": "Heuweg", "amenity": "bank", "atm": "yes", "level": "0", "name": "Sparkasse Oder-Spree - Gesch\u00e4ftsstelle Sch\u00f6neiche", "opening_hours": "Mo 09:00-13:00, 14:00-16:00; Tu,Th 09:00-13:00, 14:00-18:00; We,Fr 09:00-13:00", "phone": "+49 335 5541 2540", "website": "https://www.s-os.de", "wheelchair": "yes"}}, {"type": "node", "id": 610317477, "lat": 52.3868293, "lon": 13.4040655, "tags": {"addr:city": "Berlin", "addr:country": "DE", "addr:postcode": "12305", "addr:street": "Bahnhofstra\u00dfe", "addr:suburb": "Lichtenrade", "amenity": "bank", "atm": "yes", "brand": "Commerzbank", "brand:wikidata": "Q157617", "brand:wikipedia": "de:Commerzbank", "name": "Commerzbank", "old_name": "Dresdner Bank", "opening_hours": "Mo-Fr 09:00-13:00, Tu,Th 14:00-18:00", "operator": "Commerzbank", "wheelchair": "yes"}}, {"type": "node", "id": 616300424, "lat": 52.5088354, "lon": 13.3044726, "tags": {"addr:city": "Berlin", "addr:country": "DE", "addr:housenumber": "46", "addr:postcode": "10627", "addr:street": "Wilmersdorfer Stra\u00dfe", "addr:suburb": "Charlottenburg", "amenity": "bank", "brand": "Postbank", "brand:wikidata": "Q708835", "brand:wikipedia": "de:Postbank", "check_date": "2025-07-11", "level": "1", "name": "Postbank", "opening_hours": "Mo-Fr 09:00-18:00; Sa 10:00-14:00; Su,PH off", "wheelchair": "yes"}}, {"type": "node", "id": 622663107, "lat": 52.5460255, "lon": 13.5924192, "tags": {"amenity": "bank", "atm": "yes", "brand": "Sparda-Bank Berlin", "brand:wikidata": "Q1656189", "brand:wikipedia": "de:Sparda-Bank (Deutschland)", "contact:website": "https://www.sparda-b.de/", "name": "Sparda-Bank Berlin", "opening_hours": "Mo-Th 09:00-13:00,14:00-18:00, We,Fr 09:00-13:00; PH off", "operator": "Sparda-Bank Berlin eG", "wheelchair": "limited"}}, {"type": "node", "id": 638774236, "lat": 52.5071219, "lon": 13.3241984}, {"type": "node", "id": 638774237, "lat": 52.5071583, "lon": 13.3245903}, {"type": "node", "id": 638774240, "lat": 52.5071821, "lon": 13.3245384}, {"type": "node", "id": 638774242, "lat": 52.5072599, "lon": 13.3243631}, {"type": "node", "id": 643509398, "lat": 52.5493977, "lon": 13.3888512, "tags": {"addr:city": "Berlin", "addr:country": "DE", "addr:housenumber": "4", "addr:postcode": "13357", "addr:street": "Badstra\u00dfe", "amenity": "bank", "atm": "yes", "check_date": "2024-09-18", "level": "0", "name": "Sparkasse", "opening_hours": "Mo,We,Fr 09:30-15:00; Tu,Th 09:30-18:00", "operator": "Berliner Sparkasse", "ref": "PKC 032", "wheelchair": "yes"}}, {"type": "node", "id": 652431954, "lat": 52.4295618, "lon": 13.4552885, "tags": {"addr:city": "Berlin", "addr:country": "DE", "addr:housenumber": "307", "addr:postcode": "12351", "addr:street": "Johannisthaler Chaussee", "addr:suburb": "Gropiusstadt", "amenity": "bank", "atm": "yes", "branch": "Berlin Gropiuspassagen", "brand": "Commerzbank", "brand:wikidata": "Q157617", "brand:wikipedia": "de:Commerzbank", "name": "Commerzbank", "opening_hours": "Mo,We 09:00-13:00,14:00-16:00; Tu,Th 09:00-13:00,14:30-18:00; Fr 09:00-14:00", "phone": "+49306668930", "website": "https://www.commerzbank.de", "wheelchair": "yes"}}, {"type": "node", "id": 652718726, "lat": 52.4891489, "lon": 13.289254, "tags": {"amenity": "bank", "check_date:opening_hours": "2022-06-05", "name": "Gries & Heissel Bankiers", "opening_hours:signed": "no"}}, {"type": "node", "id": 652724916, "lat": 52.474255, "lon": 13.2949251, "tags": {"addr:city": "Berlin", "addr:housenumber": "12", "addr:postcode": "14199", "addr:street": "Breite Stra\u00dfe", "amenity": "bank", "atm": "yes", "check_date:opening_hours": "2024-02-12", "name": "Sparkasse", "opening_hours": "Mo,We,Fr 09:30-15:00; Tu,Th 09:30-18:00", "operator": "Berliner Sparkasse", "ref": "PKC 093", "wheelchair": "yes"}}, {"type": "node", "id": 656210656, "lat": 52.5325968, "lon": 13.1578795, "tags": {"addr:city": "Berlin", "addr:housenumber": "261-263", "addr:postcode": "13591", "addr:street": "Brunsb\u00fctteler Damm", "addr:suburb": "Staaken", "amenity": "bank", "atm": "yes", "name": "Sparkasse", "opening_hours": "Mo,We,Fr 09:30-15:00; Tu,Th 09:30-18:00", "operator": "Berliner Sparkasse", "ref": "PKC 082", "wheelchair": "yes"}}, {"type": "node", "id": 660065068, "lat": 52.4147231, "lon": 13.4006215, "tags": {"addr:city": "Berlin", "addr:country": "DE", "addr:housenumber": "446", "addr:postcode": "12107", "addr:street": "Mariendorfer Damm", "addr:suburb": "Lichtenrade", "amenity": "bank", "atm": "yes", "bic": "BELADEBE", "check_date:opening_hours": "2022-11-15", "name": "Sparkasse", "opening_hours": "Mo,We,Fr 09:30-15:00; Tu,Th 09:30-18:00", "operator": "Berliner Sparkasse", "ref": "PKC 149", "wheelchair": "yes"}}, {"type": "node", "id": 660065069, "lat": 52.4150801, "lon": 13.4004923, "tags": {"addr:city": "Berlin", "addr:country": "DE", "addr:housenumber": "444", "addr:postcode": "12107", "addr:street": "Mariendorfer Damm", "addr:suburb": "Lichtenrade", "amenity": "bank", "atm": "yes", "brand": "Deutsche Bank", "brand:wikidata": "Q66048", "name": "Deutsche Bank", "operator": "Deutsche Bank", "wheelchair": "yes"}}, {"type": "node", "id": 667211363, "lat": 52.5129532, "lon": 13.2668736, "tags": {"addr:city": "Berlin", "addr:country": "DE", "addr:postcode": "14052", "addr:street": "Reichsstra\u00dfe", "addr:suburb": "Westend", "amenity": "bank", "atm": "yes", "brand": "Berliner Volksbank", "brand:wikidata": "Q821855", "brand:wikipedia": "de:Berliner Volksbank", "name": "Berliner Volksbank", "opening_hours": "Mo-Fr 10:00-13:00", "wheelchair": "yes"}}, {"type": "node", "id": 667864326, "lat": 52.6328863, "lon": 13.2916214, "tags": {"addr:city": "Berlin", "addr:housenumber": "10-14", "addr:postcode": "13465", "addr:street": "Zeltinger Platz", "addr:suburb": "Frohnau", "amenity": "bank", "atm": "yes", "branch": "Filiale 521", "brand": "Postbank", "brand:wikidata": "Q708835", "check_date:opening_hours": "2024-04-07", "contact:phone": "+49 180 2 3333", "name": "Postbank", "opening_hours": "Mo-Fr 09:00-18:00; Sa 09:00-14:00", "operator": "Postbank", "operator:wikidata": "Q708835", "post_office": "post_partner", "post_office:letter_from": "DHL;Deutsche Post", "post_office:parcel_from": "DHL;Deutsche Post", "post_office:parcel_pickup": "DHL;Deutsche Post", "post_office:parcel_to": "yes", "post_office:stamps": "DHL;Deutsche Post", "wheelchair": "yes"}}, {"type": "node", "id": 671776291, "lat": 52.5092417, "lon": 13.2660531, "tags": {"amenity": "bank", "name": "Bankhaus Dr. Masel AG"}}, {"type": "node", "id": 678417671, "lat": 52.4573282, "lon": 13.5785363, "tags": {"addr:city": "Berlin", "addr:housenumber": "19", "addr:postcode": "12555", "addr:street": "Bahnhofstra\u00dfe", "amenity": "bank", "atm": "yes", "brand": "Berliner Volksbank", "brand:wikidata": "Q821855", "brand:wikipedia": "de:Berliner Volksbank", "name": "Berliner Volksbank", "opening_hours": "Mo-Fr 10:00-13:00, Mo 14:00-16:30; PH off, Tu,Th 14:00-18:00", "operator": "Berliner Volksbank", "wheelchair": "limited"}}, {"type": "node", "id": 693046729, "lat": 52.4131968, "lon": 13.3531833, "tags": {"amenity": "bank", "atm": "yes", "name": "Berliner Sparkasse", "opening_hours": "Mo-Fr 06:00-23:00; Sa,Su 08:00-23:00", "wheelchair": "yes"}}, {"type": "node", "id": 698825083, "lat": 52.5661469, "lon": 13.500877, "tags": {"addr:city": "Berlin", "addr:housenumber": "21", "addr:postcode": "13051", "addr:street": "Zingster Stra\u00dfe", "amenity": "bank", "atm": "yes", "name": "Sparkasse", "operator": "Berliner Sparkasse", "wheelchair": "yes"}}, {"type": "node", "id": 701065511, "lat": 52.4208546, "lon": 13.4914244}, {"type": "node", "id": 701070442, "lat": 52.4184785, "lon": 13.496902, "tags": {"addr:city": "Berlin", "addr:housenumber": "184", "addr:postcode": "12355", "addr:street": "K\u00f6penicker Stra\u00dfe", "addr:suburb": "Rudow", "amenity": "bank", "atm": "yes", "brand": "Deutsche Bank", "brand:wikidata": "Q66048", "brand:wikipedia": "en:Deutsche Bank", "name": "Deutsche Bank", "wheelchair": "no"}}, {"type": "node", "id": 738234520, "lat": 52.5250994, "lon": 13.3701583}, {"type": "node", "id": 738234545, "lat": 52.525091, "lon": 13.3700569}, {"type": "node", "id": 747764174, "lat": 52.5251617, "lon": 13.370007}, {"type": "node", "id": 747764176, "lat": 52.5251755, "lon": 13.3702177}, {"type": "node", "id": 747764188, "lat": 52.5251534, "lon": 13.3698748}, {"type": "node", "id": 747764189, "lat": 52.5251073, "lon": 13.3702638}, {"type": "node", "id": 753090670, "lat": 52.4936804, "lon": 13.3878115, "tags": {"amenity": "bank", "brand": "Deutsche Bank", "brand:wikidata": "Q66048", "brand:wikipedia": "en:Deutsche Bank", "name": "Deutsche Bank", "opening_hours": "Mo,We,Fr 10:00-16:00; Tu,Th 10:00-19:00", "wheelchair": "limited"}}, {"type": "node", "id": 765566782, "lat": 52.4322675, "lon": 13.2587755, "tags": {"addr:city": "Berlin", "addr:country": "DE", "addr:housenumber": "26", "addr:postcode": "14169", "addr:street": "Teltower Damm", "addr:suburb": "Zehlendorf", "amenity": "bank", "atm": "yes", "brand": "Berliner Volksbank", "brand:wikidata": "Q821855", "brand:wikipedia": "de:Berliner Volksbank", "check_date": "2024-12-13", "contact:email": "service@berliner-volksbank.de", "contact:fax": "+49 30 631 550", "contact:phone": "+49 30 306 30", "contact:website": "http://www.berliner-volksbank.de", "name": "Berliner Volksbank", "opening_hours": "Mo-We,Fr 10:00-18:00, Th 10:00-19:30", "wheelchair": "yes"}}, {"type": "node", "id": 772525671, "lat": 52.3868166, "lon": 13.4035311, "tags": {"addr:city": "Berlin", "addr:country": "DE", "addr:postcode": "12305", "addr:street": "Bahnhofstra\u00dfe", "addr:suburb": "Lichtenrade", "amenity": "bank", "atm": "yes", "brand": "Targobank", "brand:wikidata": "Q1455437", "brand:wikipedia": "en:Targobank", "check_date": "2023-06-26", "name": "Targobank", "opening_hours": "24/7", "wheelchair": "yes"}}, {"type": "node", "id": 773267657, "lat": 52.5540922, "lon": 13.4141826, "tags": {"amenity": "bank", "atm": "yes", "brand": "Berliner Volksbank", "brand:wikidata": "Q821855", "brand:wikipedia": "de:Berliner Volksbank", "name": "Berliner Volksbank", "opening_hours": "Mo-Tu, Th 10:00-13:00, 14:00-16:00; We, Fr 10:00-13:00", "operator": "Berliner Volksbank", "wheelchair": "yes"}}, {"type": "node", "id": 774451286, "lat": 52.51578, "lon": 13.669626}, {"type": "node", "id": 774451287, "lat": 52.5157885, "lon": 13.6698546}, {"type": "node", "id": 774451289, "lat": 52.5159319, "lon": 13.6698401}, {"type": "node", "id": 775814260, "lat": 52.5934756, "lon": 13.3337207, "tags": {"amenity": "bank", "atm": "yes", "brand": "Berliner Volksbank", "brand:wikidata": "Q821855", "brand:wikipedia": "de:Berliner Volksbank", "check_date": "2023-09-10", "name": "Berliner Volksbank", "opening_hours": "\"Filiale geschlossen\"", "wheelchair": "no"}}, {"type": "node", "id": 808391024, "lat": 52.5665645, "lon": 13.5197431, "tags": {"addr:city": "Berlin", "addr:housenumber": "6", "addr:postcode": "13057", "addr:street": "Warnitzer Stra\u00dfe", "amenity": "bank", "atm": "yes", "name": "Sparkasse", "opening_hours": "Mo,We,Fr 09:30-15:00; Tu,Th 09:30-18:00", "operator": "Berliner Sparkasse", "ref": "PKC 232", "wheelchair": "yes"}}, {"type": "node", "id": 808406151, "lat": 52.6324225, "lon": 13.287017, "tags": {"addr:city": "Berlin", "addr:housenumber": "8-8a", "addr:postcode": "13465", "addr:street": "Ludolfingerplatz", "amenity": "bank", "atm": "yes", "check_date:opening_hours": "2024-08-11", "name": "Sparkasse", "opening_hours": "Mo,We,Fr 09:30-15:00; Tu,Th 09:30-18:00", "operator": "Berliner Sparkasse", "ref": "PKC 206", "wheelchair": "yes"}}, {"type": "node", "id": 831811519, "lat": 52.5694978, "lon": 13.4027849, "tags": {"amenity": "bank", "atm": "yes", "brand": "Sparda-Bank Berlin", "brand:wikidata": "Q1656189", "brand:wikipedia": "de:Sparda-Bank Berlin", "check_date": "2025-05-06", "check_date:opening_hours": "2025-05-06", "name": "Sparda-Bank Berlin", "opening_hours": "Mo-We 09:00-13:00, Tu 14:00-18:00", "website": "https://www.sparda-b.de", "wheelchair": "yes"}}, {"type": "node", "id": 831811524, "lat": 52.569363, "lon": 13.401952, "tags": {"amenity": "bank", "atm": "yes", "brand": "Targobank", "brand:wikidata": "Q1455437", "brand:wikipedia": "en:Targobank", "check_date": "2025-05-06", "check_date:opening_hours": "2025-05-06", "drive_through": "no", "name": "Targobank", "opening_hours": "Mo-Fr 10:00-13:00, Mo,Tu,Th 14:00-18:00", "wheelchair": "yes"}}, {"type": "node", "id": 837792490, "lat": 52.6068092, "lon": 13.3251975, "tags": {"addr:city": "Berlin", "addr:country": "DE", "addr:housenumber": "6-10", "addr:postcode": "13469", "addr:street": "Oraniendamm", "addr:suburb": "Waidmannslust", "amenity": "bank", "atm": "yes", "check_date": "2025-07-16", "check_date:opening_hours": "2025-07-16", "name": "Sparkasse", "opening_hours": "Mo,We,Fr 09:30-15:00; Tu,Th 09:30-18:00", "operator": "Berliner Sparkasse", "ref": "PKC 209", "wheelchair": "limited"}}, {"type": "node", "id": 845268870, "lat": 52.4375561, "lon": 13.5468079, "tags": {"addr:city": "Berlin", "addr:country": "DE", "addr:housenumber": "40-42", "addr:postcode": "12489", "addr:street": "D\u00f6rpfeldstra\u00dfe", "addr:suburb": "Adlershof", "amenity": "bank", "atm": "yes", "cash_in": "yes", "check_date": "2025-04-06", "drive_through": "no", "name": "Sparkasse", "opening_hours": "Mo,We,Fr 09:30-15:00; Tu,Th 09:30-18:00", "operator": "Berliner Sparkasse", "ref": "PKC 152", "wheelchair": "limited"}}, {"type": "node", "id": 847229074, "lat": 52.6319119, "lon": 13.2876529, "tags": {"amenity": "bank", "atm": "yes", "brand": "Berliner Volksbank", "brand:wikidata": "Q821855", "check_date:opening_hours": "2024-08-11", "name": "Berliner Volksbank", "opening_hours": "Mo-Fr 10:00-13:00", "operator": "Berliner Volksbank eG", "wheelchair": "limited"}}, {"type": "node", "id": 876978848, "lat": 52.4395374, "lon": 13.2150745, "tags": {"amenity": "bank", "atm": "yes", "brand": "Commerzbank", "brand:wikidata": "Q157617", "name": "Commerzbank", "opening_hours": "Mo,We 09:00-13:00,14:00-16:00, Tu,Th 09:00-13:00,14:30-18:00, Fr 09:00-14:00", "wheelchair": "yes"}}, {"type": "node", "id": 908158405, "lat": 52.5049536, "lon": 13.3408648, "tags": {"addr:city": "Berlin", "addr:country": "DE", "addr:housenumber": "37", "addr:postcode": "10787", "addr:street": "Budapester Stra\u00dfe", "amenity": "bank", "atm": "yes", "brand": "Santander", "brand:wikidata": "Q875292", "brand:wikipedia": "en:Santander Bank", "check_date:opening_hours": "2025-05-23", "entrance": "main", "name": "Santander", "opening_hours": "Mo,Tu,Th 09:00-13:00,14:00-18:00; We 09:00-13:00,14:00-16:00; Fr 09:00-14:00", "ref": "37", "wheelchair": "yes"}}, {"type": "node", "id": 922413798, "lat": 52.418913, "lon": 13.1572885, "tags": {"addr:city": "Berlin", "addr:country": "DE", "addr:housenumber": "56", "addr:postcode": "14109", "addr:street": "K\u00f6nigstra\u00dfe", "addr:suburb": "Wannsee", "amenity": "bank", "atm": "yes", "brand": "Postbank", "brand:wikidata": "Q708835", "brand:wikipedia": "de:Postbank", "contact:phone": "+491803040500", "contact:website": "http://www.postbank.de/", "name": "Postbank", "wheelchair": "yes"}}, {"type": "node", "id": 922750362, "lat": 52.478157, "lon": 13.4378661, "tags": {"amenity": "bank", "brand": "Targobank", "brand:wikidata": "Q1455437", "brand:wikipedia": "en:Targobank", "name": "Targobank", "opening_hours": "Mo-Fr 10:00-13:00, Mo,Tu,Th 14:00-18:00", "wheelchair": "no"}}, {"type": "node", "id": 932279284, "lat": 52.389307, "lon": 13.4984976, "tags": {"amenity": "bank", "atm": "yes", "name": "Sparkasse", "operator": "Ostdeutscher Sparkassenverbund", "wheelchair": "limited"}}, {"type": "node", "id": 972897848, "lat": 52.4329592, "lon": 13.2596656, "tags": {"addr:city": "Berlin", "addr:country": "DE", "addr:housenumber": "21", "addr:postcode": "14169", "addr:street": "Teltower Damm", "addr:suburb": "Zehlendorf", "amenity": "bank", "atm": "yes", "check_date:opening_hours": "2024-10-19", "contact:phone": "+49 30 86986969", "contact:website": "https://www.berliner-sparkasse.de", "entrance": "main", "name": "Sparkasse", "opening_hours": "Mo,We,Fr 09:30-15:00; Tu,Th 09:30-18:00", "operator": "Berliner Sparkasse", "ref": "PKC 101", "wheelchair": "yes"}}, {"type": "node", "id": 982352248, "lat": 52.6628619, "lon": 13.3782788, "tags": {"addr:city": "M\u00fchlenbecker Land", "addr:country": "DE", "addr:housenumber": "9", "addr:postcode": "16567", "addr:street": "Hauptstra\u00dfe", "addr:suburb": "M\u00fchlenbeck", "amenity": "bank", "atm": "yes", "brand": "Mittelbrandenburgische Sparkasse", "name": "Mittelbrandenburgische Sparkasse", "wheelchair": "yes"}}, {"type": "node", "id": 992730023, "lat": 52.5250816, "lon": 13.3699234}, {"type": "node", "id": 997312579, "lat": 52.5636211, "lon": 13.3291909, "tags": {"addr:city": "Berlin", "addr:country": "DE", "addr:housenumber": "14", "addr:postcode": "13405", "addr:street": "Scharnweberstra\u00dfe", "addr:suburb": "Reinickendorf", "amenity": "bank", "atm": "yes", "brand": "Berliner Volksbank", "brand:wikidata": "Q821855", "brand:wikipedia": "de:Berliner Volksbank", "check_date": "2023-07-03", "contact:website": "https://www.berliner-volksbank.de/", "name": "Berliner Volksbank", "opening_hours": "Mo-Th 10:00-13:00,14:00-18:00; We,Fr 10:00-13:00,14:00-16:00", "operator": "Berliner Volksbank eG", "wheelchair": "yes"}}, {"type": "node", "id": 1005311925, "lat": 52.6139469, "lon": 13.4706414, "tags": {"addr:city": "Berlin", "addr:housenumber": "61", "addr:postcode": "13125", "addr:street": "Bahnhofstra\u00dfe", "amenity": "bank", "atm": "yes", "name": "Sparkasse", "opening_hours": "Mo,We,Fr 09:30-15:00; Tu,Th 09:30-18:00", "operator": "Berliner Sparkasse", "ref": "PKC 186", "wheelchair": "yes"}}, {"type": "node", "id": 1023483201, "lat": 52.5134212, "lon": 13.3156221}, {"type": "node", "id": 1023483477, "lat": 52.5134488, "lon": 13.3151892}, {"type": "node", "id": 1023483588, "lat": 52.5132743, "lon": 13.3162978}, {"type": "node", "id": 1023483703, "lat": 52.513464, "lon": 13.3156304}, {"type": "node", "id": 1023483777, "lat": 52.5124075, "lon": 13.315742}, {"type": "node", "id": 1023483912, "lat": 52.5134437, "lon": 13.3153368}, {"type": "node", "id": 1023484057, "lat": 52.5133398, "lon": 13.3163197}, {"type": "node", "id": 1023484105, "lat": 52.513453, "lon": 13.3151208}, {"type": "node", "id": 1023499968, "lat": 52.5130848, "lon": 13.3162496}, {"type": "node", "id": 1023500009, "lat": 52.5127256, "lon": 13.3159108}, {"type": "node", "id": 1027076103, "lat": 52.5352162, "lon": 13.4957739, "tags": {"addr:city": "Berlin", "addr:housenumber": "277", "addr:postcode": "13055", "addr:street": "Landsberger Allee", "amenity": "bank", "atm": "yes", "check_date:opening_hours": "2024-05-26", "level": "0", "name": "Sparkasse", "opening_hours": "Mo,Tu,Th 09:30-18:00; We,Fr 09:30-15:00", "operator": "Berliner Sparkasse", "ref": "PKC 235", "wheelchair": "yes"}}, {"type": "node", "id": 1029813933, "lat": 52.4314922, "lon": 13.2595968, "tags": {"amenity": "bank", "name": "Sparkasse Verm\u00f6gensanlage Center", "wheelchair": "yes"}}, {"type": "node", "id": 1038558455, "lat": 52.4700732, "lon": 13.1015192, "tags": {"addr:city": "Potsdam", "addr:country": "DE", "addr:housenumber": "100", "addr:postcode": "14476", "addr:street": "Potsdamer Chaussee", "addr:suburb": "Gro\u00df Glienicke", "amenity": "bank", "atm": "yes", "name": "Sparkasse", "opening_hours": "Mo-Fr 09:00-12:30, Tu,Th 13:30-17:30", "operator": "Mittelbrandenburgische Sparkasse in Potsdam", "phone": "+49 33201 4120", "wheelchair": "yes"}}, {"type": "node", "id": 1082670211, "lat": 52.4358971, "lon": 13.2612377, "tags": {"addr:city": "Berlin", "amenity": "bank", "atm": "yes", "brand": "HypoVereinsbank", "brand:wikidata": "Q220189", "brand:wikipedia": "en:HypoVereinsbank", "entrance": "yes", "name": "HypoVereinsbank", "opening_hours": "\"Nur Termine\"", "wheelchair": "limited"}}, {"type": "node", "id": 1082679886, "lat": 52.4333305, "lon": 13.259864, "tags": {"addr:city": "Berlin", "addr:country": "DE", "addr:housenumber": "15", "addr:postcode": "14169", "addr:street": "Teltower Damm", "addr:suburb": "Zehlendorf", "amenity": "bank", "atm": "yes", "brand": "Commerzbank", "brand:wikidata": "Q157617", "brand:wikipedia": "de:Commerzbank", "contact:phone": "+49 30 81059650", "contact:website": "https://www.commerzbank.de/filialen/de/Berlin-Zehlendorf", "name": "Commerzbank", "opening_hours": "Mo,We 14:00-16:00, Tu,Th 14:00-18:00, Mo-Fr 09:00-13:00", "wheelchair": "yes"}}, {"type": "node", "id": 1094536340, "lat": 52.5969699, "lon": 13.3550498, "tags": {"addr:street": "Wilhelmsruher Damm", "amenity": "bank", "atm": "yes", "brand": "Targobank", "brand:wikidata": "Q1455437", "brand:wikipedia": "en:Targobank", "name": "Targobank", "opening_hours": "Mo,Tu,Th 10:00-13:00,14:00-18:00; We,Fr 10:00-13:00 || \"nach Vereinbarung\"", "wheelchair": "yes"}}, {"type": "node", "id": 1110318360, "lat": 52.4363635, "lon": 13.2615366, "tags": {"amenity": "bank", "atm": "yes", "brand": "Targobank", "brand:wikidata": "Q1455437", "brand:wikipedia": "en:Targobank", "entrance": "yes", "name": "Targobank", "opening_hours": "Mo-Fr 10:00-13:00, Tu,Th 14:00-18:00", "wheelchair": "yes"}}, {"type": "node", "id": 1111324834, "lat": 52.4019966, "lon": 13.2685761}, {"type": "node", "id": 1111324885, "lat": 52.4017906, "lon": 13.2686374}, {"type": "node", "id": 1111324890, "lat": 52.4018258, "lon": 13.2684761}, {"type": "node", "id": 1112151826, "lat": 52.5134461, "lon": 13.4749601, "tags": {"amenity": "bank", "atm": "yes", "brand": "Targobank", "brand:wikidata": "Q1455437", "brand:wikipedia": "en:Targobank", "contact:phone": "+49 30 206291944", "name": "Targobank", "opening_hours": "Mo-Fr 10:00-13:00, Mo,Tu,Th 14:00-18:00; PH off", "website": "https://www.targobank.de/de/index.html", "wheelchair": "limited"}}, {"type": "node", "id": 1147145754, "lat": 52.5408702, "lon": 13.4117627, "tags": {"addr:city": "Berlin", "addr:housenumber": "145", "addr:postcode": "10435", "addr:street": "Sch\u00f6nhauser Allee", "amenity": "bank", "atm": "yes", "check_date": "2024-06-10", "name": "Sparkasse", "opening_hours": "Mo-Th 09:30-18:00; Fr 09:30-16:00", "operator": "Berliner Sparkasse", "ref": "PKC 413", "surveillance": "indoor", "toilets:wheelchair": "no", "wheelchair": "yes"}}, {"type": "node", "id": 1191109064, "lat": 52.6335336, "lon": 13.2901236, "tags": {"addr:city": "Berlin", "addr:country": "DE", "addr:housenumber": "1", "addr:postcode": "13465", "addr:street": "Zeltinger Platz", "addr:suburb": "Frohnau", "amenity": "bank", "atm": "yes", "brand": "Commerzbank", "brand:wikidata": "Q157617", "brand:wikipedia": "de:Commerzbank", "check_date:opening_hours": "2025-03-16", "contact:phone": "+4930 406 35 40", "name": "Commerzbank", "opening_hours": "Mo-Fr 09:00-13:00, Tu 14:00-16:00, Th 14:00-18:00", "operator": "Commerzbank", "wheelchair": "yes"}}, {"type": "node", "id": 1234644000, "lat": 52.3482561, "lon": 13.6246625, "tags": {"addr:city": "Zeuthen", "addr:country": "DE", "addr:housenumber": "15", "addr:postcode": "15738", "addr:street": "Miersdorfer Chaussee", "amenity": "bank", "atm": "yes", "brand": "Mittelbrandenburgische Sparkasse", "brand:wikidata": "Q1940058", "brand:wikipedia": "de:Mittelbrandenburgische Sparkasse", "entrance": "main", "name": "Sparkasse", "opening_hours": "Mo,Fr 09:00-16:00; Tu,Th 09:00-19:00; We 09:00-12:30", "operator": "Mittelbrandenburgische Sparkasse", "phone": "+49 33762 8219866611", "wheelchair": "yes"}}, {"type": "node", "id": 1242666930, "lat": 52.5496489, "lon": 13.3529557, "tags": {"amenity": "bank", "atm": "yes", "brand": "Targobank", "brand:wikidata": "Q1455437", "brand:wikipedia": "en:Targobank", "check_date": "2023-06-14", "name": "Targobank", "opening_hours": "Mo-Fr 09:00-13:00; Mo-Tu,Th 14:00-18:00; Fr 14:00-17:00", "operator": "Targobank", "wheelchair": "yes"}}, {"type": "node", "id": 1251071269, "lat": 52.5114506, "lon": 13.4169064, "tags": {"addr:city": "Berlin", "addr:housenumber": "1a", "addr:postcode": "10179", "addr:street": "Br\u00fcckenstra\u00dfe", "amenity": "bank", "atm": "no", "brand": "Postbank", "brand:wikidata": "Q708835", "brand:wikipedia": "de:Postbank", "drive_through": "no", "name": "Postbank", "opening_hours": "Mo-Fr 08:00-19:00; Sa 09:00-15:00", "operator": "Lotto-Post-Schreibwaren", "wheelchair": "limited"}}, {"type": "node", "id": 1287287816, "lat": 52.5692009, "lon": 13.4033001, "tags": {"amenity": "bank", "brand": "Deutsche Bank", "brand:wikidata": "Q66048", "name": "Deutsche Bank"}}, {"type": "node", "id": 1333724491, "lat": 52.4385156, "lon": 13.2148146}, {"type": "node", "id": 1333724495, "lat": 52.4385725, "lon": 13.2150343}, {"type": "node", "id": 1333724496, "lat": 52.4385872, "lon": 13.2147587}, {"type": "node", "id": 1333724501, "lat": 52.4386347, "lon": 13.2149779}, {"type": "node", "id": 1347625713, "lat": 52.6357618, "lon": 13.4937252, "tags": {"addr:city": "Berlin", "addr:country": "DE", "addr:housenumber": "23", "addr:postcode": "13125", "addr:street": "Wiltbergstra\u00dfe", "addr:suburb": "Buch", "amenity": "bank", "atm": "yes", "brand": "Postbank", "brand:wikidata": "Q708835", "brand:wikipedia": "de:Postbank", "check_date:opening_hours": "2025-04-08", "name": "Postbank", "opening_hours": "Mo,Tu,Th 09:00-18:00; Sa 09:00-12:00; We,Fr 09:00-12:30,14:00-18:00", "phone": "+491803040500", "website": "https://www.postbank.de/", "wheelchair": "yes"}}, {"type": "node", "id": 1362054947, "lat": 52.5711566, "lon": 13.5686217, "tags": {"addr:city": "Berlin", "addr:housenumber": "412", "addr:postcode": "12689", "addr:street": "M\u00e4rkische Allee", "amenity": "bank", "name": "Sparkasse", "opening_hours": "Mo,We,Fr 09:30-15:00; Tu,Th 09:30-18:00", "operator": "Berliner Sparkasse", "ref": "PKC 216", "wheelchair": "yes"}}, {"type": "node", "id": 1365431660, "lat": 52.5418288, "lon": 13.2364486, "tags": {"amenity": "bank", "brand": "Deutsche Bank", "brand:wikidata": "Q66048", "name": "Deutsche Bank", "opening_hours": "Mo-Su,PH 06:00-24:00"}}, {"type": "node", "id": 1393837949, "lat": 52.4290623, "lon": 13.4530371, "tags": {"addr:city": "Berlin", "addr:housenumber": "333", "addr:postcode": "12351", "addr:street": "Johannisthaler Chaussee", "amenity": "bank", "atm": "yes", "check_date": "2023-07-14", "drive_through": "no", "name": "Sparkasse", "opening_hours": "Mo,We,Fr 09:30-15:00; Tu,Th 09:30-18:00", "operator": "Berliner Sparkasse", "ref": "PKC 146", "wheelchair": "yes"}}, {"type": "node", "id": 1416990132, "lat": 52.4027961, "lon": 13.5251617, "tags": {"addr:city": "Berlin", "addr:country": "DE", "addr:housenumber": "239", "addr:postcode": "12524", "addr:street": "Sch\u00f6nefelder Chaussee", "addr:suburb": "Altglienicke", "amenity": "bank", "name": "Sparkasse", "opening_hours": "Tu 09:30-18:00; We,Fr 09:30-15:00", "operator": "Berliner Sparkasse", "ref": "PKC 158", "website": "https://www.berliner-sparkasse.de/", "wheelchair": "yes"}}, {"type": "node", "id": 1421159799, "lat": 52.5152801, "lon": 13.4685743, "tags": {"addr:city": "Berlin", "addr:housenumber": "71-77", "addr:postcode": "10247", "addr:street": "Frankfurter Allee", "amenity": "bank", "brand": "Postbank", "brand:wikidata": "Q708835", "level": "0", "name": "Postbank", "name:ar": "\u0645\u0635\u0631\u0641", "name:de": "Postbank", "name:ru": "\u0411\u0430\u043d\u043a (\u041f\u043e\u0441\u0442\u0411\u0430\u043d\u043a)", "opening_hours": "Mo-Fr 09:00-18:30; Sa 09:30-13:00", "wheelchair": "yes"}}, {"type": "node", "id": 1431083662, "lat": 52.416635, "lon": 13.4971977}, {"type": "node", "id": 1431083663, "lat": 52.4166805, "lon": 13.4973157}, {"type": "node", "id": 1431083665, "lat": 52.4167552, "lon": 13.4970667}, {"type": "node", "id": 1482547497, "lat": 52.4658677, "lon": 13.4877002, "tags": {"addr:city": "Berlin", "addr:country": "DE", "addr:housenumber": "17", "addr:postcode": "12437", "addr:street": "Baumschulenstra\u00dfe", "addr:suburb": "Baumschulenweg", "amenity": "bank", "atm": "yes", "check_date": "2025-01-08", "check_date:opening_hours": "2025-01-08", "contact:phone": "+49 30 86986969", "contact:website": "https://www.berliner-sparkasse.de", "name": "Sparkasse", "opening_hours": "Mo,We,Fr 09:30-15:00; Tu,Th 09:30-18:00", "operator": "Berliner Sparkasse", "ref": "PKC 155", "wheelchair": "yes"}}, {"type": "node", "id": 1490229135, "lat": 52.5217728, "lon": 13.1648267, "tags": {"addr:city": "Berlin", "addr:housenumber": "28-30", "addr:postcode": "13593", "addr:street": "Obstallee", "amenity": "bank", "brand": "Postbank", "brand:wikidata": "Q708835", "brand:wikipedia": "de:Postbank", "name": "Postbank", "opening_hours": "Mo-Fr 09:00-18:00; Sa 09:00-13:00; PH off", "wheelchair": "yes"}}, {"type": "node", "id": 1490229674, "lat": 52.5217075, "lon": 13.164301, "tags": {"addr:city": "Berlin", "addr:housenumber": "28-30", "addr:postcode": "13593", "addr:street": "Obstallee", "amenity": "bank", "atm": "yes", "name": "Sparkasse", "opening_hours": "Mo,We,Fr 09:30-15:00; Tu,Th 09:30-18:00", "operator": "Berliner Sparkasse", "ref": "PKC 086", "wheelchair": "yes"}}, {"type": "node", "id": 1506174408, "lat": 52.4585581, "lon": 13.5765348, "tags": {"addr:city": "Berlin", "addr:housenumber": "33-38", "addr:postcode": "12555", "addr:street": "Bahnhofstra\u00dfe", "amenity": "bank", "atm": "yes", "brand": "Postbank", "brand:wikidata": "Q708835", "brand:wikipedia": "de:Postbank", "level": "0", "name": "Postbank", "opening_hours": "Mo-Fr 09:00-19:00; Sa 09:30-14:00; PH off", "toilets:wheelchair": "no", "wheelchair": "yes"}}, {"type": "node", "id": 1509481516, "lat": 52.426745, "lon": 13.3262949}, {"type": "node", "id": 1545967504, "lat": 52.5483661, "lon": 13.4505257, "tags": {"addr:city": "Berlin", "addr:housenumber": "27", "addr:postcode": "13088", "addr:street": "Berliner Allee", "amenity": "bank", "atm": "yes", "check_date": "2024-08-24", "check_date:opening_hours": "2024-08-24", "name": "Sparkasse", "opening_hours": "Mo,We,Fr 09:30-15:00; Tu,Th 09:30-18:00", "operator": "Berliner Sparkasse", "ref": "PKC 181", "surveillance": "indoor", "wheelchair": "yes"}}, {"type": "node", "id": 1561367650, "lat": 52.416645, "lon": 13.225952, "tags": {"amenity": "bank", "atm": "yes", "branch": "Kleinmachnow", "brand": "Commerzbank", "brand:wikidata": "Q157617", "brand:wikipedia": "de:Commerzbank", "drive_through": "no", "name": "Commerzbank", "opening_hours": "Mo 09:00-13:00,14:00-16:00; Tu,Th 09:00-13:00,14:30-18:00; We,Fr 09:00-14:00; PH closed", "wheelchair": "yes"}}, {"type": "node", "id": 1598654969, "lat": 52.5158114, "lon": 13.3933363}, {"type": "node", "id": 1600576787, "lat": 52.5133406, "lon": 13.396171, "tags": {"amenity": "bank", "atm": "yes", "brand": "BBBank", "brand:wikidata": "Q795504", "brand:wikipedia": "de:BBBank", "contact:phone": "+49 30 2024800", "contact:website": "https://www.bbbank.de/", "name": "BBBank", "network": "CashPool;BankCard ServiceNetz", "opening_hours": "Mo,We 09:00-13:30,14:30-16:00; Tu,Th 09:00-13:30,14:30-18:30; Fr 09:00-13:30", "operator": "BBBank eG", "operator:en": "Baden-W\u00fcrttemberg Cooperative Association", "operator:wikidata": "Q798896", "operator:wikipedia": "de:Baden-W\u00fcrttembergischer Genossenschaftsverband", "wheelchair": "no"}}, {"type": "node", "id": 1617461950, "lat": 52.439468, "lon": 13.3159172, "tags": {"addr:city": "Berlin", "addr:country": "DE", "addr:housenumber": "99", "addr:postcode": "12203", "addr:street": "Hindenburgdamm", "addr:suburb": "Lichterfelde", "amenity": "bank", "atm": "yes", "brand": "Postbank", "brand:wikidata": "Q708835", "brand:wikipedia": "de:Postbank", "name": "Postbank", "wheelchair": "yes"}}, {"type": "node", "id": 1641960507, "lat": 52.4553928, "lon": 13.3850418, "tags": {"addr:city": "Berlin", "addr:housenumber": "227", "addr:postcode": "12099", "addr:street": "Tempelhofer Damm", "amenity": "bank", "check_date:opening_hours": "2024-05-18", "level": "0", "name": "Sparkasse", "opening_hours": "Mo-Fr 09:30-18:00", "operator": "Berliner Sparkasse", "ref": "PKC 137", "wheelchair": "yes"}}, {"type": "node", "id": 1659576693, "lat": 52.5383083, "lon": 13.6014816, "tags": {"addr:city": "Berlin", "addr:country": "DE", "addr:housenumber": "1", "addr:postcode": "12627", "addr:street": "Senftenberger Stra\u00dfe", "addr:suburb": "Hellersdorf", "amenity": "bank", "brand": "Santander", "brand:wikidata": "Q875292", "brand:wikipedia": "en:Santander Bank", "name": "Santander", "opening_hours": "Mo,We 09:00-13:00,14:00-16:00; Tu,Th 09:00-13:00,14:00-18:00; Fr 09:00-14:00; PH off", "website": "https://www.santander.de/", "wheelchair": "limited"}}, {"type": "node", "id": 1665158269, "lat": 52.519169, "lon": 13.3887493, "tags": {"addr:city": "Berlin", "addr:country": "DE", "addr:housenumber": "94", "addr:postcode": "10117", "addr:street": "Friedrichstra\u00dfe", "amenity": "bank", "atm": "yes", "brand": "Berliner Volksbank", "brand:wikidata": "Q821855", "check_date": "2025-07-22", "check_date:opening_hours": "2025-07-22", "name": "Berliner Volksbank", "opening_hours": "Mo-Fr 10:00-13:00, Mo 14:00-16:00, Tu,Th 14:00-18:00", "wheelchair": "yes"}}, {"type": "node", "id": 1709968173, "lat": 52.4316528, "lon": 13.3907639, "tags": {"addr:city": "Berlin", "addr:country": "DE", "addr:housenumber": "1", "addr:postcode": "12107", "addr:street": "Kruckenbergstra\u00dfe", "addr:suburb": "Mariendorf", "amenity": "bank", "brand": "HypoVereinsbank", "brand:wikidata": "Q220189", "brand:wikipedia": "en:HypoVereinsbank", "name": "HypoVereinsbank", "website": "http://hvb.de", "wheelchair": "yes"}}, {"type": "node", "id": 1710043519, "lat": 52.4380956, "lon": 13.2692608, "tags": {"addr:city": "Berlin", "addr:country": "DE", "addr:housenumber": "6", "addr:postcode": "14169", "addr:street": "Winfriedstra\u00dfe", "addr:suburb": "Zehlendorf", "amenity": "bank", "atm": "no", "brand": "HypoVereinsbank", "brand:wikidata": "Q220189", "brand:wikipedia": "en:HypoVereinsbank", "fixme": "confirm location & adress", "name": "HypoVereinsbank", "website": "http://hvb.de", "wheelchair": "yes"}}, {"type": "node", "id": 1730014630, "lat": 52.6307219, "lon": 13.3183117, "tags": {"addr:city": "Glienicke/Nordbahn", "addr:country": "DE", "addr:housename": "Mittelbrandenburgische Sparkasse", "addr:housenumber": "18", "addr:postcode": "16548", "addr:street": "Hauptstra\u00dfe", "amenity": "bank", "atm": "yes", "brand": "Mittelbrandenburgische Sparkasse", "brand:wikidata": "Q1940058", "brand:wikipedia": "de:Mittelbrandenburgische Sparkasse", "name": "Mittelbrandenburgische Sparkasse", "opening_hours": "Mo,Fr 09:00-12:30,13:30-16:00; Tu,Th 09:00-12:30,13:30-18:30; We 09:00-12:30", "operator": "Mittelbrandenburgische Sparkasse", "wheelchair": "yes"}}, {"type": "node", "id": 1760855223, "lat": 52.5159466, "lon": 13.3780432, "tags": {"amenity": "bank", "brand": "Commerzbank", "brand:wikidata": "Q157617", "brand:wikipedia": "de:Commerzbank", "name": "Commerzbank", "opening_hours": "Sa 09:00-17:00", "wheelchair": "yes"}}, {"type": "node", "id": 1812414059, "lat": 52.5149971, "lon": 13.3912709, "tags": {"addr:postcode": "10117", "amenity": "bank", "atm": "no", "level": "0", "name": "KfW Kreditanstalt f\u00fcr Wiederaufbau", "name:de": "KfW Bankengruppe", "name:en": "KfW Bankengruppe", "phone": "+4930202640", "source": "memory", "website": "https://www.kfw.de/", "wheelchair": "yes"}}, {"type": "node", "id": 1819283270, "lat": 52.5103571, "lon": 13.2776883, "tags": {"addr:city": "Berlin", "addr:country": "DE", "addr:postcode": "14050", "addr:street": "Soorstra\u00dfe", "amenity": "bank", "atm": "yes", "brand": "Postbank", "brand:wikidata": "Q708835", "brand:wikipedia": "de:Postbank", "name": "Postbank", "network": "Cash Group", "opening_hours": "Mo 09:00-18:00, Sa 09:00-13:00, Tu-Sa 09:00-13:00, Tu-Fr 14:00-18:00", "wheelchair": "no"}}, {"type": "node", "id": 1827452357, "lat": 52.454891, "lon": 13.1444502, "tags": {"addr:city": "Berlin", "addr:housenumber": "366", "addr:postcode": "14089", "addr:street": "Kladower Damm", "amenity": "bank", "atm": "yes", "brand": "Deutsche Bank", "brand:wikidata": "Q66048", "brand:wikipedia": "en:Deutsche Bank", "name": "Deutsche Bank", "opening_hours": "Mo 10:00-12:00; Tu 10:00-12:00,14:00-16:00; Th 10:00-12:00,14:00-16:00", "operator": "Deutsche Bank", "wheelchair": "yes"}}, {"type": "node", "id": 1845158183, "lat": 52.5701377, "lon": 13.4047316, "tags": {"addr:city": "Berlin", "addr:country": "DE", "addr:housenumber": "20", "addr:postcode": "13187", "addr:street": "Breite Stra\u00dfe", "addr:suburb": "Pankow", "amenity": "bank", "atm": "yes", "check_date:opening_hours": "2024-01-15", "level": "0", "name": "Sparkasse", "opening_hours": "Mo-Fr 09:30-18:00", "operator": "Berliner Sparkasse", "ref": "PKC 191", "wheelchair": "yes"}}, {"type": "node", "id": 1849636763, "lat": 52.5856473, "lon": 13.3671526, "tags": {"addr:postcode": "13158", "addr:street": "Hauptstra\u00dfe", "amenity": "bank", "atm": "yes", "check_date:opening_hours": "2024-11-28", "name": "Berliner Sparkasse", "opening_hours": "Mo-Fr 06:00-23:00; Sa,Su 08:00-23:00", "toilets:wheelchair": "no", "wheelchair": "yes", "wheelchair:description": "Nur Geldautomat und \u00dcberweisung"}}, {"type": "node", "id": 1850586690, "lat": 52.5071978, "lon": 13.3242886, "tags": {"addr:city": "Berlin", "addr:country": "DE", "addr:housenumber": "13", "addr:postcode": "10623", "addr:street": "Carmerstra\u00dfe", "addr:suburb": "Charlottenburg"}}, {"type": "node", "id": 1905988818, "lat": 52.4194386, "lon": 13.1600973, "tags": {"addr:city": "Berlin", "addr:country": "DE", "addr:housenumber": "60", "addr:postcode": "14109", "addr:street": "K\u00f6nigstra\u00dfe", "addr:suburb": "Wannsee", "amenity": "bank", "atm": "yes", "name": "Sparkasse", "opening_hours": "Mo-Fr 06:00-23:00; Sa,Su 08:00-23:00", "operator": "Berliner Sparkasse", "ref": "PKC 105", "wheelchair": "yes"}}, {"type": "node", "id": 1905988881, "lat": 52.419633, "lon": 13.1577207, "tags": {"amenity": "bank", "atm": "yes", "brand": "Berliner Volksbank", "brand:wikidata": "Q821855", "brand:wikipedia": "de:Berliner Volksbank", "name": "Berliner Volksbank", "opening_hours": "Mo-Su,PH 06:00-23:00", "wheelchair": "yes"}}, {"type": "node", "id": 1915389761, "lat": 52.5166919, "lon": 13.3080541, "tags": {"addr:city": "Berlin", "addr:country": "DE", "addr:housenumber": "97-99", "addr:postcode": "10585", "addr:street": "Otto-Suhr-Allee", "addr:suburb": "Charlottenburg", "amenity": "bank", "atm": "yes", "check_date": "2024-07-22", "check_date:opening_hours": "2024-07-22", "contact:phone": "+49 30 86986969", "contact:website": "https://www.berliner-sparkasse.de/", "drive_through": "no", "name": "Sparkasse", "opening_hours": "Mo,We,Fr 09:30-15:00; Tu,Th 09:30-18:00", "operator": "Berliner Sparkasse", "ref": "PKC 071", "wheelchair": "yes"}}, {"type": "node", "id": 1915658641, "lat": 52.4994594, "lon": 13.3523032, "tags": {"addr:city": "Berlin", "addr:country": "DE", "addr:housenumber": "3-4", "addr:postcode": "10777", "addr:street": "Nollendorfplatz", "addr:suburb": "Sch\u00f6neberg", "amenity": "bank", "atm": "yes", "name": "Sparkasse", "opening_hours": "Mo,We,Fr 09:30-15:00; Tu,Th 09:30-18:00", "operator": "Berliner Sparkasse", "ref": "PKC 115", "wheelchair": "yes"}}, {"type": "node", "id": 1930228923, "lat": 52.5759545, "lon": 13.5754308, "tags": {"addr:city": "Ahrensfelde", "addr:country": "DE", "addr:housenumber": "1", "addr:postcode": "16356", "addr:street": "Lindenberger Stra\u00dfe", "amenity": "bank", "atm": "yes", "drive_through": "no", "name": "Sparkasse", "opening_hours": "Tu-Fr 09:00-12:00, Tu,Th 14:00-18:00", "source": "Garmin Oregon 550"}}, {"type": "node", "id": 2132839254, "lat": 52.5247553, "lon": 13.5574263, "tags": {"addr:city": "Berlin", "addr:housenumber": "138", "addr:postcode": "12683", "addr:street": "Oberfeldstra\u00dfe", "amenity": "bank", "atm": "yes", "name": "Sparkasse", "opening_hours": "Mo,We,Fr 09:30-15:00; Tu,Th 09:30-18:00", "operator": "Berliner Sparkasse", "ref": "PKC 219", "wheelchair": "yes"}}, {"type": "node", "id": 2209496021, "lat": 52.4210282, "lon": 13.4914744}, {"type": "node", "id": 2209496030, "lat": 52.4210071, "lon": 13.4913755}, {"type": "node", "id": 2209496034, "lat": 52.4209857, "lon": 13.4914281}, {"type": "node", "id": 2209496050, "lat": 52.4209741, "lon": 13.4913395}, {"type": "node", "id": 2209496065, "lat": 52.4209805, "lon": 13.4915917}, {"type": "node", "id": 2209496066, "lat": 52.4209317, "lon": 13.4911909}, {"type": "node", "id": 2209496071, "lat": 52.4210028, "lon": 13.4912686}, {"type": "node", "id": 2267954804, "lat": 52.5156537, "lon": 13.3933628}, {"type": "node", "id": 2267954806, "lat": 52.5156544, "lon": 13.3933739}, {"type": "node", "id": 2267954812, "lat": 52.5157706, "lon": 13.3937649}, {"type": "node", "id": 2267954814, "lat": 52.5157725, "lon": 13.3937953}, {"type": "node", "id": 2267954817, "lat": 52.5158048, "lon": 13.3933393}, {"type": "node", "id": 2267954818, "lat": 52.5158115, "lon": 13.3933382}, {"type": "node", "id": 2274239283, "lat": 52.5690756, "lon": 13.5170739, "tags": {"amenity": "bank", "brand": "Targobank", "brand:wikidata": "Q1455437", "brand:wikipedia": "en:Targobank", "name": "Targobank", "opening_hours": "Mo-Fr 09:00-13:00, Mo,Tu,Th 14:00-18:00, Fr 14:00-17:00", "wheelchair": "yes"}}, {"type": "node", "id": 2287986935, "lat": 52.5157252, "lon": 13.3789891, "tags": {"addr:city": "Berlin", "addr:country": "DE", "addr:housenumber": "3", "addr:postcode": "10117", "addr:street": "Pariser Platz", "addr:suburb": "Mitte", "amenity": "bank", "brand": "DZ Bank", "check_date": "2025-04-17", "name": "DZ-Bank", "note": "\u05d1\u05e0\u05e7 DZ \u05e2\u05dd \u05e4\u05e1\u05dc \u05d4\u05d3\u05d2 \u05d4\u05e9\u05d5\u05db\u05d1", "opening_hours": "Mo-Fr 09:00-18:00", "operator": "DZ Bank AG Deutsche Zentral-Genossenschaftsbank, Frankfurt am Main", "wheelchair": "yes"}}, {"type": "node", "id": 2306458637, "lat": 52.547597, "lon": 13.3587744, "tags": {"addr:city": "Berlin", "addr:housenumber": "51", "addr:postcode": "13347", "addr:street": "Nazarethkirchstra\u00dfe", "amenity": "bank", "atm": "yes", "check_date:opening_hours": "2023-09-28", "name": "Sparkasse", "opening_hours": "Mo,We,Fr 09:30-15:00; Tu,Th 09:30-18:00", "operator": "Berliner Sparkasse", "ref": "PKC 036", "wheelchair": "no"}}, {"type": "node", "id": 2307254000, "lat": 52.4862119, "lon": 13.3221245, "tags": {"amenity": "bank", "atm": "yes", "brand": "Deutsche Bank", "brand:wikidata": "Q66048", "brand:wikipedia": "en:Deutsche Bank", "check_date:opening_hours": "2025-05-20", "name": "Deutsche Bank", "opening_hours": "Mo,Tu,Th 10:00-12:30,14:00-18:00; We,Fr 10:00-14:00", "operator": "Deutsche Bank AG", "wheelchair": "yes"}}, {"type": "node", "id": 2334538121, "lat": 52.4996981, "lon": 13.3074715, "tags": {"addr:city": "Berlin", "addr:country": "DE", "addr:housenumber": "165-166", "addr:postcode": "10707", "addr:street": "Kurf\u00fcrstendamm", "addr:suburb": "Wilmersdorf", "amenity": "bank", "atm": "yes", "check_date:opening_hours": "2022-04-11", "name": "Sparkasse", "opening_hours": "Mo,We,Fr 09:30-15:00; Tu,Th 09:30-18:00", "operator": "Berliner Sparkasse", "operator:wikidata": "Q821760", "ref": "PKC 095", "wheelchair": "yes"}}, {"type": "node", "id": 2439759134, "lat": 52.5100952, "lon": 13.2730463, "tags": {"addr:city": "Berlin", "addr:country": "DE", "addr:housenumber": "4", "addr:postcode": "14052", "addr:street": "Theodor-Heuss-Platz", "addr:suburb": "Westend", "amenity": "bank", "atm": "yes", "atm:network": "Cash Group", "brand": "Commerzbank", "brand:wikidata": "Q157617", "brand:wikipedia": "de:Commerzbank", "name": "Commerzbank", "opening_hours": "Mo-Su 06:00-22:00", "phone": "+493031534450", "website": "https://www.commerzbank.de/", "wheelchair": "yes"}}, {"type": "node", "id": 2439759285, "lat": 52.5102719, "lon": 13.2719203, "tags": {"addr:city": "Berlin", "addr:country": "DE", "addr:housenumber": "8", "addr:postcode": "14052", "addr:street": "Theodor-Heuss-Platz", "addr:suburb": "Westend", "amenity": "bank", "atm": "yes", "check_date:opening_hours": "2024-06-24", "name": "Sparkasse", "opening_hours": "Mo,We,Fr 09:30-15:00; Tu,Th 09:30-18:00", "operator": "Berliner Sparkasse", "ref": "PKC 074", "wheelchair": "yes"}}, {"type": "node", "id": 2445456642, "lat": 52.486668, "lon": 13.3206331, "tags": {"addr:city": "Berlin", "addr:country": "DE", "addr:housenumber": "40-41", "addr:postcode": "10715", "addr:street": "Berliner Stra\u00dfe", "addr:suburb": "Wilmersdorf", "amenity": "bank", "atm": "yes", "check_date:opening_hours": "2025-05-22", "name": "Sparkasse", "opening_hours": "Mo,We,Fr 09:30-15:00; Tu,Th 09:30-18:00", "operator": "Berliner Sparkasse", "operator:wikidata": "Q821760", "ref": "PKC 091", "surveillance": "indoor", "wheelchair": "no"}}, {"type": "node", "id": 2470102842, "lat": 52.3868513, "lon": 13.4089, "tags": {"addr:city": "Berlin", "addr:housenumber": "38", "addr:postcode": "12307", "addr:street": "Goltzstra\u00dfe", "amenity": "bank", "atm": "yes", "check_date:opening_hours": "2022-11-11", "name": "Sparkasse", "opening_hours": "Mo,We,Fr 09:30-15:00; Tu,Th 09:30-18:00", "operator": "Berliner Sparkasse", "operator:wikidata": "Q821760", "ref": "PKC 133", "wheelchair": "yes"}}, {"type": "node", "id": 2480681072, "lat": 52.4793307, "lon": 13.3455025, "tags": {"addr:city": "Berlin", "addr:housenumber": "98-99", "addr:postcode": "10827", "addr:street": "Hauptstra\u00dfe", "amenity": "bank", "atm": "yes", "name": "LBS", "opening_hours": "Mo-Th 10:00-17:00; Fr 10:00-15:00", "operator": "LBS Beratungszentrum Berlin-Sch\u00f6neberg", "phone": "+49 30 8431556", "website": "https://www.lbs.de/beratung/nord/berlin_bz_82_schoeneberg", "wheelchair": "no"}}, {"type": "node", "id": 2496651178, "lat": 52.4922683, "lon": 13.3893067, "tags": {"addr:city": "Berlin", "addr:country": "DE", "addr:housenumber": "6", "addr:postcode": "10961", "addr:street": "Gneisenaustra\u00dfe", "addr:suburb": "Kreuzberg", "amenity": "bank", "atm": "yes", "check_date": "2024-09-04", "name": "Sparkasse", "opening_hours": "Mo,We,Fr 09:30-15:00; Tu,Th 09:30-18:00", "operator": "Berliner Sparkasse", "ref": "PKC 061", "wheelchair": "yes"}}, {"type": "node", "id": 2499471193, "lat": 52.4381214, "lon": 13.262619, "tags": {"addr:city": "Berlin", "addr:country": "DE", "addr:housenumber": "328 - 334", "addr:postcode": "14169", "addr:street": "Clayallee", "addr:suburb": "Zehlendorf", "amenity": "bank", "atm": "yes", "brand": "Santander", "brand:wikidata": "Q875292", "brand:wikipedia": "en:Santander Bank", "check_date:opening_hours": "2025-03-18", "level": "0", "name": "Santander", "opening_hours": "Mo,Tu,Th 09:00-13:00,14:00-18:00; We 09:00-13:00,14:00-16:00; Fr 09:00-14:00", "wheelchair": "yes"}}, {"type": "node", "id": 2507402476, "lat": 52.5687746, "lon": 13.4002748, "tags": {"addr:city": "Berlin", "addr:country": "DE", "addr:housenumber": "132", "addr:postcode": "13187", "addr:street": "Wollankstra\u00dfe", "addr:suburb": "Pankow", "amenity": "bank", "atm": "yes", "brand": "Berliner Volksbank", "brand:wikidata": "Q821855", "brand:wikipedia": "de:Berliner Volksbank", "check_date:opening_hours": "2025-05-06", "name": "Berliner Volksbank", "opening_hours": "Mo-Fr 10:00-13:00, Tu,Th 14:00-18:00, Mo 14:00-16:00", "operator": "Berliner Volksbank eG", "phone": "+49 30 3063 3300", "source": "Internetseite www.berliner-volksbank.de", "website": "https://www.berliner-volksbank.de/", "wheelchair": "limited"}}, {"type": "node", "id": 2656124549, "lat": 52.5158189, "lon": 13.3935628, "tags": {"addr:city": "Berlin", "addr:country": "DE", "addr:housenumber": "36", "addr:postcode": "10117", "addr:street": "Behrenstra\u00dfe", "addr:suburb": "Mitte", "entrance": "main"}}, {"type": "node", "id": 2820028497, "lat": 52.4338086, "lon": 13.5382031, "tags": {"addr:city": "Berlin", "addr:country": "DE", "addr:housenumber": "30", "addr:postcode": "12489", "addr:street": "D\u00f6rpfeldstra\u00dfe", "addr:suburb": "Adlershof", "amenity": "bank", "atm": "yes", "brand": "UniCredit Bank", "brand:wikidata": "Q45568", "brand:wikipedia": "en:UniCredit", "name": "UniCredit Bank", "opening_hours": "24/7", "source": "Geoportal Berlin / Hauskoordinaten", "wheelchair": "yes"}}, {"type": "node", "id": 2821286563, "lat": 52.4367159, "lon": 13.4471093, "tags": {"addr:city": "Berlin", "addr:country": "DE", "addr:housenumber": "29", "addr:postcode": "12359", "addr:street": "Gutschmidtstra\u00dfe", "addr:suburb": "Britz", "amenity": "bank", "atm": "yes", "brand": "Postbank", "brand:wikidata": "Q708835", "brand:wikipedia": "de:Postbank", "check_date:opening_hours": "2025-08-01", "name": "Postbank", "opening_hours": "Mo-Fr 09:00-18:30; Sa 09:00-13:00", "source": "Geoportal Berlin / Hauskoordinaten", "toilets:wheelchair": "no", "wheelchair": "yes"}}, {"type": "node", "id": 2836989101, "lat": 52.4563301, "lon": 13.6249484, "tags": {"addr:city": "Berlin", "addr:country": "DE", "addr:housenumber": "74", "addr:postcode": "12587", "addr:street": "B\u00f6lschestra\u00dfe", "addr:suburb": "Friedrichshagen", "amenity": "bank", "brand": "Commerzbank", "brand:wikidata": "Q157617", "brand:wikipedia": "de:Commerzbank", "check_date": "2024-01-24", "name": "Commerzbank", "opening_hours": "Mo-Th 09:00-13:00, Mo,We 14:00-16:00; Tu,Th 14:30-18:00; Fr 09:00-14:00", "source": "Dakota 20", "wheelchair": "no"}}, {"type": "node", "id": 2864985085, "lat": 52.407101, "lon": 13.4397038, "tags": {"addr:city": "Sch\u00f6nefeld", "addr:housenumber": "18", "addr:postcode": "12529", "addr:street": "Attilastra\u00dfe", "addr:suburb": "Gro\u00dfziethen", "amenity": "bank", "atm": "yes", "brand": "Mittelbrandenburgische Sparkasse", "brand:wikidata": "Q1940058", "brand:wikipedia": "de:Mittelbrandenburgische Sparkasse", "drive_through": "no", "name": "Mittelbrandenburgische Sparkasse", "opening_hours": "Mo-Fr 09:00-12:30, Tu,Th 13:30-17:30", "wheelchair": "yes"}}, {"type": "node", "id": 2915565721, "lat": 52.5071063, "lon": 13.3242338}, {"type": "node", "id": 2915571936, "lat": 52.5070223, "lon": 13.3244259}, {"type": "node", "id": 2929471268, "lat": 52.38843, "lon": 13.2024215, "tags": {"addr:city": "Stahnsdorf", "addr:country": "DE", "addr:housenumber": "82", "addr:postcode": "14532", "addr:street": "Potsdamer Allee", "amenity": "bank", "name": "Sparkasse", "opening_hours": "Mo-Fr 09:00-12:30, Mo,Fr 13:30-16:00, Tu,Th 13:30-18:30", "operator": "Mittelbrandenburgische Sparkasse", "phone": "+49 3329 603752411", "source": "website", "website": "https://www.mbs-potsdam.de/module/ihre_sparkasse/filialfinder/index.php?n=%2Fmodule%2Fihre_sparkasse%2Ffilialfinder%2F#details/4882", "wheelchair": "yes"}}, {"type": "node", "id": 3014055807, "lat": 52.5107446, "lon": 13.3900711, "tags": {"amenity": "bank", "atm": "yes", "atm:network": "Cash Group", "brand": "HypoVereinsbank", "brand:wikidata": "Q220189", "brand:wikipedia": "en:HypoVereinsbank", "name": "HypoVereinsbank", "opening_hours": "Mo-Fr 10:00-13:00, Tu,Th 14:30-17:00", "wheelchair": "yes"}}, {"type": "node", "id": 3079610524, "lat": 52.635025, "lon": 13.49581, "tags": {"addr:city": "Berlin", "addr:country": "DE", "addr:housenumber": "5", "addr:postcode": "13125", "addr:street": "Wiltbergstra\u00dfe", "addr:suburb": "Buch", "amenity": "bank", "entrance": "yes", "name": "Sparkasse", "opening_hours": "Mo-Fr 09:30-15:00", "operator": "Berliner Sparkasse", "ref": "PKC 195", "toilets:wheelchair": "no", "wheelchair": "yes"}}, {"type": "node", "id": 3089158091, "lat": 52.617724, "lon": 13.3062993, "tags": {"addr:city": "Berlin", "addr:housenumber": "38-40", "addr:postcode": "13467", "addr:street": "Heinsestra\u00dfe", "addr:suburb": "Hermsdorf", "amenity": "bank", "atm": "yes", "check_date:opening_hours": "2023-10-09", "contact:phone": "+49 30 869 86969", "contact:website": "https://www.berliner-sparkasse.de", "entrance": "main", "name": "Sparkasse", "opening_hours": "Mo,We,Fr 09:30-15:00; Tu,Th 09:30-18:00; Sa,Su,PH off", "operator": "Berliner Sparkasse", "ref": "PKC 204", "wheelchair": "yes"}}, {"type": "node", "id": 3142792933, "lat": 52.5197331, "lon": 13.4115175, "tags": {"amenity": "bank", "atm": "yes", "brand": "Postbank", "brand:wikidata": "Q708835", "brand:wikipedia": "de:Postbank", "check_date": "2025-04-13", "level": "0", "name": "Postbank", "opening_hours": "Mo-Fr 09:30-18:30; Sa 09:00-14:00 || Mo-Fr 08:00-18:30; Sa 09:00-14:00 \"SB-Bereich\"", "wheelchair": "yes"}}, {"type": "node", "id": 3167658080, "lat": 52.4869924, "lon": 13.4251445, "tags": {"addr:city": "Berlin", "addr:country": "DE", "addr:housenumber": "5-6", "addr:postcode": "10967", "addr:street": "Hermannplatz", "addr:suburb": "Neuk\u00f6lln", "amenity": "bank", "atm": "yes", "brand": "Santander", "brand:wikidata": "Q875292", "brand:wikipedia": "en:Santander Bank", "name": "Santander", "opening_hours": "Mo,We 09:00-13:00,14:00-16:00; Tu,Th 09:00-13:00,14:00-18:00; Fr 09:00-14:00", "operator": "Santander Consumer Bank AG", "website": "https://www.santander.de/", "wheelchair": "limited"}}, {"type": "node", "id": 3229138227, "lat": 52.4619862, "lon": 13.3259071, "tags": {"addr:city": "Berlin", "addr:country": "DE", "addr:housenumber": "114", "addr:postcode": "12163", "addr:street": "Schlo\u00dfstra\u00dfe", "addr:suburb": "Steglitz", "amenity": "bank", "atm": "yes", "atm:network": "Cash Group", "brand": "Deutsche Bank", "brand:wikidata": "Q66048", "brand:wikipedia": "en:Deutsche Bank", "contact:phone": "+493031090", "contact:website": "http://www.deutsche-bank.de/", "name": "Deutsche Bank", "opening_hours": "Mo,Tu,Th 10:00-18:00; We 10:00-16:00; Fr 10:00-14:00; Sa,Su,PH off || \"by appointment\"", "operator": "Deutsche Bank", "wheelchair": "limited"}}, {"type": "node", "id": 3229138230, "lat": 52.4601342, "lon": 13.3241151, "tags": {"addr:city": "Berlin", "addr:country": "DE", "addr:housenumber": "104", "addr:postcode": "12163", "addr:street": "Schlo\u00dfstra\u00dfe", "addr:suburb": "Steglitz", "amenity": "bank", "atm": "yes", "brand": "Commerzbank", "brand:wikidata": "Q157617", "brand:wikipedia": "de:Commerzbank", "contact:fax": "+49-30-315360399", "contact:phone": "+49-30-315360300", "contact:website": "https://www.commerzbank.de/", "name": "Commerzbank", "opening_hours": "Mo-Fr 09:00-13:00, Mo 14:00-16:00, Tu,Th 14:30-18:00", "operator": "Commerzbank AG", "wheelchair": "limited"}}, {"type": "node", "id": 3229138233, "lat": 52.4599197, "lon": 13.3239486, "tags": {"addr:city": "Berlin", "addr:country": "DE", "addr:housenumber": "102", "addr:postcode": "12163", "addr:street": "Schlo\u00dfstra\u00dfe", "addr:suburb": "Steglitz", "amenity": "bank", "atm": "yes", "brand": "Berliner Volksbank", "brand:wikidata": "Q821855", "check_date": "2024-08-22", "name": "Berliner Volksbank", "opening_hours": "Mo 10:00-13:00,14:00-16:00; Tu,Th 10:00-13:00,14:00-18:00; We,Fr 10:00-13:00; Sa-Su off", "wheelchair": "limited"}}, {"type": "node", "id": 3229157409, "lat": 52.4615672, "lon": 13.3255085, "tags": {"addr:city": "Berlin", "addr:country": "DE", "addr:housenumber": "111", "addr:postcode": "12163", "addr:street": "Schlo\u00dfstra\u00dfe", "addr:suburb": "Steglitz", "amenity": "bank", "atm": "yes", "brand": "Targobank", "brand:wikidata": "Q1455437", "brand:wikipedia": "en:Targobank", "contact:phone": "+49307908640", "contact:website": "https://www.targobank.de", "name": "Targobank", "opening_hours": "Mo-Fr 10:00-13:00, Mo,Tu,Th 14:00-18:00; PH,Sa,Su off", "operator": "Targobank", "wheelchair": "yes"}}, {"type": "node", "id": 3229468558, "lat": 52.495522, "lon": 13.3316211}, {"type": "node", "id": 3229468559, "lat": 52.495523, "lon": 13.331455}, {"type": "node", "id": 3229468560, "lat": 52.495561, "lon": 13.3314183}, {"type": "node", "id": 3229468661, "lat": 52.495561, "lon": 13.3314524}, {"type": "node", "id": 3229468662, "lat": 52.4955612, "lon": 13.33162}, {"type": "node", "id": 3229468663, "lat": 52.4955637, "lon": 13.3318089}, {"type": "node", "id": 3229468664, "lat": 52.4955714, "lon": 13.3318305}, {"type": "node", "id": 3229468665, "lat": 52.4955716, "lon": 13.3318103}, {"type": "node", "id": 3229468666, "lat": 52.4956347, "lon": 13.3318081}, {"type": "node", "id": 3229468667, "lat": 52.4956347, "lon": 13.3318282}, {"type": "node", "id": 3229468668, "lat": 52.4956349, "lon": 13.3317866}, {"type": "node", "id": 3229468669, "lat": 52.495636, "lon": 13.331765}, {"type": "node", "id": 3229468670, "lat": 52.4956372, "lon": 13.3314161}, {"type": "node", "id": 3229468671, "lat": 52.4956373, "lon": 13.3314526}, {"type": "node", "id": 3229468672, "lat": 52.4956398, "lon": 13.3316179}, {"type": "node", "id": 3229468673, "lat": 52.4956409, "lon": 13.3318085}, {"type": "node", "id": 3229468674, "lat": 52.495642, "lon": 13.3317663}, {"type": "node", "id": 3229468675, "lat": 52.4956486, "lon": 13.3313838}, {"type": "node", "id": 3229468676, "lat": 52.4956498, "lon": 13.3314521}, {"type": "node", "id": 3229468677, "lat": 52.4956511, "lon": 13.3313777}, {"type": "node", "id": 3229468678, "lat": 52.4956513, "lon": 13.3316175}, {"type": "node", "id": 3229468679, "lat": 52.4956513, "lon": 13.3316903}, {"type": "node", "id": 3229468680, "lat": 52.4956534, "lon": 13.3316946}, {"type": "node", "id": 3229468681, "lat": 52.4956542, "lon": 13.3313759}, {"type": "node", "id": 3229468682, "lat": 52.4956565, "lon": 13.3316961}, {"type": "node", "id": 3229468683, "lat": 52.4958566, "lon": 13.3313719}, {"type": "node", "id": 3229468684, "lat": 52.495859, "lon": 13.3316905}, {"type": "node", "id": 3229468685, "lat": 52.4958598, "lon": 13.3313736}, {"type": "node", "id": 3229468686, "lat": 52.4958613, "lon": 13.3316889}, {"type": "node", "id": 3229468687, "lat": 52.495862, "lon": 13.3313791}, {"type": "node", "id": 3229468688, "lat": 52.4958623, "lon": 13.3314345}, {"type": "node", "id": 3229468689, "lat": 52.4958632, "lon": 13.3316855}, {"type": "node", "id": 3229468690, "lat": 52.4958636, "lon": 13.3316305}, {"type": "node", "id": 3229468691, "lat": 52.4958639, "lon": 13.3316827}, {"type": "node", "id": 3229468692, "lat": 52.4958691, "lon": 13.3314341}, {"type": "node", "id": 3229468693, "lat": 52.4958705, "lon": 13.331428}, {"type": "node", "id": 3229468694, "lat": 52.4958715, "lon": 13.3316308}, {"type": "node", "id": 3229468695, "lat": 52.495873, "lon": 13.3316377}, {"type": "node", "id": 3229468696, "lat": 52.4958733, "lon": 13.3314245}, {"type": "node", "id": 3229468697, "lat": 52.4958755, "lon": 13.3314238}, {"type": "node", "id": 3229468698, "lat": 52.4958757, "lon": 13.331641}, {"type": "node", "id": 3229468699, "lat": 52.4959907, "lon": 13.3318437}, {"type": "node", "id": 3229468701, "lat": 52.4959928, "lon": 13.3318385}, {"type": "node", "id": 3229468703, "lat": 52.495994, "lon": 13.3319016}, {"type": "node", "id": 3229468704, "lat": 52.4959959, "lon": 13.3318345}, {"type": "node", "id": 3229468705, "lat": 52.496006, "lon": 13.3314216}, {"type": "node", "id": 3229468706, "lat": 52.4960079, "lon": 13.3314222}, {"type": "node", "id": 3229468707, "lat": 52.4960087, "lon": 13.3316326}, {"type": "node", "id": 3229468708, "lat": 52.4960102, "lon": 13.3314245}, {"type": "node", "id": 3229468709, "lat": 52.4960115, "lon": 13.3316311}, {"type": "node", "id": 3229468710, "lat": 52.496012, "lon": 13.3314293}, {"type": "node", "id": 3229468711, "lat": 52.4960123, "lon": 13.3314557}, {"type": "node", "id": 3229468712, "lat": 52.4960136, "lon": 13.3315991}, {"type": "node", "id": 3229468713, "lat": 52.4960136, "lon": 13.3316266}, {"type": "node", "id": 3229468715, "lat": 52.4960186, "lon": 13.3314552}, {"type": "node", "id": 3229468716, "lat": 52.4960192, "lon": 13.3314515}, {"type": "node", "id": 3229468717, "lat": 52.4960205, "lon": 13.3315987}, {"type": "node", "id": 3229468718, "lat": 52.4960228, "lon": 13.3314458}, {"type": "node", "id": 3229468719, "lat": 52.4960232, "lon": 13.3318325}, {"type": "node", "id": 3229468740, "lat": 52.4961004, "lon": 13.3314431}, {"type": "node", "id": 3229468742, "lat": 52.4961031, "lon": 13.3314454}, {"type": "node", "id": 3229468744, "lat": 52.496105, "lon": 13.3314502}, {"type": "node", "id": 3229468746, "lat": 52.4961125, "lon": 13.3314234}, {"type": "node", "id": 3229468747, "lat": 52.4961126, "lon": 13.3314502}, {"type": "node", "id": 3229468752, "lat": 52.4961169, "lon": 13.3314158}, {"type": "node", "id": 3229468866, "lat": 52.4962549, "lon": 13.3318615}, {"type": "node", "id": 3229468904, "lat": 52.4963252, "lon": 13.3314151}, {"type": "node", "id": 3229468929, "lat": 52.4963947, "lon": 13.3315337}, {"type": "node", "id": 3229468930, "lat": 52.4963955, "lon": 13.3315459}, {"type": "node", "id": 3229468932, "lat": 52.4963963, "lon": 13.3315348}, {"type": "node", "id": 3229468933, "lat": 52.4963983, "lon": 13.3315398}, {"type": "node", "id": 3229468936, "lat": 52.4964004, "lon": 13.3315545}, {"type": "node", "id": 3229468940, "lat": 52.4964087, "lon": 13.3315312}, {"type": "node", "id": 3229468943, "lat": 52.496413, "lon": 13.3315346}, {"type": "node", "id": 3229468944, "lat": 52.4964162, "lon": 13.3315285}, {"type": "node", "id": 3229468945, "lat": 52.4964188, "lon": 13.3315265}, {"type": "node", "id": 3229468947, "lat": 52.4964219, "lon": 13.3315275}, {"type": "node", "id": 3229468956, "lat": 52.4964421, "lon": 13.3315611}, {"type": "node", "id": 3249332574, "lat": 52.5311731, "lon": 13.384994, "tags": {"addr:city": "Berlin", "addr:country": "DE", "addr:housenumber": "28", "addr:postcode": "10115", "addr:street": "Invalidenstra\u00dfe", "addr:suburb": "Mitte", "source": "Geoportal Berlin / Hauskoordinaten"}}, {"type": "node", "id": 3274210861, "lat": 52.4860364, "lon": 13.4245294, "tags": {"addr:city": "Berlin", "addr:housenumber": "256-258", "addr:postcode": "12049", "addr:street": "Hermannstra\u00dfe", "amenity": "bank", "atm": "yes", "branch": "Investment & FinanzCenter", "brand": "Deutsche Bank", "brand:wikidata": "Q66048", "name": "Deutsche Bank Investment & FinanzCenter", "opening_hours": "Mo,Tu,Th 10:00-18:00; We,Fr 10:00-16:00", "operator": "Deutsche Bank AG", "phone": "+49 30 6272660", "website": "https://www.deutsche-bank.de/", "wheelchair": "limited"}}, {"type": "node", "id": 3296728800, "lat": 52.4414422, "lon": 13.5869399, "tags": {"addr:city": "Berlin", "addr:housenumber": "2-4", "addr:postcode": "12559", "addr:street": "Pablo-Neruda-Stra\u00dfe", "amenity": "bank", "atm": "yes", "brand": "Berliner Volksbank", "brand:wikidata": "Q821855", "brand:wikipedia": "de:Berliner Volksbank", "name": "Berliner Volksbank", "operator": "Berliner Volksbank", "website": "https://www.berliner-volksbank.de/", "wheelchair": "yes"}}, {"type": "node", "id": 3345025265, "lat": 52.4855749, "lon": 13.3329438}, {"type": "node", "id": 3345025267, "lat": 52.4855791, "lon": 13.3327765}, {"type": "node", "id": 3345025268, "lat": 52.4855804, "lon": 13.3327729}, {"type": "node", "id": 3345025269, "lat": 52.4855838, "lon": 13.3327672}, {"type": "node", "id": 3345025271, "lat": 52.48559, "lon": 13.3327642}, {"type": "node", "id": 3345025273, "lat": 52.4855953, "lon": 13.3327666}, {"type": "node", "id": 3345025274, "lat": 52.4855992, "lon": 13.3327715}, {"type": "node", "id": 3345025275, "lat": 52.4855996, "lon": 13.3327527}, {"type": "node", "id": 3345025276, "lat": 52.4855999, "lon": 13.3327592}, {"type": "node", "id": 3345025277, "lat": 52.4856011, "lon": 13.3327763}, {"type": "node", "id": 3345025278, "lat": 52.4856025, "lon": 13.332761}, {"type": "node", "id": 3345025279, "lat": 52.485605, "lon": 13.3327648}, {"type": "node", "id": 3345025280, "lat": 52.4856077, "lon": 13.3327758}, {"type": "node", "id": 3345025287, "lat": 52.485762, "lon": 13.3327476}, {"type": "node", "id": 3345025288, "lat": 52.4857707, "lon": 13.3326076}, {"type": "node", "id": 3345025289, "lat": 52.4857775, "lon": 13.3326098}, {"type": "node", "id": 3345025291, "lat": 52.4857808, "lon": 13.3325538}, {"type": "node", "id": 3345025297, "lat": 52.4858644, "lon": 13.3328546}, {"type": "node", "id": 3345025299, "lat": 52.4858702, "lon": 13.332839}, {"type": "node", "id": 3345025300, "lat": 52.4858725, "lon": 13.332936}, {"type": "node", "id": 3345025302, "lat": 52.4858764, "lon": 13.3328173}, {"type": "node", "id": 3345025303, "lat": 52.4858796, "lon": 13.3328007}, {"type": "node", "id": 3345025304, "lat": 52.4858807, "lon": 13.3328559}, {"type": "node", "id": 3345025305, "lat": 52.4858814, "lon": 13.3329364}, {"type": "node", "id": 3345025310, "lat": 52.4858933, "lon": 13.3325722}, {"type": "node", "id": 3354419279, "lat": 52.5040233, "lon": 13.3336718, "tags": {"addr:city": "Berlin", "addr:country": "DE", "addr:housenumber": "234", "addr:postcode": "10719", "addr:street": "Kurf\u00fcrstendamm", "addr:suburb": "Charlottenburg", "amenity": "bank", "branch": "Trinkhaus", "brand": "HSBC", "brand:wikidata": "Q190464", "brand:wikipedia": "en:HSBC", "name": "HSBC"}}, {"type": "node", "id": 3354430606, "lat": 52.5035001, "lon": 13.3351246, "tags": {"addr:city": "Berlin", "addr:country": "DE", "addr:housenumber": "33", "addr:postcode": "10789", "addr:street": "Rankestra\u00dfe", "addr:suburb": "Charlottenburg", "amenity": "bank", "atm": "yes", "check_date:opening_hours": "2024-02-19", "name": "Sparkasse", "opening_hours": "Mo,We,Fr 09:30-15:00; Tu,Th 09:30-18:00", "operator": "Berliner Sparkasse", "phone": "+49 30 86986969", "ref": "PKC 073", "website": "https://www.berliner-sparkasse.de/module/ihre_sparkasse/filialfinder/index.php?n=%2Fmodule%2Fihre_sparkasse%2Fstandorte-der-berliner-sparkasse%2Ffilialfinder%2F#details/37", "wheelchair": "yes"}}, {"type": "node", "id": 3431432662, "lat": 52.5102818, "lon": 13.4336353}, {"type": "node", "id": 3431432672, "lat": 52.51033, "lon": 13.4335211}, {"type": "node", "id": 3431432673, "lat": 52.5103789, "lon": 13.4337473}, {"type": "node", "id": 3431432675, "lat": 52.5103828, "lon": 13.4335819}, {"type": "node", "id": 3431432682, "lat": 52.5103954, "lon": 13.4335522}, {"type": "node", "id": 3431432686, "lat": 52.5104402, "lon": 13.4336039}, {"type": "node", "id": 3455613474, "lat": 52.500784, "lon": 13.312102, "tags": {"amenity": "bank", "atm": "yes", "atm:network": "Cash Group", "brand": "Deutsche Bank", "brand:wikidata": "Q66048", "brand:wikipedia": "en:Deutsche Bank", "check_date": "2024-03-04", "name": "Deutsche Bank", "opening_hours": "Mo-Su 06:00-22:00", "wheelchair": "yes"}}, {"type": "node", "id": 3481852903, "lat": 52.4860967, "lon": 13.3556625, "tags": {"addr:city": "Berlin", "addr:country": "DE", "addr:housenumber": "23/24", "addr:postcode": "10827", "addr:street": "Hauptstra\u00dfe", "addr:suburb": "Sch\u00f6neberg", "amenity": "bank", "atm": "yes", "atm:network": "Cash Group", "brand": "Commerzbank", "brand:wikidata": "Q157617", "brand:wikipedia": "de:Commerzbank", "name": "Commerzbank", "opening_hours": "Mo 09:00-13:00,14:00-16:00; Tu,Th 09:00-13:00,14:30-18:00; We,Fr 09:00-13:00", "wheelchair": "no"}}, {"type": "node", "id": 3530735894, "lat": 52.4528647, "lon": 13.1425214, "tags": {"addr:city": "Berlin", "addr:country": "DE", "addr:housenumber": "3", "addr:postcode": "14089", "addr:street": "Sakrower Landstra\u00dfe", "addr:suburb": "Kladow", "amenity": "bank", "atm": "yes", "brand": "Berliner Volksbank", "brand:wikidata": "Q821855", "brand:wikipedia": "de:Berliner Volksbank", "name": "Berliner Volksbank", "opening_hours": "Mo,Fr 09:00-13:00,14:00-16:00; Tu,Th 09:00-13:00,14:00-18:00; We 09:00-13:00", "operator": "Berliner Volksbank eG", "wheelchair": "limited"}}, {"type": "node", "id": 3612041573, "lat": 52.4348658, "lon": 13.3428843, "tags": {"addr:city": "Berlin", "addr:country": "DE", "addr:housenumber": "60-62", "addr:postcode": "12247", "addr:street": "Kaiser-Wilhelm-Stra\u00dfe", "addr:suburb": "Lankwitz", "amenity": "bank", "atm": "yes", "brand": "Postbank", "brand:wikidata": "Q708835", "brand:wikipedia": "de:Postbank", "name": "Postbank", "opening_hours": "Mo-Fr 09:00-18:00; Sa 09:00-13:00", "wheelchair": "yes"}}, {"type": "node", "id": 3612065220, "lat": 52.4350315, "lon": 13.2589843, "tags": {"addr:city": "Berlin", "addr:country": "DE", "addr:housenumber": "52", "addr:postcode": "14163", "addr:street": "Potsdamer Stra\u00dfe", "addr:suburb": "Zehlendorf", "amenity": "bank", "atm": "yes", "brand": "Postbank", "brand:wikidata": "Q708835", "brand:wikipedia": "de:Postbank", "check_date:opening_hours": "2024-08-31", "name": "Postbank", "opening_hours": "Mo-Fr 09:00-18:00; Sa 09:00-14:00; Su,PH off", "wheelchair": "yes"}}, {"type": "node", "id": 3612065221, "lat": 52.4164007, "lon": 13.3616914, "tags": {"amenity": "bank", "atm": "yes", "check_date:opening_hours": "2022-11-01", "name": "Postbank Finanzcenter", "opening_hours": "Mo-Fr 09:00-18:00; Sa 10:00-13:00", "ref": "48"}}, {"type": "node", "id": 3644146593, "lat": 52.4886385, "lon": 13.3425879, "tags": {"addr:city": "Berlin", "addr:housenumber": "61-62", "addr:postcode": "10825", "addr:street": "Grunewaldstra\u00dfe", "amenity": "bank", "atm": "yes", "check_date:opening_hours": "2023-04-29", "level": "0", "name": "Sparkasse", "opening_hours": "Mo,We,Fr 09:30-15:00; Tu,Th 09:30-18:00", "operator": "Berliner Sparkasse", "operator:wikidata": "Q821760", "ref": "PKC 099", "wheelchair": "yes", "wheelchair:description": "No automated doors"}}, {"type": "node", "id": 3644438000, "lat": 52.458029, "lon": 13.5791673, "tags": {"amenity": "bank", "brand": "Targobank", "brand:wikidata": "Q1455437", "brand:wikipedia": "en:Targobank", "level": "0", "name": "Targobank", "opening_hours": "Mo-Fr 09:00-13:00; Mo,Tu,Th 14:00-18:00; Fr 14:00-17:00; PH off", "wheelchair": "yes"}}, {"type": "node", "id": 3672738933, "lat": 52.4529689, "lon": 13.1416433, "tags": {"addr:city": "Berlin", "addr:housenumber": "10", "addr:postcode": "14089", "addr:street": "Sakrower Landstra\u00dfe", "amenity": "bank", "atm": "yes", "name": "Sparkasse", "opening_hours": "Tu 09:30-18:00; We 09:30-15:00", "operator": "Berliner Sparkasse", "ref": "PKC 080", "wheelchair": "yes"}}, {"type": "node", "id": 3678881050, "lat": 52.5049211, "lon": 13.331798, "tags": {"addr:city": "Berlin", "addr:country": "DE", "addr:housenumber": "41", "addr:postcode": "10623", "addr:street": "Joachimsthaler Stra\u00dfe", "addr:suburb": "Charlottenburg", "amenity": "bank", "atm": "yes", "atm:network": "Cash Group", "brand": "Postbank", "brand:wikidata": "Q708835", "brand:wikipedia": "de:Postbank", "check_date:opening_hours": "2024-06-10", "finance": "bank", "name": "Postbank", "opening_hours": "Mo 09:30-19:00; Tu-Fr 09:30-18:30; Sa 09:30-14:00", "wheelchair": "yes"}}, {"type": "node", "id": 3751771442, "lat": 52.4413847, "lon": 13.3865459, "tags": {"addr:city": "Berlin", "addr:housenumber": "118-120", "addr:postcode": "12109", "addr:street": "Mariendorfer Damm", "amenity": "bank", "atm": "yes", "name": "Sparkasse", "opening_hours": "Mo,We,Fr 09:30-15:00; Tu,Th 09:30-18:00", "operator": "Berliner Sparkasse", "ref": "PKC 132", "wheelchair": "yes"}}, {"type": "node", "id": 3772669591, "lat": 52.564565, "lon": 13.5072405, "tags": {"addr:city": "Berlin", "addr:housenumber": "1", "addr:postcode": "13051", "addr:street": "Prerower Platz", "amenity": "bank", "check_date:opening_hours": "2023-07-15", "level": "0", "name": "Sparkasse", "opening_hours": "Mo-Fr 09:30-18:00", "operator": "Berliner Sparkasse", "ref": "PKC 231", "wheelchair": "yes"}}, {"type": "node", "id": 3780861041, "lat": 52.5653949, "lon": 13.3638471, "tags": {"addr:city": "Berlin", "addr:housenumber": "117", "addr:postcode": "13409", "addr:street": "Residenzstra\u00dfe", "amenity": "bank", "atm": "yes", "check_date:opening_hours": "2023-08-28", "name": "Sparkasse", "opening_hours": "Mo,We,Fr 09:30-15:00; Tu,Th 09:30-18:00", "operator": "Berliner Sparkasse", "ref": "PKC 201", "website": "https://www.berliner-sparkasse.de/", "wheelchair": "yes"}}, {"type": "node", "id": 3801390185, "lat": 52.5022458, "lon": 13.3257578, "tags": {"amenity": "bank", "name": "Merck Finck & Co"}}, {"type": "node", "id": 3804836464, "lat": 52.5222017, "lon": 13.3798834, "tags": {"addr:city": "Berlin", "addr:country": "DE", "addr:housenumber": "41", "addr:postcode": "10117", "addr:street": "Luisenstra\u00dfe", "addr:suburb": "Mitte", "amenity": "bank", "atm": "yes", "brand": "BBBank", "brand:wikidata": "Q795504", "brand:wikipedia": "de:BBBank", "check_date": "2025-05-11", "contact:phone": "+49302830460", "currency:EUR": "yes", "name": "BBBank", "network": "CashPool;BankCard ServiceNetz", "opening_hours": "Mo,We 9:00-13:30, 14:30-16:00, Tu, Th 9:00-13:30, 14:30-18:30, Fr 9:00-13:30", "operator": "Baden-W\u00fcrttembergischer Genossenschaftsverband", "operator:en": "Baden-W\u00fcrttemberg Cooperative Association", "operator:wikidata": "Q798896", "operator:wikipedia": "de:Baden-W\u00fcrttembergischer Genossenschaftsverband", "wheelchair": "yes"}}, {"type": "node", "id": 3831846457, "lat": 52.5061552, "lon": 13.3129289, "tags": {"addr:city": "Berlin", "addr:country": "DE", "addr:housenumber": "129", "addr:postcode": "10625", "addr:street": "Kantstra\u00dfe", "addr:suburb": "Charlottenburg", "amenity": "bank", "atm": "yes", "brand": "apoBank", "contact:phone": "+49 30 315120", "contact:website": "https://www.apobank.de/", "name": "Deutsche Apotheker- und \u00c4rztebank", "network": "BankCard ServiceNetz", "opening_hours": "Mo-Th 08:30-16:00; We 08:30-17:00; Fr 08:30-15:00", "operator": "Deutsche Apotheker- und \u00c4rztebank eG", "wheelchair": "yes"}}, {"type": "node", "id": 3923928387, "lat": 52.5196275, "lon": 13.3865271, "tags": {"addr:city": "Berlin", "addr:country": "DE", "addr:housenumber": "23", "addr:postcode": "10117", "addr:street": "Georgenstra\u00dfe", "addr:suburb": "Mitte", "amenity": "bank", "atm": "yes", "brand": "Sparda-Bank Berlin", "brand:wikidata": "Q1656189", "brand:wikipedia": "de:Sparda-Bank (Deutschland)", "name": "Sparda-Bank Berlin", "network": "BankCard ServiceNetz", "network:wikidata": "Q806724", "opening_hours": "Mo,Tu,Th 09:00-13:00,14:00-18:00, We,Fr 09:00-13:00; PH off", "operator": "Sparda-Bank Berlin eG", "operator:wikidata": "Q1656189", "wheelchair": "yes"}}, {"type": "node", "id": 3959492199, "lat": 52.5379735, "lon": 13.6040853, "tags": {"amenity": "bank", "brand": "Targobank", "brand:wikidata": "Q1455437", "brand:wikipedia": "en:Targobank", "name": "Targobank"}}, {"type": "node", "id": 3959492214, "lat": 52.5378952, "lon": 13.604096, "tags": {"amenity": "bank", "atm": "yes", "brand": "Berliner Volksbank", "brand:wikidata": "Q821855", "brand:wikipedia": "de:Berliner Volksbank", "contact:website": "https://www.berliner-volksbank.de/", "name": "Berliner Volksbank", "opening_hours": "Mo-Th 10:00-13:00,14:00-18:00, We,Fr 10:00-13:00,14:00-16:00; PH off", "operator": "Berliner Volksbank eG"}}, {"type": "node", "id": 4016608995, "lat": 52.4921793, "lon": 13.3869499, "tags": {"amenity": "bank", "atm": "yes", "brand": "Berliner Volksbank", "brand:wikidata": "Q821855", "brand:wikipedia": "de:Berliner Volksbank", "contact:phone": "+49 30 30633300", "contact:website": "https://www.berliner-volksbank.de/", "name": "Berliner Volksbank", "opening_hours": "Mo-Fr 10:00-13:00", "operator": "Berliner Volksbank eG", "wheelchair": "limited"}}, {"type": "node", "id": 4057899359, "lat": 52.4328568, "lon": 13.5367968, "tags": {"addr:city": "Berlin", "addr:country": "DE", "addr:housenumber": "9", "addr:postcode": "12489", "addr:street": "Rudower Chaussee", "addr:suburb": "Adlershof", "amenity": "bank", "atm": "yes", "brand": "Berliner Volksbank", "brand:wikidata": "Q821855", "brand:wikipedia": "de:Berliner Volksbank", "check_date": "2023-03-17", "description": "f\u00fcr Gesch\u00e4ftskunden", "name": "Berliner Volksbank", "opening_hours": "Mo-Fr 09:00-18:00", "operator": "Berliner Volksbank", "wheelchair": "yes"}}, {"type": "node", "id": 4111673894, "lat": 52.4602939, "lon": 13.3236624, "tags": {"addr:city": "Berlin", "addr:country": "DE", "addr:housenumber": "21", "addr:postcode": "12163", "addr:street": "Schlo\u00dfstra\u00dfe", "addr:suburb": "Steglitz", "amenity": "bank", "atm": "yes", "brand": "Postbank", "brand:wikidata": "Q708835", "brand:wikipedia": "de:Postbank", "check_date": "2025-04-06", "check_date:opening_hours": "2025-04-06", "name": "Postbank", "opening_hours": "Mo-Fr 10:00-19:00; Sa 09:00-14:00; Su off", "operator": "Postbank", "payment:mastercard": "yes", "payment:visa": "yes", "post_office": "post_annex", "post_office:brand": "Deutsche Post;DHL", "post_office:service_provider": "DPAG", "post_office:service_provider:wikidata": "Q157645", "wheelchair": "limited"}}, {"type": "node", "id": 4221322270, "lat": 52.5311399, "lon": 13.3848744}, {"type": "node", "id": 4221322283, "lat": 52.5312063, "lon": 13.3851136}, {"type": "node", "id": 4221323792, "lat": 52.5312325, "lon": 13.3848052}, {"type": "node", "id": 4221323799, "lat": 52.5312613, "lon": 13.3848105}, {"type": "node", "id": 4221323803, "lat": 52.5312542, "lon": 13.3850596}, {"type": "node", "id": 4221323814, "lat": 52.5312924, "lon": 13.3850165}, {"type": "node", "id": 4221323820, "lat": 52.5313214, "lon": 13.3847391}, {"type": "node", "id": 4221323821, "lat": 52.5313318, "lon": 13.3847793}, {"type": "node", "id": 4221323826, "lat": 52.5313396, "lon": 13.3849632}, {"type": "node", "id": 4221323835, "lat": 52.5313837, "lon": 13.3849134}, {"type": "node", "id": 4224268265, "lat": 52.5475319, "lon": 13.357655, "tags": {"addr:city": "Berlin", "addr:country": "DE", "addr:housenumber": "30", "addr:postcode": "13353", "addr:street": "M\u00fcllerstra\u00dfe", "addr:suburb": "Wedding", "amenity": "bank", "brand": "Reisebank", "brand:wikidata": "Q1421107", "brand:wikipedia": "de:Reisebank", "check_date": "2023-06-22", "check_date:opening_hours": "2024-02-15", "name": "Reisebank", "opening_hours": "Mo-Fr 10:00-18:00", "payment:credit_cards": "yes", "payment:debit_cards": "yes", "payment:girocard": "yes", "payment:mastercard": "yes", "payment:visa": "yes", "wheelchair": "limited"}}, {"type": "node", "id": 4233705435, "lat": 52.5340954, "lon": 13.1985882}, {"type": "node", "id": 4233705436, "lat": 52.5341228, "lon": 13.1984479}, {"type": "node", "id": 4233705441, "lat": 52.5342438, "lon": 13.1986608}, {"type": "node", "id": 4233705444, "lat": 52.5342689, "lon": 13.1985185}, {"type": "node", "id": 4304451193, "lat": 52.4562208, "lon": 13.577197, "tags": {"amenity": "bank", "check_date": "2025-06-24", "name": "LBS", "office": "insurance", "wheelchair": "no"}}, {"type": "node", "id": 4304451194, "lat": 52.4568785, "lon": 13.5776433, "tags": {"addr:city": "Berlin", "addr:country": "DE", "addr:housenumber": "41", "addr:postcode": "12555", "addr:street": "Bahnhofstra\u00dfe", "addr:suburb": "K\u00f6penick", "amenity": "bank", "atm": "yes", "brand": "Deutsche Bank", "brand:wikidata": "Q66048", "brand:wikipedia": "en:Deutsche Bank", "check_date": "2025-06-24", "name": "Deutsche Bank", "operator": "Deutsche Bank"}}, {"type": "node", "id": 4357762785, "lat": 52.5102927, "lon": 13.4336095, "tags": {"amenity": "atm", "brand": "Reisebank", "brand:wikidata": "Q1421107", "brand:wikipedia": "de:Reisebank", "cash_in": "no", "level": "0", "name": "Reisebank", "opening_hours": "24/7", "operator": "Reisebank", "operator:wikidata": "Q1421107", "operator:wikipedia": "de:Reisebank", "wheelchair": "yes"}}, {"type": "node", "id": 4457967201, "lat": 52.5097512, "lon": 13.3902008, "tags": {"addr:city": "Berlin", "addr:housenumber": "56", "addr:postcode": "10117", "addr:street": "Friedrichstra\u00dfe", "amenity": "bank", "brand": "Denizbank", "brand:wikidata": "Q1115064", "brand:wikipedia": "en:DenizBank", "name": "Denizbank", "opening_hours": "Mo-Fr 09:00-12:00,13:00-17:00", "wheelchair": "yes"}}, {"type": "node", "id": 4464731328, "lat": 52.4712266, "lon": 13.332116, "tags": {"addr:city": "Berlin", "addr:country": "DE", "addr:housenumber": "34-36", "addr:postcode": "12159", "addr:street": "Handjerystra\u00dfe", "addr:suburb": "Friedenau", "amenity": "bank", "atm": "yes", "brand": "PSD Bank", "brand:wikidata": "Q1568800", "check_date:opening_hours": "2024-07-11", "contact:phone": "+49 30 850820", "contact:website": "https://www.psd-berlin-brandenburg.de/", "name": "PSD Bank Berlin-Brandenburg", "network": "BankCard ServiceNetz", "network:wikidata": "Q806724", "opening_hours": "Mo,We 09:00-18:00; Tu,Th 09:00-15:00; Fr 09:00-14:00", "operator": "PSD Bank Berlin-Brandenburg eG", "wikidata": "Q2044645"}}, {"type": "node", "id": 4515050389, "lat": 52.5297566, "lon": 13.3999792, "tags": {"addr:housenumber": "131", "addr:postcode": "10119", "addr:street": "Torstra\u00dfe", "amenity": "bank", "atm": "yes", "check_date": "2024-06-11", "check_date:opening_hours": "2023-06-03", "level": "0", "name": "Sparkasse", "opening_hours": "Tu,Th 09:30-18:00; Mo 09:30-15:00", "operator": "Berliner Sparkasse", "ref": "PKC 005", "wheelchair": "yes"}}, {"type": "node", "id": 4537589632, "lat": 52.5236237, "lon": 13.4799737, "tags": {"amenity": "bank", "check_date:opening_hours": "2024-09-30", "name": "Vietin Bank", "opening_hours": "Mo-Th 09:00-13:00, Mo,We 14:00-16:00, Tu,Th 14:00-17:00, Fr 09:00-14:30", "wheelchair": "yes"}}, {"type": "node", "id": 4537589638, "lat": 52.544059, "lon": 13.5473669, "tags": {"amenity": "bank", "brand": "Targobank", "brand:wikidata": "Q1455437", "brand:wikipedia": "en:Targobank", "check_date:opening_hours": "2024-10-03", "name": "Targobank", "opening_hours": "Mo,Tu,Th 10:00-13:00,14:00-18:00; We,Fr 10:00-13:00", "wheelchair": "yes"}}, {"type": "node", "id": 4537589642, "lat": 52.5432793, "lon": 13.5463128, "tags": {"amenity": "bank", "check_date": "2024-08-11", "check_date:opening_hours": "2022-04-16", "name": "Berliner Sparkasse", "opening_hours": "\"nach Vereinbarung\"", "wheelchair": "yes"}}, {"type": "node", "id": 4537589643, "lat": 52.5429898, "lon": 13.5439631, "tags": {"amenity": "bank", "brand": "Commerzbank", "brand:wikidata": "Q157617", "brand:wikipedia": "en:Commerzbank", "check_date": "2024-08-11", "name": "Commerzbank", "opening_hours": "24/7", "wheelchair": "yes"}}, {"type": "node", "id": 4554017836, "lat": 52.5075807, "lon": 13.3024475, "tags": {"addr:city": "Berlin", "addr:country": "DE", "addr:postcode": "10627", "addr:street": "Kaiser-Friedrich-Stra\u00dfe", "addr:suburb": "Charlottenburg", "amenity": "bank", "brand": "Western Union", "brand:wikidata": "Q861042", "brand:wikipedia": "en:Western Union", "check_date:opening_hours": "2024-03-24", "name": "Western Union", "opening_hours": "Mo-Sa 09:00-20:00", "wheelchair": "no"}}, {"type": "node", "id": 4712176336, "lat": 52.4650346, "lon": 13.4860903, "tags": {"addr:city": "Berlin", "addr:country": "DE", "addr:housenumber": "84/85", "addr:postcode": "12437", "addr:street": "Baumschulenstra\u00dfe", "addr:suburb": "Baumschulenweg", "amenity": "bank", "atm": "yes", "brand": "Sparda-Bank Berlin", "brand:wikidata": "Q1656189", "brand:wikipedia": "de:Sparda-Bank (Deutschland)", "check_date": "2025-01-05", "check_date:opening_hours": "2025-01-05", "contact:email": "hallo@sparda-b.de", "contact:phone": "+49 30 25564203", "contact:website": "https://www.sparda-b.de/", "drive_through": "no", "name": "Sparda-Bank Berlin", "opening_hours": "Mo,Tu,Th 09:00-13:00, Tu,Th 14:00-18:00", "operator": "Sparda-Bank eG", "wheelchair": "yes"}}, {"type": "node", "id": 4715193690, "lat": 52.4546767, "lon": 13.6249033, "tags": {"amenity": "bank", "brand": "HypoVereinsbank", "brand:wikidata": "Q220189", "brand:wikipedia": "en:HypoVereinsbank", "check_date:opening_hours": "2023-12-16", "name": "HypoVereinsbank", "opening_hours": "Mo 10:00-13:00; Th 14:30-17:00; Tu,We,Fr off", "wheelchair": "no"}}, {"type": "node", "id": 4719368482, "lat": 52.4862488, "lon": 13.4238853, "tags": {"addr:city": "Berlin", "addr:country": "DE", "addr:housenumber": "119", "addr:postcode": "10967", "addr:street": "Hasenheide", "addr:suburb": "Neuk\u00f6lln", "amenity": "bank", "atm": "yes", "check_date": "2024-08-18", "name": "Sparkasse", "opening_hours": "Mo,We,Fr 09:30-15:00; Tu,Th 09:30-18:00", "opening_hours:atm": "Mo-Fr 6:00-23:00; Sa-Su 8:00-23:00", "operator": "Berliner Sparkasse", "ref": "PKC 144", "wheelchair": "yes"}}, {"type": "node", "id": 4722086754, "lat": 52.5210781, "lon": 13.5873974, "tags": {"addr:city": "Berlin", "addr:housenumber": "77", "addr:postcode": "12619", "addr:street": "Hellersdorfer Stra\u00dfe", "amenity": "bank", "atm": "yes", "brand:wikidata": "Q821760", "drive_through": "no", "level": "0", "network:wikidata": "Q2307760", "opening_hours": "Mo,We,Fr 09:30-15:00, Tu,Th 09:30-18:00; PH off", "operator:wikidata": "Q821760", "phone": "+49 30 86986969", "ref": "PKC 224", "website": "https://www.berliner-sparkasse.de", "wheelchair": "yes"}}, {"type": "node", "id": 4723290160, "lat": 52.5473104, "lon": 13.5928928, "tags": {"addr:city": "Berlin", "addr:housenumber": "148", "addr:postcode": "12629", "addr:street": "Alte Hellersdorfer Stra\u00dfe", "amenity": "bank", "atm": "yes", "check_date:opening_hours": "2021-06-02", "drive_through": "no", "fixme": "seit einer Geldautomatensprengung im letzten Jahr ist diese Filiale vorr\u00fcbergehend (wahrscheinlich f\u00fcr immer) geschlossen", "name": "Sparkasse", "opening_hours": "Mo,We,Fr 09:30-15:00, Tu,Th 09:30-18:00; PH off", "operator": "Berliner Sparkasse", "ref": "PKC 225", "wheelchair": "yes"}}, {"type": "node", "id": 4723299597, "lat": 52.5435705, "lon": 13.5436114, "tags": {"addr:city": "Berlin", "addr:housenumber": "1a", "addr:postcode": "12679", "addr:street": "Marzahner Promenade", "amenity": "bank", "atm": "yes", "check_date:opening_hours": "2024-10-05", "level": "0", "name": "Sparkasse", "opening_hours": "Tu,Th 09:30-18:00; Mo,We,Fr 09:30-15:00", "operator": "Berliner Sparkasse", "ref": "PKC 215", "wheelchair": "yes"}}, {"type": "node", "id": 4724052367, "lat": 52.5555795, "lon": 13.5609821, "tags": {"addr:city": "Berlin", "addr:housenumber": "22", "addr:postcode": "12687", "addr:street": "Mehrower Allee", "amenity": "bank", "atm": "yes", "drive_through": "no", "name": "Sparkasse", "opening_hours": "Mo,We,Fr 09:30-15:00; Tu,Th 09:30-18:00", "operator": "Berliner Sparkasse", "ref": "PKC 218", "wheelchair": "yes"}}, {"type": "node", "id": 4724701017, "lat": 52.6051514, "lon": 13.4321245, "tags": {"addr:city": "Berlin", "addr:housenumber": "13a", "addr:postcode": "13127", "addr:street": "Hauptstra\u00dfe", "amenity": "bank", "check_date:opening_hours": "2024-08-05", "name": "Sparkasse", "opening_hours": "Mo,We,Fr 09:30-15:00; Tu,Th 09:30-18:00", "operator": "Berliner Sparkasse", "ref": "PKC 193", "wheelchair": "yes"}}, {"type": "node", "id": 4724815743, "lat": 52.5985978, "lon": 13.3556396, "tags": {"addr:city": "Berlin", "addr:housenumber": "1", "addr:postcode": "13439", "addr:street": "Senftenberger Ring", "amenity": "bank", "atm": "yes", "name": "Sparkasse", "opening_hours": "Mo-Fr 09:30-15:00; Tu,Th 09:30-18:00", "operator": "Berliner Sparkasse", "ref": "PKC 208", "wheelchair": "yes"}}, {"type": "node", "id": 4909118855, "lat": 52.5556985, "lon": 13.5593851, "tags": {"addr:city": "Berlin", "addr:housenumber": "20", "addr:postcode": "12687", "addr:street": "Mehrower Allee", "amenity": "bank", "atm": "yes", "brand": "Sparda-Bank Berlin", "brand:wikidata": "Q1656189", "brand:wikipedia": "de:Sparda-Bank (Deutschland)", "name": "Sparda-Bank Berlin", "opening_hours": "Tu, We, Fr 10:00-13:00; Mo 10:00-13:00, 16:00-18:00; Th 09:00-13:00, 14:00-18:00", "operator": "Sparda-Bank Berlin eG", "phone": "+493042080420", "website": "https://www.sparda-b.de", "wheelchair": "yes"}}, {"type": "node", "id": 4987882622, "lat": 52.429988, "lon": 13.4552831, "tags": {"amenity": "bank", "brand": "Commerzbank", "brand:wikidata": "Q157617", "brand:wikipedia": "de:Commerzbank", "check_date": "2023-07-14", "name": "Commerzbank", "name:de": "Commerzbank", "wheelchair": "yes"}}, {"type": "node", "id": 5147944700, "lat": 52.5051114, "lon": 13.3420037, "tags": {"amenity": "bank", "atm": "yes", "brand": "Berliner Volksbank", "brand:wikidata": "Q821855", "brand:wikipedia": "de:Berliner Volksbank", "check_date": "2024-11-22", "name": "Berliner Volksbank", "opening_hours": "24/7", "wheelchair": "yes"}}, {"type": "node", "id": 5245852613, "lat": 52.5090141, "lon": 13.38978, "tags": {"addr:housenumber": "200", "addr:street": "Friedrichstra\u00dfe", "amenity": "bank", "description": "Ev. Kirchenbank", "name": "KD-Bank - Bank f. Kirche u. Diakonie", "phone": "+4930 308891-0", "toilets:wheelchair": "no", "website": "https://www.kd-bank.de/", "wheelchair": "yes"}}, {"type": "node", "id": 5440795332, "lat": 52.401831, "lon": 13.2687026}, {"type": "node", "id": 5440795333, "lat": 52.4018475, "lon": 13.2687803}, {"type": "node", "id": 5440795334, "lat": 52.4018897, "lon": 13.2688168}, {"type": "node", "id": 5440795335, "lat": 52.4019618, "lon": 13.268739}, {"type": "node", "id": 5440795336, "lat": 52.4018384, "lon": 13.2687585}, {"type": "node", "id": 5440795337, "lat": 52.401925, "lon": 13.268808}, {"type": "node", "id": 5440795338, "lat": 52.4018642, "lon": 13.2688028}, {"type": "node", "id": 5440795339, "lat": 52.4018365, "lon": 13.2686643}, {"type": "node", "id": 5471345774, "lat": 52.5615408, "lon": 13.4223373, "tags": {"addr:city": "Berlin", "addr:housenumber": "13", "addr:postcode": "13189", "addr:street": "Neumannstra\u00dfe", "amenity": "bank", "check_date": "2024-08-16", "level": "0", "name": "Berliner Sparkasse", "opening_hours": "Mo 09:30-15:00; Tu 09:30-18:00; Fr 09:30-15:00", "operator": "Berliner Sparkasse", "website": "https://www.berliner-sparkasse.de/de/home/toolbar/filialen/berliner-sparkasse-privatkundencenter-neumannstrasse-pkc-192-34250.html", "wheelchair": "yes"}}, {"type": "node", "id": 5482450456, "lat": 52.426824, "lon": 13.3266239}, {"type": "node", "id": 5482450580, "lat": 52.4266437, "lon": 13.3267435}, {"type": "node", "id": 5482450581, "lat": 52.426636, "lon": 13.3265733}, {"type": "node", "id": 5482451241, "lat": 52.4266076, "lon": 13.3265917}, {"type": "node", "id": 5482451242, "lat": 52.4265924, "lon": 13.3263927}, {"type": "node", "id": 5718697021, "lat": 52.498426, "lon": 13.3619781, "tags": {"amenity": "bank", "atm": "no", "brand": "Western Union", "brand:wikidata": "Q861042", "brand:wikipedia": "en:Western Union", "name": "Western Union"}}, {"type": "node", "id": 5762019473, "lat": 52.5129841, "lon": 13.3162249}, {"type": "node", "id": 5774792924, "lat": 52.5372453, "lon": 13.2060017, "tags": {"amenity": "bank", "brand": "Deutsche Bank", "brand:wikidata": "Q66048", "brand:wikipedia": "en:Deutsche Bank", "check_date": "2023-05-27", "name": "Deutsche Bank", "wheelchair": "yes"}}, {"type": "node", "id": 5785192449, "lat": 52.5699034, "lon": 13.4036524, "tags": {"addr:city": "Berlin", "addr:housenumber": "20", "addr:postcode": "13187", "addr:street": "Breite Stra\u00dfe", "addr:suburb": "Pankow", "amenity": "bank", "atm": "yes", "brand": "Postbank", "brand:wikidata": "Q708835", "brand:wikipedia": "de:Postbank", "check_date:opening_hours": "2024-01-15", "level": "-1", "name": "Postbank", "opening_hours": "Mo-Fr 09:30-18:30; Sa 09:30-14:00", "operator": "Postbank", "wheelchair": "yes"}}, {"type": "node", "id": 5791596549, "lat": 52.5128121, "lon": 13.3150362, "tags": {"entrance": "main"}}, {"type": "node", "id": 5791596656, "lat": 52.5125909, "lon": 13.3159145}, {"type": "node", "id": 5791596660, "lat": 52.5134395, "lon": 13.3153369}, {"type": "node", "id": 5791596661, "lat": 52.5127611, "lon": 13.3150405}, {"type": "node", "id": 5791596662, "lat": 52.5133566, "lon": 13.3151113}, {"type": "node", "id": 5791596663, "lat": 52.5135869, "lon": 13.3156437}, {"type": "node", "id": 5791596664, "lat": 52.5135796, "lon": 13.3158767}, {"type": "node", "id": 5791596665, "lat": 52.5134566, "lon": 13.316085}, {"type": "node", "id": 5791596666, "lat": 52.5134285, "lon": 13.3160683}, {"type": "node", "id": 5791596667, "lat": 52.513363, "lon": 13.3163249}, {"type": "node", "id": 5791596668, "lat": 52.5129922, "lon": 13.3160219}, {"type": "node", "id": 5791596669, "lat": 52.5129756, "lon": 13.3159283}, {"type": "node", "id": 5791596670, "lat": 52.5126606, "lon": 13.3159041}, {"type": "node", "id": 5791596671, "lat": 52.5124355, "lon": 13.3159378}, {"type": "node", "id": 5791596672, "lat": 52.5124249, "lon": 13.3157439}, {"type": "node", "id": 5791596673, "lat": 52.5124158, "lon": 13.3156219}, {"type": "node", "id": 5791596674, "lat": 52.5123747, "lon": 13.3149937}, {"type": "node", "id": 5791596694, "lat": 52.513357, "lon": 13.3151026}, {"type": "node", "id": 5791596695, "lat": 52.5128678, "lon": 13.3150498}, {"type": "node", "id": 5791596696, "lat": 52.5128677, "lon": 13.3150525}, {"type": "node", "id": 5791596697, "lat": 52.5128554, "lon": 13.3150512}, {"type": "node", "id": 5791596698, "lat": 52.5127615, "lon": 13.3150307}, {"type": "node", "id": 5791596699, "lat": 52.5128558, "lon": 13.3150409}, {"type": "node", "id": 5791596706, "lat": 52.5124123, "lon": 13.3156215}, {"type": "node", "id": 5791621135, "lat": 52.5128797, "lon": 13.315922}, {"type": "node", "id": 5945635506, "lat": 52.4856043, "lon": 13.3546589, "tags": {"amenity": "bank", "brand": "Postbank", "brand:wikidata": "Q708835", "brand:wikipedia": "de:Postbank", "check_date": "2025-04-13", "name": "Postbank", "opening_hours": "Mo-Fr 09:00-18:30; Sa 09:00-13:00 || Mo-Fr 09:00-18:30; Sa 09:00-13:00 \"SB-Bereich"}}, {"type": "node", "id": 6044549331, "lat": 52.5089007, "lon": 13.3787687, "tags": {"addr:city": "Berlin", "addr:housenumber": "8", "addr:postcode": "10117", "addr:street": "Leipziger Platz", "amenity": "bank", "atm": "yes", "atm:network": "Cash Group", "brand": "Deutsche Bank", "brand:wikidata": "Q66048", "brand:wikipedia": "en:Deutsche Bank", "drive_through": "no", "name": "Deutsche Bank", "opening_hours": "Mo,We,Fr 10:00-14:00; Tu,Th 10:00-13:00,14:00-18:00", "phone": "+49 30 3407 0", "wheelchair": "yes"}}, {"type": "node", "id": 6111072585, "lat": 52.4731276, "lon": 13.2985116, "tags": {"addr:city": "Berlin", "addr:country": "DE", "addr:housenumber": "51", "addr:postcode": "14199", "addr:street": "Breite Stra\u00dfe", "addr:suburb": "Schmargendorf", "amenity": "bank", "atm": "no", "check_date": "2024-08-26", "check_date:opening_hours": "2024-08-26", "drive_through": "no", "name": "W\u00fcstenrot", "opening_hours": "Mo-Th 09:00-13:00,14:00-18:00", "operator": "W\u00fcstenrot"}}, {"type": "node", "id": 6267004287, "lat": 52.5526597, "lon": 13.3815603, "tags": {"amenity": "bank", "atm": "no", "brand": "Santander", "brand:wikidata": "Q875292", "brand:wikipedia": "en:Santander Bank", "name": "Santander", "opening_hours": "Mo-Th 09:00-13:00, Mo,We 14:00-17:00, Tu,Th 14:00-18:00, Fr 09:00-14:00", "operator": "Santander", "wheelchair": "yes"}}, {"type": "node", "id": 6778945912, "lat": 52.4386393, "lon": 13.2149987}, {"type": "node", "id": 6778945913, "lat": 52.4386152, "lon": 13.2150126}, {"type": "node", "id": 6778945914, "lat": 52.4386126, "lon": 13.2150008}, {"type": "node", "id": 6778945915, "lat": 52.438662, "lon": 13.2149365}, {"type": "node", "id": 6778945916, "lat": 52.4386343, "lon": 13.2148908}, {"type": "node", "id": 6778945917, "lat": 52.4386194, "lon": 13.2148292}, {"type": "node", "id": 6778945918, "lat": 52.4386314, "lon": 13.2148213}, {"type": "node", "id": 6778945919, "lat": 52.4386126, "lon": 13.2147397}, {"type": "node", "id": 6778945920, "lat": 52.4385909, "lon": 13.2147753}, {"type": "node", "id": 6801285875, "lat": 52.5149174, "lon": 13.3893671, "tags": {"addr:housenumber": "79", "addr:street": "Friedrichstra\u00dfe", "amenity": "bank", "atm": "yes", "atm:network": "Cash Group", "brand": "Commerzbank", "brand:wikidata": "Q157617", "brand:wikipedia": "de:Commerzbank", "check_date": "2022-12-14", "level": "0", "name": "Commerzbank", "opening_hours": "Mo-Fr 09:00-13:00, Mo 14:00-16:00, Tu,Th 14:30-18:00", "wheelchair": "yes"}}, {"type": "node", "id": 7021823831, "lat": 52.5358013, "lon": 13.4345491, "tags": {"addr:city": "Berlin", "addr:country": "DE", "addr:housenumber": "127", "addr:postcode": "10407", "addr:street": "Danziger Stra\u00dfe", "addr:suburb": "Prenzlauer Berg", "amenity": "bank", "check_date:opening_hours": "2024-07-09", "name": "Creditplus Bank Berlin", "opening_hours": "Mo,Tu 09:00-18:00; Fr 09:00-15:00; We,Th 09:00-16:00", "wheelchair": "limited"}}, {"type": "node", "id": 7261139569, "lat": 52.4764909, "lon": 13.4263444, "tags": {"amenity": "bank", "brand": "Western Union", "brand:wikidata": "Q861042", "brand:wikipedia": "en:Western Union", "name": "Western Union", "opening_hours": "Mo-Fr 09:00-13:30, Sa 10:00-18:00, Mo-Fr 14:15-18:00"}}, {"type": "node", "id": 7822616409, "lat": 52.5132416, "lon": 13.3162895, "tags": {"barrier": "gate"}}, {"type": "node", "id": 7885159225, "lat": 52.4959397, "lon": 13.3314227}, {"type": "node", "id": 7885159226, "lat": 52.4959434, "lon": 13.3316367}, {"type": "node", "id": 8229424320, "lat": 52.5127909, "lon": 13.3159158}, {"type": "node", "id": 8229424323, "lat": 52.5128575, "lon": 13.3159205}, {"type": "node", "id": 8397700150, "lat": 52.5627815, "lon": 13.3273677, "tags": {"addr:city": "Berlin", "addr:housenumber": "1-15", "addr:postcode": "13405", "addr:street": "Kurt-Schumacher-Damm", "amenity": "bank", "atm": "yes", "brand": "Postbank", "brand:wikidata": "Q708835", "brand:wikipedia": "de:Postbank", "check_date:opening_hours": "2024-11-02", "drive_through": "no", "level": "0", "name": "Postbank", "opening_hours": "Mo-Fr 09:00-18:00; Sa 09:00-14:00", "wheelchair": "yes"}}, {"type": "node", "id": 8462242291, "lat": 52.5648245, "lon": 13.506073, "tags": {"addr:city": "Berlin", "addr:housenumber": "1", "addr:postcode": "13051", "addr:street": "Prerower Platz", "amenity": "bank", "brand": "ING", "brand:wikidata": "Q645708", "brand:wikipedia": "en:ING Group", "name": "ING"}}, {"type": "node", "id": 8462242299, "lat": 52.5646627, "lon": 13.5070677, "tags": {"addr:city": "Berlin", "addr:housenumber": "1", "addr:postcode": "13051", "addr:street": "Prerower Platz", "amenity": "bank", "brand": "Postbank", "brand:wikidata": "Q708835", "brand:wikipedia": "en:Deutsche Postbank", "level": "0", "name": "Postbank", "opening_hours": "Mo-Fr 09:00-18:30; Sa 09:00-12:00"}}, {"type": "node", "id": 8611640566, "lat": 52.5487108, "lon": 13.3556221, "tags": {"addr:city": "Berlin", "addr:housenumber": "34a", "addr:postcode": "13353", "addr:street": "M\u00fcllerstra\u00dfe", "amenity": "bank", "atm": "yes", "branch": "Filiale Berlin", "brand": "\u0130\u015fbank", "brand:wikidata": "Q2607251", "brand:wikipedia": "de:\u0130\u015fbank", "check_date:opening_hours": "2024-02-15", "name": "\u0130\u015fbank", "opening_hours": "Mo-We 08:30-13:00,14:00-16:30; Th 08:30-13:00,14:00-17:30; Fr 08:30-13:00,14:00-16:30", "wheelchair": "yes"}}, {"type": "node", "id": 9147776075, "lat": 52.5067214, "lon": 13.3931644, "tags": {"addr:city": "Berlin", "addr:housenumber": "17", "addr:postcode": "10969", "addr:street": "Rudi-Dutschke-Stra\u00dfe", "amenity": "bank", "atm": "yes", "name": "SB-Service", "operator:wikidata": "Q821760", "wheelchair": "yes"}}, {"type": "node", "id": 9654277830, "lat": 52.5506715, "lon": 13.163499, "tags": {"amenity": "bank", "brand": "Postbank", "brand:wikidata": "Q708835", "brand:wikipedia": "de:Postbank", "name": "Postbank", "opening_hours": "Mo 09:00-18:00, Tu-Fr 09:00-13:00, Tu-Th 14:00-18:00, Sa 09:00-13:00"}}, {"type": "node", "id": 9783952823, "lat": 52.5650834, "lon": 13.3640724, "tags": {"amenity": "bank", "brand": "Deutsche Bank", "brand:wikidata": "Q66048", "name": "Deutsche Bank", "opening_hours": "Mo,Tu,Th 10:00-18:00; Fr 10:00-14:00", "wheelchair": "yes"}}, {"type": "node", "id": 9798306522, "lat": 52.5102542, "lon": 13.3908408, "tags": {"addr:city": "Berlin", "addr:housenumber": "31", "addr:postcode": "10117", "addr:street": "Leipziger Stra\u00dfe", "amenity": "bank", "name": "Ziraat Bank", "opening_hours": "Mo-Fr 09:00-12:00, Mo,We 13:00-17:00, Th 13:00-18:00, Fr 13:00-16:15", "operator": "T.C. Ziraat Bankas\u0131"}}, {"type": "node", "id": 9798306523, "lat": 52.5101755, "lon": 13.3893814, "tags": {"addr:city": "Berlin", "addr:housenumber": "26", "addr:postcode": "10117", "addr:street": "Leipziger Stra\u00dfe", "amenity": "bank", "name": "KT Bank", "opening_hours": "Mo-Th 09:00-13:00, Fr 09:00-12:30, Th 14:00-18:00, Mo 14:00-17:00, Tu 14:00-17:00, Fr 14:30-16:30"}}, {"type": "node", "id": 9891857477, "lat": 52.5311624, "lon": 13.3848576}, {"type": "node", "id": 9998946661, "lat": 52.635039, "lon": 13.4956023, "tags": {"addr:city": "Berlin", "addr:housenumber": "5", "addr:postcode": "13125", "addr:street": "Wiltbergstra\u00dfe", "amenity": "bank", "atm": "yes", "contact:phone": "+49 30 86986969", "name": "Privatkundencenter Buch", "operator": "Berliner Sparkasse"}}, {"type": "node", "id": 10173367759, "lat": 52.4549272, "lon": 13.4373988, "tags": {"amenity": "bank", "brand": "Berliner Volksbank", "brand:wikidata": "Q821855", "name": "Berliner Volksbank", "opening_hours": "PH,Mo-Su 06:00-22:00", "self_service": "only", "wheelchair": "no"}}, {"type": "node", "id": 10291939252, "lat": 52.4019474, "lon": 13.2687813}, {"type": "node", "id": 10291939253, "lat": 52.4018328, "lon": 13.2686823}, {"type": "node", "id": 10291939254, "lat": 52.4018324, "lon": 13.2687312}, {"type": "node", "id": 10291939255, "lat": 52.4018765, "lon": 13.2688119}, {"type": "node", "id": 10291939256, "lat": 52.4019077, "lon": 13.2688163}, {"type": "node", "id": 10291939257, "lat": 52.4019363, "lon": 13.2687975}, {"type": "node", "id": 10291939258, "lat": 52.4019558, "lon": 13.2687623}, {"type": "node", "id": 10297240439, "lat": 52.5209246, "lon": 13.4876464, "tags": {"addr:city": "Berlin", "addr:country": "DE", "addr:housenumber": "49-51", "addr:postcode": "10365", "addr:street": "Bornitzstra\u00dfe", "addr:suburb": "Lichtenberg", "amenity": "bank", "atm": "yes", "brand": "Sparda-Bank Berlin", "brand:wikidata": "Q1656189", "name": "Sparda-Bank Berlin", "opening_hours": "Mo,Tu,Th 08:00-20:00", "website": "https://www.sparda-b.de/filialen"}}, {"type": "node", "id": 10568511052, "lat": 52.5158569, "lon": 13.6698477, "tags": {"entrance": "main"}}, {"type": "node", "id": 10568511053, "lat": 52.5159233, "lon": 13.6696116}, {"type": "node", "id": 10589889623, "lat": 52.4041873, "lon": 13.2204579, "tags": {"amenity": "bank", "atm": "yes", "brand": "Deutsche Bank", "brand:wikidata": "Q66048", "name": "Deutsche Bank"}}, {"type": "node", "id": 10599976858, "lat": 52.5495778, "lon": 13.4161093, "tags": {"amenity": "bank", "brand": "Postbank", "brand:wikidata": "Q708835", "check_date": "2024-06-10", "name": "Postbank"}}, {"type": "node", "id": 10772816886, "lat": 52.4167959, "lon": 13.4971895}, {"type": "node", "id": 10772816887, "lat": 52.4167148, "lon": 13.4972781}, {"type": "node", "id": 10839433865, "lat": 52.420872, "lon": 13.4913379}, {"type": "node", "id": 10839433866, "lat": 52.4208842, "lon": 13.4913513}, {"type": "node", "id": 10839433867, "lat": 52.4208987, "lon": 13.4914726}, {"type": "node", "id": 10839433868, "lat": 52.4208904, "lon": 13.4914933}, {"type": "node", "id": 10839791615, "lat": 52.5009575, "lon": 13.3133912, "tags": {"addr:city": "Berlin", "addr:housenumber": "59", "addr:postcode": "10707", "addr:street": "Kurf\u00fcrstendamm", "amenity": "bank", "atm": "yes", "atm:network": "Cash Group", "brand": "Commerzbank", "brand:wikidata": "Q157617", "drive_through": "no", "name": "Commerzbank", "opening_hours": "Mo-Fr 09:00-13:00, Tu 14:00-16:00, Th 14:30-18:00", "operator": "Commerzbank"}}, {"type": "node", "id": 10983348227, "lat": 52.5071376, "lon": 13.3242171}, {"type": "node", "id": 10983348230, "lat": 52.5070364, "lon": 13.3244429}, {"type": "node", "id": 11102502875, "lat": 52.4965976, "lon": 13.2880963, "tags": {"amenity": "bank", "atm": "no", "name": "Quirion AG", "website": "https://www.quirion.de"}}, {"type": "node", "id": 11102502876, "lat": 52.4966213, "lon": 13.2881286, "tags": {"amenity": "bank", "atm": "no", "name": "Quirin Privatbank AG", "website": "https://www.quirinprivatbank.de/", "wikidata": "Q1650369", "wikipedia": "de:Quirin Privatbank"}}, {"type": "node", "id": 11199527234, "lat": 52.4266588, "lon": 13.3267335}, {"type": "node", "id": 11199527235, "lat": 52.4266216, "lon": 13.3265826}, {"type": "node", "id": 11374894270, "lat": 52.5167764, "lon": 13.3097104, "tags": {"addr:city": "Berlin", "addr:housenumber": "84", "addr:postcode": "10585", "addr:street": "Otto-Suhr-Allee", "amenity": "bank", "name": "HW Leasing GmbH"}}, {"type": "node", "id": 11409766032, "lat": 52.4294134, "lon": 13.3302654, "tags": {"amenity": "bank", "atm": "yes", "brand": "Commerzbank", "brand:wikidata": "Q157617", "level": "0", "name": "Commerzbank", "opening_hours": "Mo-Fr 09:00-13:00; Tu 09:00-13:00,14:00-16:00; Th 09:00-13:00,14:00-18:00", "opening_hours:atm": "Mo-Su 05:00-23:00", "wheelchair": "yes"}}, {"type": "node", "id": 11773890562, "lat": 52.5140584, "lon": 13.3194327, "tags": {"addr:housenumber": "6", "addr:street": "Otto-Suhr-Allee", "amenity": "bank", "brand": "Postbank", "brand:wikidata": "Q708835", "name": "Postbank"}}, {"type": "node", "id": 11800101423, "lat": 52.4985964, "lon": 13.4176845, "tags": {"amenity": "bank", "brand": "\u0130\u015fbank", "brand:wikidata": "Q2607251", "check_date": "2024-04-07", "name": "\u0130\u015fbank", "opening_hours": "Mo-We,Fr 08:30-13:00,14:00-16:30; Th 08:30-13:00,14:00-17:30", "phone": "+49 30 6169550", "source": "survey", "website": "https://www.isbank.de"}}, {"type": "node", "id": 11821297384, "lat": 52.4959494, "lon": 13.331636}, {"type": "node", "id": 11821297385, "lat": 52.4959452, "lon": 13.331423}, {"type": "node", "id": 11838472491, "lat": 52.504002, "lon": 13.3363703, "tags": {"addr:city": "Berlin", "addr:housenumber": "13", "addr:street": "Tauentzienstra\u00dfe", "air_conditioning": "yes", "amenity": "bank", "atm": "no", "drive_through": "no", "name": "Berlin Hyp"}}, {"type": "node", "id": 11893054160, "lat": 52.5245453, "lon": 13.336027, "tags": {"amenity": "bank", "atm": "yes", "brand": "Berliner Volksbank", "brand:wikidata": "Q821855", "drive_through": "no", "name": "Berliner Volksbank", "opening_hours": "Mo-Su,PH 06:00-23:00", "self_service": "yes"}}, {"type": "node", "id": 12049637569, "lat": 52.4386366, "lon": 13.2149865, "tags": {"entrance": "shop"}}, {"type": "node", "id": 12887277196, "lat": 52.5421735, "lon": 13.4411349, "tags": {"amenity": "bank", "name": "Sparkasse SB-Service", "opening_hours": "Mo-Fr 06:00-24:00, Sa,Su 08:00-24:00", "wheelchair": "yes"}}, {"type": "node", "id": 13047929937, "lat": 52.5133919, "lon": 13.3151148, "tags": {"barrier": "gate"}}, {"type": "node", "id": 13052003150, "lat": 52.5124275, "lon": 13.3157923}, {"type": "way", "id": 28248222, "nodes": [1598654969, 2267954818, 2267954817, 2656124549, 310242949, 2267954814, 2267954812, 330062562, 310242942, 2267954806, 2267954804, 1598654969], "tags": {"addr:city": "Berlin", "addr:country": "DE", "addr:housenumber": "36", "addr:postcode": "10117", "addr:street": "Behrenstra\u00dfe", "addr:suburb": "Mitte", "amenity": "bank", "building": "yes", "name": "Bankhaus L\u00f6bbecke", "website": "https://www.bankhaus-loebbecke.de/", "wheelchair": "limited", "wikidata": "Q806770", "wikipedia": "de:Bankhaus L\u00f6bbecke"}}, {"type": "way", "id": 28413481, "nodes": [3345025302, 3345025303, 3345025310, 3345025291, 3345025289, 3345025288, 3345025287, 3345025275, 3345025276, 3345025278, 3345025279, 3345025280, 3345025277, 3345025274, 3345025273, 3345025271, 3345025269, 3345025268, 3345025267, 3345025265, 3345025300, 3345025305, 3345025304, 3345025297, 3345025299, 3345025302], "tags": {"amenity": "bank", "building": "yes", "check_date": "2024-07-29", "name": "S Kreditpartner", "operator": "Sparkasse (LBB)", "wheelchair": "no"}}, {"type": "way", "id": 35983986, "nodes": [3229468956, 3229468947, 3229468945, 3229468944, 3229468943, 3229468940, 3229468936, 3229468930, 3229468933, 3229468932, 3229468929, 3229468904, 3229468752, 3229468746, 3229468747, 3229468744, 3229468742, 3229468740, 3229468718, 3229468716, 3229468715, 3229468711, 3229468710, 3229468708, 3229468706, 3229468705, 11821297385, 7885159225, 3229468697, 3229468696, 3229468693, 3229468692, 3229468688, 3229468687, 3229468685, 3229468683, 3229468681, 3229468677, 3229468675, 3229468676, 3229468671, 3229468670, 3229468560, 3229468661, 3229468559, 3229468558, 3229468662, 3229468663, 3229468665, 3229468664, 3229468667, 3229468666, 3229468673, 3229468668, 3229468669, 3229468674, 3229468672, 3229468678, 3229468679, 3229468680, 3229468682, 3229468684, 3229468686, 3229468689, 3229468691, 3229468690, 3229468694, 3229468695, 3229468698, 7885159226, 11821297384, 3229468707, 3229468709, 3229468713, 3229468712, 3229468717, 3229468719, 3229468704, 3229468701, 3229468699, 3229468703, 3229468866, 3229468956], "tags": {"addr:city": "Berlin", "addr:housenumber": "210", "addr:postcode": "10719", "addr:street": "Bundesallee", "amenity": "bank", "building": "office", "contact:website": "https://www.ibb.de/", "description": "F\u00f6rderbank des Landes Berlin", "layer": "1", "name": "Investitionsbank Berlin", "opening_hours": "Mo-Th 08:00-17:00, Fr 08:00-15:00", "operator": "Land Berlin", "operator:type": "public", "short_name": "IBB", "start_date": "1924", "wikidata": "Q1671745", "wikipedia": "de:Investitionsbank Berlin"}}, {"type": "way", "id": 46596634, "nodes": [1509481516, 5482451242, 5482450581, 11199527235, 5482451241, 5482450580, 11199527234, 5482450456, 1509481516], "tags": {"addr:city": "Berlin", "addr:country": "DE", "addr:housenumber": "8", "addr:postcode": "12209", "addr:street": "Oberhofer Weg", "addr:suburb": "Lichterfelde", "amenity": "bank", "atm": "yes", "building": "yes", "check_date:opening_hours": "2024-12-03", "name": "Sparkasse", "opening_hours": "Mo,We,Fr 09:30-15:00; Tu,Th 09:30-18:00", "operator": "Berliner Sparkasse", "ref": "PKC 126", "wheelchair": "yes"}}, {"type": "way", "id": 50261756, "nodes": [638774237, 10983348230, 2915571936, 2915565721, 638774236, 10983348227, 1850586690, 638774242, 638774240, 638774237], "tags": {"addr:city": "Berlin", "addr:country": "DE", "addr:housenumber": "13", "addr:postcode": "10623", "addr:street": "Carmerstra\u00dfe", "addr:suburb": "Charlottenburg", "amenity": "bank", "building": "commercial", "building:levels": "6", "name": "Hauck Aufh\u00e4user Lampe", "opening_hours": "Mo-Fr 09:00-14:00, Mo-Th 15:00-16:30, Fr 15:00-15:30", "roof:levels": "1", "roof:shape": "double_saltbox", "website": "https://www.hal-privatbank.com/", "wheelchair": "no"}}, {"type": "way", "id": 60202998, "nodes": [747764174, 747764176, 747764189, 738234520, 738234545, 992730023, 747764188, 747764174], "tags": {"amenity": "bank", "atm": "no", "brand": "Reisebank", "brand:wikidata": "Q1421107", "brand:wikipedia": "de:Reisebank", "indoor": "room", "level": "1", "name": "Reisebank", "opening_hours": "Mo-Su,PH 09:00-19:00", "wheelchair": "limited"}}, {"type": "way", "id": 95912774, "nodes": [1111324890, 1111324834, 5440795335, 10291939258, 10291939252, 10291939257, 5440795337, 10291939256, 5440795334, 10291939255, 5440795338, 5440795333, 5440795336, 10291939254, 5440795332, 10291939253, 5440795339, 1111324885, 1111324890], "tags": {"addr:city": "Teltow", "addr:housenumber": "9", "addr:postcode": "14513", "addr:street": "Zehlendorfer Stra\u00dfe", "amenity": "bank", "atm": "yes", "brand": "Mittelbrandenburgische Sparkasse", "brand:wikidata": "Q1940058", "building": "yes", "name": "Mittelbrandenburgische Sparkasse"}}, {"type": "way", "id": 118613212, "nodes": [1333724496, 6778945919, 6778945918, 6778945917, 6778945916, 6778945915, 1333724501, 12049637569, 6778945912, 6778945913, 6778945914, 1333724495, 1333724491, 6778945920, 1333724496], "tags": {"addr:city": "Berlin", "addr:country": "DE", "addr:housenumber": "6", "addr:postcode": "14129", "addr:street": "Breisgauer Stra\u00dfe", "addr:suburb": "Schlachtensee", "amenity": "bank", "atm": "yes", "building": "yes", "name": "Sparkasse", "opening_hours": "Mo,We,Fr 09:30-15:00; Tu,Th 09:30-18:00", "operator": "Berliner Sparkasse", "phone": "+49 30 86986969", "ref": "PKC 104", "source": "Geoportal Berlin / k5_2012_sw_sued.zip", "website": "https://www.berliner-sparkasse.de/", "wheelchair": "yes"}}, {"type": "way", "id": 129778073, "nodes": [10772816886, 10772816887, 1431083663, 1431083662, 1431083665, 10772816886], "tags": {"addr:city": "Berlin", "addr:country": "DE", "addr:housenumber": "71", "addr:postcode": "12355", "addr:street": "Alt-Rudow", "amenity": "bank", "atm": "yes", "brand": "Berliner Volksbank", "brand:wikidata": "Q821855", "brand:wikipedia": "de:Berliner Volksbank", "building": "yes", "contact:website": "https://www.berliner-volksbank.de/", "name": "Berliner Volksbank", "opening_hours": "Mo-Th 10:00-13:00,14:00-18:00; We,Fr 10:00-13:00,14:00-16:00", "operator": "Berliner Volksbank eG", "wheelchair": "limited"}}, {"type": "way", "id": 210920895, "nodes": [701065511, 10839433867, 10839433868, 2209496065, 2209496021, 2209496034, 2209496030, 2209496050, 2209496071, 2209496066, 10839433865, 10839433866, 701065511], "tags": {"addr:city": "Berlin", "addr:country": "DE", "addr:housenumber": "15", "addr:postcode": "12357", "addr:street": "Alt-Rudow", "addr:suburb": "Rudow", "amenity": "bank", "atm": "yes", "building": "yes", "name": "Sparkasse", "opening_hours": "Mo,We,Fr 09:30-15:00; Tu,Th 09:30-18:00", "operator": "Berliner Sparkasse", "ref": "PKC 145", "wheelchair": "yes"}}, {"type": "way", "id": 336063499, "nodes": [3431432675, 3431432682, 3431432686, 3431432673, 3431432662, 4357762785, 3431432672, 3431432675], "tags": {"access": "customers", "addr:city": "Berlin", "addr:country": "DE", "addr:housenumber": "5", "addr:postcode": "10243", "addr:street": "Am Ostbahnhof", "addr:suburb": "Friedrichshain", "amenity": "bank", "atm": "yes", "brand": "Reisebank", "brand:wikidata": "Q1421107", "brand:wikipedia": "de:Reisebank", "indoor": "room", "level": "0", "name": "Reisebank", "opening_hours": "Mo-Fr 09:00-19:00; Sa 10:00-18:00", "operator": "ReiseBank", "room": "shop", "western_union": "yes", "wheelchair": "yes"}}, {"type": "way", "id": 422475544, "nodes": [4221323799, 4221323792, 9891857477, 4221322270, 3249332574, 269380900, 4221322283, 4221323803, 4221323814, 4221323826, 4221323835, 4221323821, 4221323820, 4221323799], "tags": {"addr:city": "Berlin", "addr:country": "DE", "addr:housenumber": "28", "addr:postcode": "10115", "addr:street": "Invalidenstra\u00dfe", "addr:suburb": "Mitte", "amenity": "bank", "bic": "ABKBDEB1", "check_date": "2025-05-11", "name": "Allgemeine Beamten Bank", "opening_hours": "Mo-Fr 09:00-13:00, Mo,We 14:00-18:00", "source": "Geoportal Berlin / Hauskoordinaten", "website": "https://www.abkbank.de/", "wheelchair": "yes"}}, {"type": "way", "id": 423847739, "nodes": [4233705441, 4233705435, 4233705436, 4233705444, 4233705441], "tags": {"amenity": "bank", "atm": "yes", "brand": "Sparda-Bank Berlin", "brand:wikidata": "Q1656189", "brand:wikipedia": "de:Sparda-Bank (Deutschland)", "building:part": "yes", "check_date": "2025-07-04", "contact:phone": "+49 30 32894523", "contact:website": "https://www.sparda-b.de/", "indoor": "room", "level": "0", "name": "Sparda-Bank Berlin", "network": "CashPool;BankCard ServiceNetz", "opening_hours": "Mo,Th 09:00-13:00,14:00-18:00", "operator": "Sparda-Bank Berlin eG", "toilets:wheelchair": "yes", "wheelchair": "yes"}}, {"type": "way", "id": 611744021, "nodes": [5791596674, 5791596673, 5791596706, 1023483777, 5791596672, 13052003150, 5791596671, 5791596656, 5791596670, 1023500009, 8229424320, 8229424323, 5791621135, 5791596669, 5791596668, 5762019473, 1023499968, 7822616409, 1023483588, 1023484057, 5791596667, 5791596666, 5791596665, 5791596664, 5791596663, 1023483703, 1023483201, 5791596660, 1023483912, 1023483477, 1023484105, 13047929937, 5791596662, 5791596694, 5791596695, 5791596696, 5791596697, 5791596699, 5791596549, 5791596698, 5791596661, 5791596674], "tags": {"addr:city": "Berlin", "addr:country": "DE", "addr:housename": "Deutsche Bundesbank", "addr:housenumber": "10", "addr:postcode": "10625", "addr:street": "Leibnizstra\u00dfe", "addr:suburb": "Charlottenburg", "amenity": "bank", "contact:phone": "+49 30 34750", "contact:website": "https://www.bundesbank.de/de/bundesbank/hauptverwaltungen-filialen/bbb", "name": "Deutsche Bundesbank", "opening_hours": "Mo-Fr 08:00-13:00", "wheelchair": "yes"}}, {"type": "way", "id": 1133547175, "nodes": [10568511053, 774451286, 774451287, 10568511052, 774451289, 10568511053], "tags": {"addr:city": "Hoppegarten", "addr:country": "DE", "addr:housenumber": "6", "addr:postcode": "15366", "addr:street": "Lindenallee", "addr:suburb": "Dahlwitz-Hoppegarten", "amenity": "bank", "atm": "yes", "building": "commercial", "building:levels": "2", "name": "Sparkasse", "opening_hours": "Mo,Th 08:30-13:00", "operator": "Sparkasse M\u00e4rkisch Oderland", "roof:levels": "1", "roof:shape": "flat", "wheelchair": "yes"}}]}